{"type":"FeatureCollection","features":[{"type":"Feature","geometry":{"type":"Polygon","coordinates":[[[20.3076,40.7086],[20.2384,40.6981],[20.2128,40.7297],[20.1706,40.7252],[20.1676,40.7583],[20.1179,40.7493],[20.1149,40.7734],[20.0818,40.7854],[20.0969,40.8125],[20.008,40.8261],[20.0366,40.8517],[20.0171,40.8743],[19.8286,40.868],[19.7645,40.8409],[19.7685,40.8125],[19.7262,40.8111],[19.7745,40.708],[19.8237,40.68],[19.8157,40.6478],[19.8576,40.622],[19.8157,40.6155],[19.8495,40.5945],[19.8479,40.5461],[19.9286,40.5348],[19.9523,40.4963],[19.999,40.4963],[20.0336,40.4738],[20.0427,40.4948],[20.0622,40.4963],[20.0637,40.4723],[20.0908,40.4707],[20.0908,40.4948],[20.1315,40.4888],[20.1977,40.4196],[20.276,40.3774],[20.3423,40.3849],[20.3302,40.4211],[20.3498,40.4391],[20.4431,40.4421],[20.4356,40.5385],[20.4657,40.5656],[20.3799,40.6047],[20.3739,40.6349],[20.3076,40.7086]]]},"properties":{"iso3":"ALB","shapeId":"10019604B1094996199402","regionId":"ALB.1_1","name":"Berat"}},{"type":"Feature","geometry":{"type":"Polygon","coordinates":[[[20.5461,41.8212],[20.5068,41.8191],[20.4821,41.8532],[20.4428,41.8583],[20.3995,41.8181],[20.353,41.817],[20.3354,41.8408],[20.3478,41.8635],[20.3189,41.8893],[20.289,41.8893],[20.2601,41.8604],[20.1819,41.861],[20.1803,41.8449],[20.1254,41.8304],[20.1803,41.8094],[20.1835,41.7868],[20.0883,41.7384],[20.0464,41.7384],[20.0432,41.7094],[19.9513,41.7158],[19.942,41.6807],[19.8543,41.6921],[19.8233,41.7344],[19.7727,41.6941],[19.8181,41.659],[19.8191,41.6343],[19.7954,41.6219],[19.8377,41.6095],[19.8305,41.5537],[19.9462,41.4949],[19.9864,41.4195],[20.0484,41.3947],[20.0494,41.371],[20.0783,41.3627],[20.099,41.403],[20.1248,41.3906],[20.1382,41.3513],[20.2239,41.3431],[20.2755,41.3706],[20.311,41.3593],[20.4029,41.4028],[20.4304,41.3577],[20.5175,41.3351],[20.5622,41.4033],[20.4683,41.4997],[20.4655,41.5413],[20.5616,41.5816],[20.5182,41.6683],[20.5272,41.7746],[20.5747,41.7971],[20.5461,41.8212]]]},"properties":{"iso3":"ALB","shapeId":"10019604B38416360860341","regionId":"ALB.2_1","name":"Dibër"}},{"type":"Feature","geometry":{"type":"Polygon","coordinates":[[[19.8243,41.5682],[19.7727,41.5764],[19.7386,41.5547],[19.6911,41.5547],[19.5579,41.5826],[19.4929,41.5661],[19.4505,41.5837],[19.5145,41.5238],[19.5069,41.4767],[19.4464,41.3986],[19.396,41.4011],[19.415,41.3233],[19.4791,41.3107],[19.5181,41.2731],[19.5817,41.2496],[19.5866,41.2818],[19.6301,41.2899],[19.6446,41.348],[19.6043,41.3996],[19.5995,41.4383],[19.6253,41.4545],[19.7231,41.3988],[19.8253,41.4577],[19.8522,41.4381],[19.8641,41.4722],[19.8818,41.4625],[19.8996,41.4803],[19.9049,41.5062],[19.8243,41.5682]]]},"properties":{"iso3":"ALB","shapeId":"10019604B56812167051250","regionId":"ALB.3_1","name":"Durrës"}},{"type":"Feature","geometry":{"type":"Polygon","coordinates":[[[20.3076,40.7086],[20.2896,40.7222],[20.3257,40.7372],[20.4507,40.7433],[20.4778,40.7854],[20.4672,40.8246],[20.3799,40.9224],[20.4371,40.9345],[20.4176,40.951],[20.4236,40.9811],[20.5359,41.0383],[20.5967,41.0103],[20.6066,41.0225],[20.622,41.0695],[20.5813,41.1117],[20.5951,41.1359],[20.5166,41.2305],[20.5151,41.2871],[20.4916,41.3325],[20.5175,41.3351],[20.4304,41.3577],[20.4029,41.4028],[20.311,41.3593],[20.2755,41.3706],[20.2023,41.3154],[20.1209,41.3018],[20.1119,41.2717],[20.0788,41.2687],[20.0758,41.2356],[20.0035,41.2522],[19.9975,41.2175],[19.9232,41.1674],[19.8143,41.1482],[19.8201,41.1164],[19.7526,41.1154],[19.7305,41.0874],[19.6948,41.0865],[19.678,41.0371],[19.6938,41.0134],[19.7209,40.9955],[19.7507,41.0233],[19.8174,40.9922],[19.793,40.9651],[19.8088,40.9301],[19.7936,40.9228],[19.8161,40.9076],[19.785,40.8944],[19.8082,40.8719],[20.0171,40.8743],[20.0366,40.8517],[20.008,40.8261],[20.0969,40.8125],[20.0818,40.7854],[20.1149,40.7734],[20.1179,40.7493],[20.1676,40.7583],[20.1706,40.7252],[20.2128,40.7297],[20.2384,40.6981],[20.3076,40.7086]]]},"properties":{"iso3":"ALB","shapeId":"10019604B8832247678249","regionId":"ALB.4_1","name":"Elbasan"}},{"type":"Feature","geometry":{"type":"Polygon","coordinates":[[[19.8286,40.868],[19.785,40.8944],[19.8161,40.9076],[19.7936,40.9228],[19.8088,40.9301],[19.793,40.9651],[19.8174,40.9922],[19.7883,41.0127],[19.7507,41.0233],[19.7209,40.9955],[19.6337,41.0689],[19.6086,41.0504],[19.5729,41.0649],[19.5313,41.0404],[19.4771,41.049],[19.446,40.9988],[19.4731,40.9704],[19.4473,40.9446],[19.4645,40.944],[19.4493,40.9175],[19.4249,40.9248],[19.3731,40.8929],[19.3999,40.8918],[19.4061,40.866],[19.3614,40.8296],[19.3753,40.8085],[19.3561,40.7807],[19.3575,40.7106],[19.3502,40.6869],[19.3046,40.6704],[19.3072,40.6525],[19.3687,40.6572],[19.4057,40.636],[19.4315,40.6532],[19.4751,40.6109],[19.5306,40.6003],[19.526,40.5798],[19.565,40.5864],[19.5544,40.5666],[19.6969,40.5327],[19.7608,40.4719],[19.7366,40.438],[19.8028,40.4219],[19.8205,40.459],[19.8883,40.4897],[19.9286,40.5348],[19.8479,40.5461],[19.8495,40.5945],[19.8157,40.6155],[19.8576,40.622],[19.8157,40.6478],[19.8237,40.68],[19.7745,40.708],[19.7262,40.8111],[19.7685,40.8125],[19.7645,40.8409],[19.8286,40.868]],[[19.4825,40.9437],[19.4975,40.9867],[19.5183,40.9767],[19.5174,40.9023],[19.4447,40.8878],[19.4825,40.9437]]]},"properties":{"iso3":"ALB","shapeId":"10019604B18588012879070","regionId":"ALB.5_1","name":"Fier"}},{"type":"Feature","geometry":{"type":"Polygon","coordinates":[[[19.9286,40.5348],[19.8883,40.4897],[19.8205,40.459],[19.8028,40.4219],[19.7656,40.4203],[19.8001,40.3771],[19.7451,40.3553],[19.8308,40.2842],[19.8146,40.2721],[19.8852,40.1462],[19.9328,40.1068],[19.9481,40.058],[20.084,40.0409],[20.1587,39.968],[20.2369,39.9295],[20.2354,39.9028],[20.2662,39.8659],[20.3133,39.8534],[20.314,39.8105],[20.3818,39.7849],[20.4149,39.8143],[20.4153,39.8425],[20.3695,39.9118],[20.341,39.9192],[20.3437,39.956],[20.3217,39.9918],[20.3961,39.9964],[20.4182,40.0534],[20.465,40.0727],[20.5018,40.0635],[20.5248,40.0819],[20.556,40.0589],[20.6298,40.0838],[20.5546,40.1516],[20.4989,40.1726],[20.538,40.1967],[20.5004,40.2615],[20.4943,40.3157],[20.5154,40.3563],[20.4582,40.3879],[20.4718,40.4286],[20.3498,40.4391],[20.3302,40.4211],[20.3423,40.3849],[20.276,40.3774],[20.1977,40.4196],[20.1315,40.4888],[20.0908,40.4948],[20.0908,40.4707],[20.0637,40.4723],[20.0622,40.4963],[20.0427,40.4948],[20.0336,40.4738],[19.999,40.4963],[19.9523,40.4963],[19.9286,40.5348]]]},"properties":{"iso3":"ALB","shapeId":"10019604B29738820438867","regionId":"ALB.6_1","name":"Gjirokastër"}},{"type":"Feature","geometry":{"type":"Polygon","coordinates":[[[20.4431,40.4421],[20.4718,40.4286],[20.4582,40.3879],[20.5154,40.3563],[20.4943,40.3157],[20.5004,40.2615],[20.538,40.1967],[20.4989,40.1726],[20.5546,40.1516],[20.6298,40.0838],[20.6901,40.0959],[20.7021,40.1485],[20.6856,40.1922],[20.7262,40.2012],[20.7111,40.269],[20.7985,40.3578],[20.7955,40.4271],[20.8436,40.4482],[20.8542,40.4813],[20.9596,40.4692],[20.9822,40.5159],[21.062,40.5671],[21.0604,40.683],[20.9927,40.7282],[20.9882,40.7869],[20.946,40.7613],[20.9189,40.7869],[20.9475,40.802],[20.9656,40.8471],[20.9415,40.8773],[20.9505,40.8953],[20.9852,40.8863],[20.949,40.9285],[20.9174,40.9164],[20.8512,40.936],[20.8105,40.8968],[20.6489,40.9135],[20.6527,40.9704],[20.6342,41.0055],[20.6476,41.0695],[20.5943,41.0935],[20.622,41.0695],[20.5967,41.0103],[20.5359,41.0383],[20.4236,40.9811],[20.4176,40.951],[20.4371,40.9345],[20.3799,40.9224],[20.4672,40.8246],[20.4778,40.7854],[20.4507,40.7433],[20.3573,40.7433],[20.2896,40.7222],[20.3739,40.6349],[20.3799,40.6047],[20.4657,40.5656],[20.4356,40.5385],[20.4431,40.4421]]]},"properties":{"iso3":"ALB","shapeId":"10019604B11091570243697","regionId":"ALB.7_1","name":"Korçë"}},{"type":"Feature","geometry":{"type":"Polygon","coordinates":[[[20.5461,41.8212],[20.5667,41.8769],[20.5965,41.8788],[20.5771,41.912],[20.6211,41.9431],[20.6035,42.0364],[20.5581,42.0818],[20.5707,42.1297],[20.5034,42.2405],[20.3489,42.3189],[20.238,42.3414],[20.2506,42.3717],[20.2102,42.3969],[20.238,42.4347],[20.1699,42.5053],[20.0597,42.5574],[20.0133,42.5419],[20.0009,42.5109],[19.9441,42.5233],[19.91,42.5109],[19.9028,42.4892],[19.846,42.4892],[19.7939,42.4138],[19.8298,42.399],[19.8142,42.3666],[19.8468,42.3142],[19.8338,42.2513],[19.8847,42.244],[19.9372,42.2698],[19.9824,42.2489],[20.0268,42.2618],[20.2383,42.1802],[20.2375,42.1625],[20.1947,42.1463],[20.1907,42.1011],[20.1511,42.0599],[20.1721,42.0018],[20.2342,42.0339],[20.2601,42.0132],[20.259,41.9513],[20.1898,41.8996],[20.2239,41.88],[20.2064,41.8656],[20.2601,41.8604],[20.289,41.8893],[20.3189,41.8893],[20.3478,41.8635],[20.3354,41.8408],[20.353,41.817],[20.3995,41.8181],[20.4428,41.8583],[20.4821,41.8532],[20.5068,41.8191],[20.5461,41.8212]]]},"properties":{"iso3":"ALB","shapeId":"10019604B40645538692706","regionId":"ALB.8_1","name":"Kukës"}},{"type":"Feature","geometry":{"type":"Polygon","coordinates":[[[20.2064,41.8656],[20.2239,41.88],[20.1898,41.8996],[20.259,41.9513],[20.2601,42.0132],[20.2342,42.0339],[20.098,41.9739],[20.091,41.9166],[20.0414,41.9222],[19.9884,41.8625],[19.9213,41.8909],[19.9184,41.9789],[19.8437,41.9363],[19.763,41.9523],[19.7642,41.9288],[19.7319,41.9269],[19.6964,41.8914],[19.5978,41.9411],[19.565,41.9377],[19.5843,41.8669],[19.534,41.8347],[19.6052,41.812],[19.6128,41.7591],[19.575,41.749],[19.5977,41.7087],[19.5598,41.6431],[19.5966,41.6328],[19.5951,41.6157],[19.5579,41.5826],[19.6911,41.5547],[19.7386,41.5547],[19.7727,41.5764],[19.8243,41.5682],[19.8377,41.6095],[19.7954,41.6219],[19.8191,41.6343],[19.8181,41.659],[19.7727,41.6941],[19.8233,41.7344],[19.8543,41.6921],[19.942,41.6807],[19.9513,41.7158],[20.0432,41.7094],[20.0464,41.7384],[20.0883,41.7384],[20.1835,41.7868],[20.1803,41.8094],[20.1254,41.8304],[20.2064,41.8656]]]},"properties":{"iso3":"ALB","shapeId":"10019604B99204019868502","regionId":"ALB.9_1","name":"Lezhë"}},{"type":"Feature","geometry":{"type":"Polygon","coordinates":[[[19.8264,42.4603],[19.7593,42.5131],[19.7444,42.5481],[19.7753,42.5934],[19.7511,42.6143],[19.7568,42.6366],[19.7198,42.6619],[19.6113,42.5779],[19.6153,42.5417],[19.5635,42.5143],[19.4686,42.3905],[19.4253,42.3718],[19.4149,42.345],[19.4319,42.3361],[19.3591,42.2189],[19.4319,42.1795],[19.4715,42.1314],[19.476,42.055],[19.3788,42.0727],[19.3875,41.9678],[19.351,41.9546],[19.3693,41.9286],[19.3426,41.9069],[19.3683,41.8911],[19.3731,41.8508],[19.4521,41.8667],[19.534,41.8347],[19.5843,41.8669],[19.565,41.9377],[19.5978,41.9411],[19.6964,41.8914],[19.7319,41.9269],[19.7642,41.9288],[19.763,41.9523],[19.8437,41.9363],[19.9184,41.9789],[19.9213,41.8909],[19.9884,41.8625],[20.0414,41.9222],[20.091,41.9166],[20.098,41.9739],[20.1721,42.0018],[20.1511,42.0599],[20.1907,42.1011],[20.1947,42.1463],[20.2375,42.1625],[20.2383,42.1802],[20.0268,42.2618],[19.9824,42.2489],[19.9372,42.2698],[19.8847,42.244],[19.8338,42.2513],[19.8468,42.3142],[19.8142,42.3666],[19.8298,42.399],[19.7939,42.4138],[19.8264,42.4603]]]},"properties":{"iso3":"ALB","shapeId":"10019604B9428140626415","regionId":"ALB.10_1","name":"Shkodër"}},{"type":"Feature","geometry":{"type":"Polygon","coordinates":[[[19.9049,41.5062],[19.8522,41.4381],[19.8253,41.4577],[19.7427,41.4019],[19.6253,41.4545],[19.5995,41.4383],[19.6043,41.3996],[19.6446,41.348],[19.6301,41.2899],[19.5866,41.2818],[19.5817,41.2496],[19.5181,41.2731],[19.5172,41.2356],[19.4556,41.1485],[19.4352,41.1466],[19.4572,41.0845],[19.446,40.9988],[19.4771,41.049],[19.5313,41.0404],[19.5729,41.0649],[19.6086,41.0504],[19.6337,41.0689],[19.678,41.0371],[19.6948,41.0865],[19.7305,41.0874],[19.7526,41.1154],[19.8201,41.1164],[19.8143,41.1482],[19.9232,41.1674],[19.9975,41.2175],[20.0035,41.2522],[20.0758,41.2356],[20.0788,41.2687],[20.1119,41.2717],[20.1209,41.3018],[20.2023,41.3154],[20.2239,41.3431],[20.1382,41.3513],[20.1248,41.3906],[20.099,41.403],[20.0783,41.3627],[20.0494,41.371],[20.0484,41.3947],[19.9864,41.4195],[19.9462,41.4949],[19.9049,41.5062]]]},"properties":{"iso3":"ALB","shapeId":"10019604B30424798991477","regionId":"ALB.11_1","name":"Tiranë"}},{"type":"Feature","geometry":{"type":"MultiPolygon","coordinates":[[[[19.2886,40.4755],[19.29,40.4998],[19.2661,40.5128],[19.2886,40.4755]]],[[[19.3072,40.6525],[19.3881,40.5217],[19.3898,40.5677],[19.4544,40.554],[19.452,40.5015],[19.4108,40.5209],[19.3873,40.5112],[19.4794,40.4377],[19.4738,40.3488],[19.4358,40.3149],[19.4043,40.3391],[19.4025,40.3835],[19.3518,40.4296],[19.3146,40.4361],[19.2799,40.4159],[19.3607,40.3343],[19.3647,40.2963],[19.4649,40.2131],[19.628,40.1372],[19.7048,40.1211],[19.7128,40.1033],[19.7435,40.1073],[19.7597,40.0968],[19.7476,40.0807],[19.7936,40.0653],[19.7976,40.0484],[19.855,40.05],[19.9362,39.9432],[19.9077,39.9059],[19.9724,39.878],[19.9734,39.8573],[20.0199,39.8594],[20.0045,39.7664],[19.9709,39.7664],[19.9907,39.7447],[19.9867,39.6836],[20.2214,39.6362],[20.2411,39.6816],[20.2687,39.6678],[20.2864,39.7131],[20.3298,39.7269],[20.3002,39.7703],[20.3133,39.8534],[20.2662,39.8659],[20.2354,39.9028],[20.2369,39.9295],[20.0499,40.0562],[19.9481,40.058],[19.9328,40.1068],[19.8852,40.1462],[19.8146,40.2721],[19.8308,40.2842],[19.7451,40.3553],[19.8001,40.3771],[19.7366,40.438],[19.7608,40.4719],[19.7449,40.4985],[19.714,40.5009],[19.6969,40.5327],[19.5544,40.5666],[19.565,40.5864],[19.526,40.5798],[19.5306,40.6003],[19.4751,40.6109],[19.4315,40.6532],[19.4057,40.636],[19.3687,40.6572],[19.3072,40.6525]]]]},"properties":{"iso3":"ALB","shapeId":"10019604B59649873769490","regionId":"ALB.12_1","name":"Vlorë"}}]}