{"type":"FeatureCollection","features":[{"type":"Feature","geometry":{"type":"MultiPolygon","coordinates":[[[[53.8564,24.0793],[53.8659,24.0807],[53.864,24.0908],[53.8546,24.0894],[53.8564,24.0793]]],[[[53.1614,24.1088],[53.2129,24.1295],[53.1906,24.1595],[53.133,24.1748],[53.1308,24.1312],[53.1093,24.1353],[53.1614,24.1088]]],[[[53.8579,24.1659],[53.8532,24.1704],[53.8505,24.1706],[53.8504,24.167],[53.8414,24.1562],[53.842,24.1508],[53.8476,24.1481],[53.8517,24.1558],[53.8575,24.1587],[53.8647,24.1595],[53.8579,24.1659]]],[[[54.0844,24.1625],[54.095,24.165],[54.1001,24.1644],[54.1058,24.1671],[54.1063,24.1704],[54.0951,24.1751],[54.0896,24.1752],[54.0846,24.1723],[54.0807,24.1674],[54.0815,24.1642],[54.0844,24.1625]]],[[[51.9876,24.1696],[52.0027,24.1654],[51.9934,24.2081],[51.9876,24.1696]]],[[[52.7784,24.1807],[52.774,24.1787],[52.7725,24.1741],[52.7768,24.1703],[52.7802,24.1712],[52.7849,24.1678],[52.785,24.1662],[52.7887,24.1677],[52.7843,24.1734],[52.7832,24.1832],[52.7822,24.1838],[52.7784,24.1807]]],[[[53.5338,24.2037],[53.5346,24.2012],[53.5322,24.1993],[53.5343,24.195],[53.5333,24.1925],[53.5432,24.1832],[53.5439,24.1879],[53.5409,24.1972],[53.5424,24.1997],[53.5338,24.2037]]],[[[53.4279,24.1958],[53.4154,24.2193],[53.3807,24.2133],[53.4006,24.1931],[53.4279,24.1958]]],[[[53.817,24.2293],[53.8182,24.2277],[53.8165,24.2247],[53.8151,24.2236],[53.8134,24.2245],[53.8103,24.2215],[53.8056,24.2161],[53.8059,24.2136],[53.8087,24.2128],[53.8136,24.2157],[53.817,24.2187],[53.8154,24.2201],[53.8159,24.2215],[53.8155,24.2201],[53.8172,24.2187],[53.8247,24.2265],[53.8237,24.2282],[53.8219,24.2287],[53.8217,24.2282],[53.8199,24.2342],[53.8194,24.2304],[53.8179,24.2365],[53.8158,24.2397],[53.8167,24.2376],[53.8156,24.2393],[53.8145,24.2374],[53.8142,24.2395],[53.8139,24.2367],[53.817,24.2293]]],[[[53.818,24.2431],[53.817,24.2391],[53.8205,24.2355],[53.8217,24.2293],[53.8238,24.2282],[53.8252,24.2267],[53.826,24.2299],[53.8275,24.2303],[53.828,24.2344],[53.8254,24.2422],[53.8243,24.2439],[53.8256,24.239],[53.8237,24.2426],[53.8226,24.2379],[53.8238,24.2442],[53.8223,24.2452],[53.819,24.242],[53.8233,24.2355],[53.8221,24.2355],[53.8227,24.2328],[53.818,24.2431]]],[[[51.535,24.4146],[51.5647,24.3991],[51.5577,24.4199],[51.535,24.4146]]],[[[51.9999,24.2154],[52.0234,24.2266],[52.0197,24.2547],[52.0026,24.2482],[51.9999,24.2154]]],[[[54.3264,24.2577],[54.3082,24.2428],[54.354,24.252],[54.3264,24.2577]]],[[[53.7892,24.2313],[53.7755,24.2267],[53.8032,24.2474],[53.7729,24.2303],[53.7579,24.237],[53.7726,24.2488],[53.7317,24.2376],[53.7005,24.218],[53.7154,24.2091],[53.7005,24.2165],[53.6228,24.1672],[53.6434,24.1467],[53.6813,24.1613],[53.7783,24.1196],[53.8308,24.1369],[53.8467,24.1797],[53.8807,24.148],[53.849,24.1492],[53.9075,24.12],[53.8986,24.1487],[53.9303,24.1291],[53.97,24.1542],[53.9461,24.1537],[53.973,24.1816],[53.9372,24.2104],[53.9447,24.2226],[53.9086,24.2112],[53.862,24.2387],[53.854,24.261],[53.8773,24.2652],[53.8484,24.2737],[53.825,24.249],[53.8053,24.2089],[53.8155,24.1868],[53.7984,24.2169],[53.8191,24.2605],[53.7892,24.2313]]],[[[54.4471,24.3303],[54.4486,24.3337],[54.4501,24.334],[54.4492,24.336],[54.4508,24.3417],[54.4528,24.3425],[54.4511,24.343],[54.4522,24.3484],[54.4445,24.3505],[54.439,24.3454],[54.4371,24.3345],[54.4387,24.3315],[54.4471,24.3303]]],[[[54.4206,24.2963],[54.4225,24.3001],[54.4183,24.3036],[54.3939,24.2984],[54.3848,24.3094],[54.3807,24.3083],[54.381,24.3048],[54.3864,24.2984],[54.3895,24.2958],[54.392,24.2962],[54.3956,24.2929],[54.408,24.2919],[54.4206,24.2963]]],[[[54.237,24.2579],[54.2523,24.2787],[54.2988,24.2685],[54.216,24.3575],[54.1694,24.3331],[54.2183,24.3551],[54.165,24.3104],[54.237,24.2579]]],[[[52.5946,24.2657],[52.5882,24.2517],[52.6088,24.2571],[52.5946,24.2657]]],[[[53.815,24.2768],[53.8161,24.2643],[53.8725,24.2905],[53.815,24.2768]]],[[[53.2676,24.2747],[53.2831,24.2909],[53.3335,24.2598],[53.3303,24.292],[53.3486,24.303],[53.3034,24.3143],[53.2232,24.2908],[53.2442,24.269],[53.2676,24.2747]]],[[[53.1968,24.3122],[53.1865,24.2957],[53.2125,24.2863],[53.1968,24.3122]]],[[[53.086,24.3187],[53.1059,24.3107],[53.0913,24.3428],[53.0761,24.3361],[53.086,24.3187]]],[[[54.1933,24.3654],[54.2044,24.3766],[54.2695,24.3519],[54.2435,24.3864],[54.26,24.4142],[54.1933,24.3654]]],[[[54.3163,24.3191],[54.3532,24.3526],[54.2937,24.399],[54.3158,24.3639],[54.2946,24.3777],[54.288,24.3472],[54.3163,24.3191]]],[[[54.3773,24.3722],[54.3813,24.3709],[54.3841,24.372],[54.3876,24.3769],[54.3869,24.3811],[54.3835,24.3846],[54.3775,24.3806],[54.3747,24.3812],[54.3697,24.377],[54.3708,24.3762],[54.3694,24.374],[54.3705,24.3739],[54.3702,24.3704],[54.3773,24.3722]]],[[[52.5526,24.304],[52.5988,24.2625],[52.6342,24.2885],[52.641,24.3018],[52.6195,24.2865],[52.6469,24.3366],[52.6496,24.3123],[52.6488,24.3362],[52.6225,24.3729],[52.578,24.3649],[52.5526,24.304]]],[[[54.4406,24.3729],[54.4588,24.3693],[54.4583,24.3908],[54.3981,24.3955],[54.4406,24.3729]]],[[[54.3252,24.4337],[54.3292,24.4164],[54.3805,24.4001],[54.417,24.4046],[54.3259,24.4461],[54.3252,24.4337]]],[[[52.8554,24.9213],[52.8572,24.9162],[52.8571,24.9248],[52.8594,24.9228],[52.8569,24.9252],[52.8559,24.9248],[52.8539,24.9266],[52.8564,24.9286],[52.8576,24.9278],[52.8579,24.926],[52.8606,24.9239],[52.8583,24.9263],[52.8596,24.9275],[52.8595,24.9295],[52.8523,24.9374],[52.8509,24.943],[52.8491,24.9449],[52.8474,24.9412],[52.8429,24.9383],[52.8465,24.9346],[52.8496,24.9338],[52.8554,24.9213]]],[[[52.4026,24.9452],[52.406,24.9501],[52.4035,24.9519],[52.4052,24.9532],[52.4069,24.9513],[52.4068,24.9524],[52.3999,24.9589],[52.3987,24.963],[52.3952,24.9661],[52.3932,24.9643],[52.3949,24.9538],[52.4026,24.9452]]],[[[52.8797,25.1401],[52.88,25.1417],[52.8814,25.1411],[52.8797,25.1473],[52.8803,25.1597],[52.8792,25.162],[52.8685,25.1629],[52.8667,25.1609],[52.8673,25.1532],[52.8701,25.1487],[52.8709,25.1438],[52.8797,25.1401]]],[[[54.1983,25.2341],[54.2411,25.2124],[54.2267,25.2506],[54.1983,25.2341]]],[[[54.8905,24.911],[54.8514,24.8888],[54.8981,24.8599],[54.8892,24.8463],[54.8438,24.8968],[54.8117,24.8568],[54.806,24.8709],[54.7732,24.8443],[54.7649,24.8599],[54.7864,24.8011],[54.7554,24.7941],[54.7704,24.7837],[54.7491,24.7671],[54.7486,24.8075],[54.7697,24.8108],[54.7469,24.8342],[54.7621,24.8361],[54.7456,24.8373],[54.7462,24.7973],[54.7137,24.8146],[54.7026,24.7997],[54.6739,24.8135],[54.6649,24.8437],[54.6804,24.8186],[54.6542,24.7984],[54.6737,24.8134],[54.7023,24.7985],[54.6882,24.8056],[54.7006,24.7952],[54.676,24.7908],[54.6933,24.7838],[54.6626,24.7567],[54.6828,24.7482],[54.633,24.7193],[54.6638,24.7297],[54.6673,24.7049],[54.6483,24.7016],[54.6851,24.6629],[54.6373,24.6231],[54.6456,24.5857],[54.6155,24.546],[54.6293,24.5367],[54.6137,24.5442],[54.6031,24.5262],[54.6361,24.5],[54.6103,24.4751],[54.6137,24.4504],[54.487,24.4224],[54.5202,24.3963],[54.4796,24.3946],[54.5219,24.3853],[54.4684,24.3825],[54.4505,24.3205],[54.5142,24.3144],[54.448,24.3024],[54.3843,24.2569],[54.2438,24.2272],[54.1807,24.269],[54.15,24.3278],[54.128,24.3284],[54.0887,24.2956],[54.0967,24.2631],[54.1519,24.2381],[54.106,24.2542],[54.0961,24.2384],[54.1377,24.2203],[54.0724,24.2305],[54.0966,24.1991],[54.0606,24.2108],[54.0785,24.185],[54.0422,24.2036],[54.017,24.1852],[54.0662,24.1638],[54.0732,24.1822],[54.0995,24.184],[54.0982,24.2029],[54.1296,24.1955],[54.1161,24.2102],[54.1318,24.2165],[54.1754,24.1882],[54.1062,24.1478],[54.0705,24.1609],[54.079,24.1399],[54.0281,24.1581],[54.0578,24.131],[54.0165,24.1437],[54.024,24.1289],[53.9519,24.1059],[53.9588,24.0791],[53.918,24.0727],[53.9107,24.1186],[53.9135,24.0708],[53.8785,24.0657],[53.8756,24.0817],[53.8781,24.0655],[53.7923,24.0655],[53.804,24.0498],[53.7035,24.073],[53.6781,24.0513],[53.6093,24.0424],[53.5775,24.0472],[53.5636,24.0683],[53.5811,24.0635],[53.5359,24.0951],[53.4687,24.1036],[53.4546,24.1348],[53.4439,24.1241],[53.4566,24.1395],[53.4085,24.1087],[53.3586,24.1208],[53.3651,24.1069],[53.3478,24.1169],[53.3598,24.1035],[53.344,24.0999],[53.3139,24.1179],[53.3086,24.0912],[53.2795,24.15],[53.2629,24.1308],[53.2682,24.1462],[53.2433,24.1386],[53.275,24.0986],[53.258,24.1131],[53.2595,24.0993],[53.2384,24.1019],[53.2171,24.1312],[53.1834,24.1107],[53.1281,24.1144],[53.0996,24.1344],[53.1032,24.1611],[53.0993,24.1338],[53.0507,24.1179],[53.0291,24.1375],[53.0619,24.1633],[53.032,24.1595],[53.0291,24.1382],[53.0046,24.1592],[53.028,24.1332],[52.9817,24.1583],[52.9375,24.132],[52.8188,24.1463],[52.7712,24.126],[52.734,24.1538],[52.7221,24.1417],[52.7224,24.165],[52.7145,24.1427],[52.7118,24.1754],[52.7142,24.1424],[52.6864,24.1477],[52.6982,24.1872],[52.6706,24.1286],[52.6332,24.1929],[52.5939,24.1976],[52.5903,24.2148],[52.5924,24.1969],[52.5553,24.1766],[52.5678,24.135],[52.4647,24.0914],[52.4389,24.1228],[52.4344,24.1048],[52.4584,24.0864],[52.4483,24.0684],[52.2842,23.9854],[52.1971,23.9621],[52.0969,23.9715],[52.085,23.9566],[52.0226,23.9896],[51.9899,23.981],[51.9433,23.9986],[51.9259,23.9726],[51.8957,23.9739],[51.8315,23.9863],[51.7836,24.033],[51.7933,24.0706],[51.7641,24.1583],[51.7803,24.1953],[51.7756,24.2737],[51.741,24.2929],[51.7044,24.208],[51.6544,24.3266],[51.6732,24.2485],[51.6332,24.204],[51.6371,24.3156],[51.574,24.3902],[51.5952,24.3801],[51.5823,24.3623],[51.6046,24.2819],[51.5913,24.2513],[51.5907,24.2678],[51.5904,24.127],[52.581,22.9392],[55.1373,22.6316],[55.2128,22.7057],[55.2323,23.1103],[55.4015,23.3925],[55.4165,23.3822],[55.4307,23.3996],[55.4472,23.4571],[55.5723,23.6296],[55.5692,23.7207],[55.5319,23.7573],[55.5337,23.8494],[55.4853,23.9444],[55.7312,24.0581],[55.7818,24.0559],[55.8331,24.0146],[55.9023,24.0469],[56.0174,24.0665],[55.9607,24.1703],[55.9544,24.2226],[55.8335,24.2009],[55.7529,24.2348],[55.7594,24.2611],[55.8339,24.3277],[55.8342,24.4096],[55.7648,24.5297],[55.7676,24.5726],[55.8161,24.6153],[55.7937,24.6371],[55.8366,24.6713],[55.8216,24.7911],[55.6354,24.7185],[55.5084,24.7169],[55.5005,24.652],[55.4652,24.6379],[55.2946,24.6245],[55.2022,24.6592],[55.0233,24.8679],[54.8905,24.911]]],[[[54.5808,24.4672],[54.5715,24.4534],[54.5897,24.4587],[54.5808,24.4672]]],[[[54.6089,24.4657],[54.6342,24.4912],[54.6298,24.5106],[54.5744,24.508],[54.5989,24.4818],[54.5923,24.454],[54.6089,24.4657]]],[[[54.5204,24.4956],[54.5269,24.4832],[54.5297,24.4833],[54.5308,24.4852],[54.5445,24.4877],[54.5449,24.4891],[54.5408,24.4918],[54.5293,24.497],[54.5204,24.4956]]],[[[54.4799,24.4337],[54.5119,24.4252],[54.5408,24.4408],[54.5028,24.4622],[54.5035,24.443],[54.4832,24.4424],[54.484,24.4566],[54.4799,24.4337]]],[[[54.2994,24.4769],[54.2917,24.4728],[54.2912,24.462],[54.2865,24.4588],[54.286,24.4533],[54.2887,24.4461],[54.286,24.4406],[54.2896,24.4452],[54.2936,24.4467],[54.2898,24.4589],[54.2911,24.4589],[54.2946,24.4486],[54.2973,24.4473],[54.3014,24.4483],[54.2966,24.4532],[54.2915,24.4624],[54.2933,24.4631],[54.2914,24.4637],[54.2918,24.4698],[54.2952,24.4729],[54.2942,24.4741],[54.2994,24.4769]]],[[[54.4202,24.4686],[54.4133,24.4479],[54.4447,24.4467],[54.4202,24.4686]]],[[[52.304,24.4808],[52.3122,24.4182],[52.3174,24.4722],[52.3412,24.497],[52.3329,24.5317],[52.3084,24.5432],[52.2804,24.5078],[52.304,24.4808]]],[[[54.4921,24.4728],[54.5437,24.44],[54.5516,24.4568],[54.5674,24.4462],[54.4921,24.4728]]],[[[54.4744,24.4664],[54.4668,24.4859],[54.4239,24.4987],[54.4595,24.4808],[54.447,24.4746],[54.4658,24.4457],[54.4744,24.4664]]],[[[54.4482,24.4771],[54.4476,24.479],[54.4455,24.4756],[54.4451,24.4775],[54.4477,24.4792],[54.4463,24.4789],[54.447,24.4815],[54.4418,24.4836],[54.44,24.4839],[54.4387,24.4799],[54.4396,24.484],[54.4379,24.4849],[54.4333,24.4839],[54.4342,24.4807],[54.4336,24.4819],[54.4321,24.4808],[54.4298,24.4816],[54.437,24.4753],[54.4395,24.472],[54.4354,24.4753],[54.4402,24.4702],[54.4389,24.4695],[54.446,24.4703],[54.4481,24.4693],[54.4469,24.4747],[54.4482,24.4771]]],[[[54.3163,24.4851],[54.309,24.4505],[54.3471,24.4527],[54.4661,24.3966],[54.4873,24.4082],[54.466,24.4429],[54.4082,24.4499],[54.4119,24.4701],[54.3806,24.5011],[54.3904,24.4921],[54.3997,24.5178],[54.3762,24.5271],[54.3841,24.5406],[54.3562,24.5339],[54.3768,24.5128],[54.3409,24.4747],[54.3237,24.4647],[54.3338,24.4782],[54.3163,24.4851]]],[[[54.5707,24.4996],[54.5737,24.5088],[54.5667,24.5086],[54.5444,24.5146],[54.5314,24.52],[54.5266,24.5194],[54.5193,24.5217],[54.5186,24.5207],[54.5283,24.5176],[54.5324,24.5138],[54.5411,24.5118],[54.5494,24.506],[54.5602,24.5053],[54.5707,24.4996]]],[[[54.4628,24.515],[54.4683,24.5038],[54.4673,24.5001],[54.4693,24.4944],[54.4711,24.494],[54.4752,24.5027],[54.473,24.5101],[54.4674,24.5186],[54.4679,24.5137],[54.4714,24.5107],[54.4719,24.5035],[54.4666,24.5132],[54.4628,24.515]]],[[[54.5208,24.5266],[54.5341,24.5431],[54.5173,24.5419],[54.5208,24.5266]]],[[[54.4075,24.5006],[54.391,24.4898],[54.4139,24.472],[54.4256,24.4867],[54.4021,24.5117],[54.4075,24.5006]]],[[[54.3403,24.4858],[54.3581,24.5201],[54.3294,24.4801],[54.3403,24.4858]]],[[[54.4048,24.5043],[54.4033,24.5071],[54.4015,24.5059],[54.4008,24.5128],[54.397,24.5125],[54.3946,24.5078],[54.3929,24.4968],[54.4007,24.4948],[54.4004,24.4969],[54.4016,24.4974],[54.4012,24.4948],[54.4025,24.4948],[54.403,24.4959],[54.4011,24.5001],[54.405,24.5005],[54.4071,24.4996],[54.405,24.5041],[54.404,24.5019],[54.4048,24.5043]]],[[[51.7217,24.5707],[51.7231,24.601],[51.7078,24.5795],[51.7217,24.5707]]],[[[54.6463,24.6408],[54.6631,24.6519],[54.6263,24.6495],[54.6463,24.6408]]],[[[54.4999,24.6095],[54.557,24.6058],[54.5406,24.6202],[54.5553,24.6362],[54.4999,24.6095]]],[[[54.653,24.6795],[54.6483,24.6803],[54.6418,24.6773],[54.6411,24.6781],[54.6391,24.6753],[54.6404,24.6694],[54.6418,24.6732],[54.645,24.6744],[54.6477,24.6732],[54.6477,24.6704],[54.6439,24.6702],[54.6428,24.6628],[54.6457,24.6611],[54.6542,24.6605],[54.6527,24.6626],[54.6557,24.6743],[54.6549,24.6773],[54.6527,24.6761],[54.6509,24.6773],[54.653,24.6795]]],[[[54.6695,24.7426],[54.6746,24.7526],[54.6702,24.7544],[54.6613,24.7464],[54.6484,24.7412],[54.6481,24.7327],[54.6578,24.74],[54.6652,24.7431],[54.6695,24.7426]]],[[[52.5642,24.7747],[52.5636,24.7758],[52.5666,24.7761],[52.5649,24.7767],[52.5654,24.7789],[52.5709,24.7873],[52.5707,24.7908],[52.5643,24.801],[52.5552,24.8023],[52.5499,24.7971],[52.5498,24.7904],[52.5545,24.786],[52.5581,24.7779],[52.5642,24.7747]]],[[[54.724,24.8116],[54.7246,24.8326],[54.7619,24.8474],[54.7555,24.8722],[54.7559,24.8501],[54.7053,24.8154],[54.724,24.8116]]],[[[53.0674,24.8723],[53.0788,24.857],[53.0924,24.872],[53.0682,24.8995],[53.0674,24.8723]]],[[[54.6666,24.792],[54.6457,24.8038],[54.6712,24.832],[54.6369,24.8049],[54.6666,24.792]]],[[[53.3391,24.526],[53.3236,24.5896],[53.3147,24.5657],[53.3026,24.5764],[53.3158,24.5649],[53.3264,24.5843],[53.3348,24.4995],[53.3736,24.4536],[53.336,24.5003],[53.3391,24.526]]],[[[54.6151,24.5471],[54.6344,24.5618],[54.6141,24.5679],[54.6151,24.5471]]],[[[54.4923,24.5194],[54.5206,24.4837],[54.4996,24.5256],[54.5169,24.5224],[54.472,24.5697],[54.4855,24.5477],[54.4585,24.5498],[54.4793,24.5437],[54.4649,24.5275],[54.4923,24.5194]]],[[[54.4189,24.5399],[54.3932,24.5397],[54.4617,24.5059],[54.4552,24.5511],[54.4744,24.5977],[54.4189,24.5399]]],[[[54.5156,24.5775],[54.5427,24.5599],[54.591,24.5677],[54.5156,24.5775]]],[[[53.321,24.6093],[53.323,24.6049],[53.3219,24.5995],[53.3209,24.5978],[53.3099,24.5951],[53.3101,24.5941],[53.3141,24.595],[53.3146,24.5917],[53.3106,24.5907],[53.3123,24.5893],[53.3177,24.5915],[53.3228,24.5912],[53.3246,24.5933],[53.3234,24.5944],[53.3242,24.6021],[53.3258,24.6021],[53.3241,24.6044],[53.3261,24.6028],[53.3261,24.6054],[53.3242,24.6065],[53.3238,24.6116],[53.3229,24.6132],[53.3175,24.6139],[53.3155,24.6125],[53.3212,24.6127],[53.321,24.6093]]],[[[54.6091,24.6093],[54.6387,24.6078],[54.6351,24.563],[54.636,24.6212],[54.6091,24.6093]]]]},"properties":{"iso3":"ARE","shapeId":"86790563B99975224300185","regionId":"ARE.1_1","name":"Abu Dhabi"}},{"type":"Feature","geometry":{"type":"MultiPolygon","coordinates":[[[[56.057,24.8721],[55.9802,24.8945],[56.0543,24.7521],[56.0764,24.7395],[56.1056,24.8203],[56.057,24.8721]]],[[[55.9831,25.3317],[55.9611,25.3089],[55.9772,25.2819],[56.0078,25.3031],[55.9831,25.3317]]],[[[55.4723,25.4507],[55.4229,25.3998],[55.4927,25.3588],[55.5927,25.3684],[55.6303,25.4107],[55.4723,25.4507]]]]},"properties":{"iso3":"ARE","shapeId":"86790563B64154191217223","regionId":"ARE.2_1","name":"Ajman"}},{"type":"Feature","geometry":{"type":"MultiPolygon","coordinates":[[[[56.0764,24.7395],[56.1443,24.7416],[56.2011,24.7851],[56.2036,24.8238],[56.1056,24.8203],[56.0764,24.7395]]],[[[54.9532,24.9965],[54.9866,25.0359],[54.9654,25.0298],[54.9532,24.9965]]],[[[55.0154,25.0222],[55.0193,25.0245],[55.0099,25.0325],[55.001,25.0356],[54.9895,25.0361],[54.9889,25.0319],[54.9941,25.0329],[55.0049,25.0308],[55.0119,25.0269],[55.0154,25.0222]]],[[[55.7392,24.7534],[55.662,24.9979],[55.6293,25.2104],[55.3859,25.3023],[55.3498,25.3125],[55.3508,25.2997],[55.3537,25.3278],[55.326,25.2952],[55.3313,25.3264],[55.2931,25.3564],[55.2933,25.3296],[55.3242,25.324],[55.3123,25.3012],[55.2813,25.3047],[55.2945,25.2793],[55.3184,25.2895],[55.269,25.2796],[55.2901,25.2841],[55.2831,25.2618],[55.2644,25.2831],[55.2577,25.2673],[55.2575,25.2831],[55.2546,25.2644],[55.2759,25.2527],[55.253,25.2522],[55.2502,25.2699],[55.2662,25.2402],[55.2393,25.2049],[55.2339,25.2218],[55.2149,25.1725],[55.0897,25.0352],[55.0434,25.0201],[55.0504,25.0026],[55.0384,25.0206],[55.0453,24.9969],[55.0156,24.9853],[55.031,25.0179],[55.0168,25.0201],[55.0051,24.9796],[54.9916,25.0019],[55.0108,25.0033],[54.9912,25.0065],[55.0121,25.0083],[54.9899,25.0082],[55.0119,25.0129],[54.9888,25.01],[55.0088,25.0194],[54.9696,25.018],[54.982,25.0113],[54.9643,25.0037],[54.9838,25.0091],[54.9654,24.9977],[54.9848,25.0071],[54.9696,24.9918],[54.9857,25.0061],[54.9737,24.9892],[54.9867,25.0042],[54.9788,24.9875],[54.9878,25.0024],[55.0024,24.9779],[54.9539,24.9895],[54.987,24.9713],[54.9258,24.9331],[54.8931,24.9513],[54.9067,24.9566],[54.8913,24.9497],[54.9215,24.9325],[54.8905,24.911],[55.0233,24.8679],[55.2022,24.6592],[55.2946,24.6245],[55.4652,24.6379],[55.5005,24.652],[55.5084,24.7169],[55.6354,24.7185],[55.7392,24.7534]]],[[[55.0472,25.0424],[55.0576,25.0484],[55.041,25.0281],[55.061,25.0397],[55.0472,25.0424]]],[[[55.1208,25.1271],[55.1205,25.1043],[55.1311,25.1186],[55.125,25.1035],[55.1322,25.1178],[55.1291,25.104],[55.1334,25.1169],[55.1523,25.1041],[55.1347,25.1183],[55.148,25.1244],[55.1336,25.1193],[55.1478,25.1284],[55.1323,25.1199],[55.1454,25.1324],[55.1208,25.1271]]],[[[55.1218,25.1366],[55.1127,25.1028],[55.1199,25.1314],[55.1484,25.138],[55.1218,25.1366]]],[[[55.1335,25.2247],[55.1324,25.2072],[55.1352,25.2071],[55.1356,25.2087],[55.1371,25.2071],[55.1355,25.2055],[55.134,25.2061],[55.135,25.2037],[55.1324,25.2007],[55.1343,25.2003],[55.1352,25.1978],[55.1377,25.1975],[55.1403,25.2003],[55.1367,25.1996],[55.1357,25.2011],[55.1378,25.2022],[55.1375,25.2045],[55.1399,25.2073],[55.136,25.2115],[55.1371,25.2146],[55.1359,25.2167],[55.138,25.2181],[55.1348,25.2202],[55.1367,25.225],[55.1335,25.2247]]],[[[55.2331,25.3631],[55.2412,25.3694],[55.2397,25.3697],[55.2301,25.3644],[55.2228,25.3549],[55.2222,25.3561],[55.2196,25.3497],[55.2211,25.3511],[55.224,25.3449],[55.2234,25.3498],[55.2247,25.3518],[55.2327,25.3547],[55.2335,25.3573],[55.2315,25.3599],[55.2331,25.3631]]]]},"properties":{"iso3":"ARE","shapeId":"86790563B34058819691262","regionId":"ARE.3_1","name":"Dubai"}},{"type":"Feature","geometry":{"type":"MultiPolygon","coordinates":[[[[56.2128,25.2394],[56.2036,25.2219],[56.1558,25.2214],[56.1525,25.0808],[56.2394,24.9853],[56.2889,24.9778],[56.3081,25.0164],[56.2828,25.0789],[56.361,25.0682],[56.3758,25.3148],[56.3516,25.303],[56.3442,25.2639],[56.2708,25.2272],[56.2128,25.2394]]],[[[56.347,24.9293],[56.3135,24.9075],[56.2592,24.915],[56.2671,24.8661],[56.347,24.9293]]],[[[55.9772,25.2819],[55.9861,25.2253],[56.1072,25.2125],[56.1408,25.235],[56.1378,25.2703],[56.18,25.2942],[56.1217,25.3167],[56.1608,25.3353],[56.2222,25.3078],[56.257,25.3262],[56.2711,25.3625],[56.3701,25.4283],[56.3542,25.5964],[56.2966,25.6157],[56.2019,25.612],[56.1911,25.6481],[56.1572,25.6608],[56.0853,25.635],[56.0672,25.6444],[56.0319,25.605],[55.9708,25.5969],[55.9833,25.4919],[56.0633,25.4858],[56.1017,25.5025],[56.1314,25.4661],[56.0917,25.4172],[56.1075,25.3992],[56.1417,25.4053],[56.1453,25.3772],[56.0886,25.34],[56.0208,25.3583],[56.0011,25.3808],[55.9831,25.3317],[56.0078,25.3031],[55.9772,25.2819]]]]},"properties":{"iso3":"ARE","shapeId":"86790563B19626210530202","regionId":"ARE.4_1","name":"Fujairah"}},{"type":"Feature","geometry":{"type":"MultiPolygon","coordinates":[[[[55.9993,25.8586],[56.0151,25.8865],[55.9769,25.83],[55.9993,25.8586]]],[[[56.1056,24.8203],[56.2036,24.8238],[56.2057,24.8505],[56.2717,24.8753],[56.1719,24.9256],[56.1931,24.9656],[56.1489,25.0433],[56.1639,25.0533],[56.155,25.2181],[56.2036,25.2219],[56.2128,25.2394],[56.1992,25.3256],[56.1608,25.3353],[56.1178,25.3111],[56.18,25.2942],[56.1378,25.2703],[56.1408,25.235],[56.1236,25.2178],[55.9861,25.2253],[55.9522,25.1978],[55.9814,25.1425],[55.9461,25.0792],[55.9483,25.0386],[55.9723,25.0033],[56.0589,24.9494],[56.042,24.8866],[56.1056,24.8203]]],[[[55.7368,25.6951],[55.7328,25.6932],[55.7311,25.6879],[55.7328,25.6846],[55.7338,25.6854],[55.7397,25.6816],[55.7431,25.6838],[55.743,25.6859],[55.7451,25.6861],[55.7456,25.6901],[55.7419,25.6947],[55.7368,25.6951]]],[[[56.1572,25.6608],[56.1408,25.735],[56.1725,25.7692],[56.1392,25.8325],[56.1776,25.8927],[56.164,25.9469],[56.1955,25.9793],[56.1532,26.0695],[56.0822,26.0494],[56.0708,25.9902],[56.0464,25.9819],[56.0605,25.9457],[56.0472,25.9672],[56.0076,25.89],[56.0294,25.8846],[56.0508,25.9294],[56.0604,25.9005],[56.0157,25.886],[55.9875,25.8353],[55.9518,25.8145],[55.966,25.7758],[55.9377,25.7736],[55.9495,25.8106],[55.8592,25.7205],[55.8002,25.7106],[55.7982,25.7241],[55.7868,25.7099],[55.7806,25.726],[55.7757,25.6972],[55.7905,25.6923],[55.7791,25.6825],[55.7732,25.6972],[55.7537,25.6638],[55.7392,25.6732],[55.7341,25.6456],[55.8287,25.5618],[55.8397,25.4747],[55.8936,25.4283],[55.8692,25.3967],[55.9442,25.3258],[55.9667,25.3908],[56.0772,25.3414],[56.1397,25.3608],[56.1433,25.4036],[56.1075,25.3992],[56.0917,25.4172],[56.1311,25.4717],[56.1017,25.5025],[56.0633,25.4858],[55.9833,25.4919],[55.9647,25.5767],[55.9758,25.6003],[56.0319,25.605],[56.0672,25.6444],[56.0853,25.635],[56.1572,25.6608]]]]},"properties":{"iso3":"ARE","shapeId":"86790563B13183784590468","regionId":"ARE.5_1","name":"Ras Al  Khaimah"}},{"type":"Feature","geometry":{"type":"MultiPolygon","coordinates":[[[[56.347,24.9293],[56.3233,24.9719],[56.3765,24.9813],[56.361,25.0682],[56.2828,25.0789],[56.3053,24.9928],[56.2664,24.9744],[56.1817,25.0514],[56.1506,25.0492],[56.1931,24.9656],[56.1728,24.9394],[56.1842,24.9075],[56.2528,24.8947],[56.2592,24.915],[56.3135,24.9075],[56.347,24.9293]]],[[[56.27,25.2652],[56.2934,25.2769],[56.2765,25.2828],[56.27,25.2652]]],[[[56.2802,25.6138],[56.2699,25.6291],[56.2546,25.6132],[56.2802,25.6138]]],[[[55.8216,24.7911],[55.8124,24.9108],[55.8515,24.9658],[55.9109,24.9657],[55.9723,25.0033],[55.9461,25.0792],[55.9814,25.1425],[55.9522,25.1978],[55.9864,25.22],[55.9919,25.2503],[55.9611,25.3089],[56.0011,25.3808],[55.9633,25.3878],[55.9442,25.3258],[55.9281,25.3475],[55.9036,25.3464],[55.9055,25.2944],[55.82,25.2772],[55.7983,25.2886],[55.7753,25.3597],[55.7082,25.4169],[55.6131,25.4459],[55.5211,25.519],[55.4723,25.4507],[55.6303,25.4107],[55.5927,25.3684],[55.5032,25.357],[55.4232,25.3987],[55.3786,25.3572],[55.3895,25.3298],[55.3707,25.3139],[55.3538,25.3292],[55.3636,25.3078],[55.3498,25.3125],[55.6293,25.2104],[55.662,24.9979],[55.7392,24.7534],[55.8216,24.7911]]],[[[56.2056,25.3078],[56.208,25.2562],[56.2511,25.2895],[56.2334,25.3109],[56.2056,25.3078]]],[[[55.3773,25.3421],[55.3878,25.3793],[55.3546,25.3319],[55.379,25.3236],[55.3773,25.3421]]],[[[56.3758,25.3148],[56.3748,25.3557],[56.3572,25.3496],[56.3479,25.3746],[56.3646,25.4201],[56.2664,25.3564],[56.2605,25.3304],[56.3027,25.3196],[56.3154,25.2961],[56.3758,25.3148]]]]},"properties":{"iso3":"ARE","shapeId":"86790563B63760912918903","regionId":"ARE.6_1","name":"Sharjah"}},{"type":"Feature","geometry":{"type":"MultiPolygon","coordinates":[[[[55.5757,25.5429],[55.5838,25.5352],[55.5868,25.5408],[55.5903,25.5436],[55.5897,25.5472],[55.5913,25.5505],[55.5842,25.5555],[55.5827,25.5518],[55.5814,25.5512],[55.581,25.5527],[55.5784,25.551],[55.5754,25.5455],[55.5757,25.5429]]],[[[55.6182,25.5722],[55.6217,25.5754],[55.6218,25.5775],[55.6188,25.5734],[55.62,25.5757],[55.6153,25.5859],[55.6165,25.5859],[55.6146,25.5869],[55.6163,25.587],[55.6144,25.5872],[55.6124,25.5862],[55.606,25.574],[55.6104,25.5708],[55.6114,25.5722],[55.6137,25.5721],[55.6137,25.5734],[55.6182,25.5722]]],[[[55.7341,25.6456],[55.6491,25.5887],[55.6501,25.5638],[55.6337,25.569],[55.6573,25.5463],[55.6073,25.5194],[55.6333,25.5369],[55.5659,25.5244],[55.56,25.5376],[55.5784,25.6096],[55.5211,25.519],[55.6131,25.4459],[55.7082,25.4169],[55.7797,25.3539],[55.8083,25.2811],[55.9055,25.2944],[55.9036,25.3464],[55.9281,25.3475],[55.8692,25.3967],[55.8936,25.4283],[55.8397,25.4747],[55.8287,25.5618],[55.7341,25.6456]]],[[[55.6402,25.6152],[55.6196,25.6004],[55.6368,25.5899],[55.6402,25.6152]]],[[[55.622,25.6047],[55.715,25.6553],[55.6036,25.6064],[55.6496,25.6231],[55.6201,25.6193],[55.5865,25.5881],[55.622,25.6047]]]]},"properties":{"iso3":"ARE","shapeId":"86790563B60151525742092","regionId":null,"name":"Umm al-Quwain"}}]}