{"type":"FeatureCollection","features":[{"type":"Feature","geometry":{"type":"Polygon","coordinates":[[[15.9973,46.8358],[16.0595,46.839],[16.1803,46.907],[16.201,46.9422],[16.2775,46.963],[16.2912,47.0143],[16.3045,46.9986],[16.5135,47.0019],[16.44,47.0301],[16.5217,47.0566],[16.474,47.0739],[16.4645,47.0953],[16.5305,47.1276],[16.5179,47.1497],[16.4554,47.1427],[16.4561,47.1878],[16.4206,47.1953],[16.4439,47.2341],[16.4329,47.2533],[16.4683,47.2533],[16.4906,47.2807],[16.4657,47.3343],[16.4349,47.3532],[16.4625,47.3837],[16.4466,47.4076],[16.4865,47.4093],[16.4977,47.3894],[16.5181,47.411],[16.5769,47.4068],[16.6632,47.4561],[16.6717,47.4747],[16.6535,47.5007],[16.7157,47.5403],[16.6658,47.5667],[16.6743,47.6054],[16.6533,47.6233],[16.5737,47.6203],[16.4227,47.6657],[16.4485,47.6967],[16.4759,47.6817],[16.5423,47.7126],[16.5492,47.752],[16.6105,47.7608],[16.7222,47.7358],[16.7502,47.6819],[16.8296,47.6832],[16.8681,47.7221],[16.8764,47.6888],[17.0943,47.7087],[17.0522,47.7944],[17.0757,47.8087],[17.0112,47.8588],[17.0865,47.8749],[17.114,47.9278],[17.0922,47.9348],[17.1183,47.9613],[17.0959,47.9713],[17.1621,48.0071],[17.0687,48.0319],[17.0891,48.0461],[17.0695,48.0559],[17.0881,48.0658],[17.0758,48.0864],[17.0944,48.0919],[17.0784,48.1156],[17.0373,48.0848],[17.0038,48.0932],[17.0214,48.1061],[16.9768,48.1061],[17.0183,48.0745],[16.9805,48.0239],[16.8913,48.0751],[16.8291,48.0288],[16.7039,48.0128],[16.7005,47.9668],[16.6346,47.9461],[16.5797,47.8879],[16.5199,47.944],[16.4499,47.9343],[16.4204,47.9136],[16.4137,47.8819],[16.3492,47.8686],[16.3892,47.843],[16.3447,47.8019],[16.3168,47.785],[16.3159,47.8052],[16.2799,47.8109],[16.2699,47.7915],[16.3048,47.7853],[16.2937,47.7189],[16.3098,47.6876],[16.3579,47.68],[16.3726,47.6238],[16.3142,47.5656],[16.3106,47.5462],[16.3408,47.5166],[16.3036,47.4675],[16.2251,47.4278],[16.1023,47.4152],[16.0941,47.3906],[16.0853,47.4096],[16.0163,47.3675],[16.0521,47.3339],[16.1148,47.1618],[16.0876,47.0746],[16.1567,46.9932],[16.1228,46.991],[16.0963,46.9348],[16.0713,46.9359],[16.0143,46.8844],[15.9973,46.8358]]]},"properties":{"iso3":"AUT","shapeId":"97560089B12055607938436","regionId":"AUT.1_1","name":"Burgenland"}},{"type":"Feature","geometry":{"type":"Polygon","coordinates":[[[13.7854,46.9443],[13.7591,46.9896],[13.6944,47.0066],[13.6941,47.0407],[13.4586,47.0808],[13.4035,47.07],[13.3636,47.0993],[13.2505,47.088],[13.2488,47.051],[13.0737,47.0139],[13.0185,47.0419],[12.9655,47.0395],[12.92,47.0821],[12.7395,47.1008],[12.7315,47.1315],[12.6668,47.1233],[12.6575,47.1],[12.7152,47.0452],[12.7729,47.0406],[12.7265,46.9928],[12.7836,46.9324],[12.8377,46.913],[12.8418,46.8614],[12.9641,46.7991],[12.9321,46.7645],[12.9,46.7773],[12.8418,46.7498],[12.7256,46.7439],[12.7097,46.7155],[12.7221,46.7034],[12.69,46.7031],[12.6912,46.6574],[12.732,46.6347],[12.7632,46.6484],[12.8319,46.6317],[12.8432,46.6068],[13.0844,46.6025],[13.1693,46.5893],[13.2404,46.5521],[13.3212,46.5516],[13.3729,46.5797],[13.4273,46.558],[13.5049,46.5667],[13.5206,46.5473],[13.7952,46.5057],[13.9128,46.5215],[14.0073,46.4817],[14.0515,46.4936],[14.1223,46.477],[14.1642,46.4339],[14.4304,46.4474],[14.4435,46.4234],[14.4796,46.4138],[14.5226,46.4276],[14.5644,46.3727],[14.5968,46.4372],[14.7002,46.464],[14.7156,46.5003],[14.8195,46.5097],[14.8239,46.5463],[14.8713,46.6076],[14.9205,46.6024],[14.9238,46.6212],[14.9566,46.6331],[14.9803,46.6018],[15.0171,46.6412],[15.0661,46.6527],[15.0233,46.6728],[15.0453,46.715],[15.0315,46.7697],[14.9772,46.7852],[15.0206,46.8446],[15.009,46.88],[15.0278,46.9108],[14.9597,46.9889],[14.9049,47.0007],[14.8445,47.0488],[14.73,47.0164],[14.6286,47.014],[14.6161,46.9984],[14.5166,47.0091],[14.5066,47.0287],[14.3868,46.9804],[14.3666,47.0251],[14.2358,47.0263],[14.2041,47.0777],[14.1633,47.0528],[14.1293,47.0613],[14.0652,47.0092],[14.0134,47.0043],[14.0069,46.971],[13.8816,46.9174],[13.8296,46.9137],[13.7854,46.9443]]]},"properties":{"iso3":"AUT","shapeId":"97560089B55365172259742","regionId":"AUT.2_1","name":"Kärnten"}},{"type":"Feature","geometry":{"type":"Polygon","coordinates":[[[17.068,48.1191],[17.0585,48.1442],[17.029,48.1415],[16.9775,48.1723],[16.9474,48.2364],[16.9583,48.2643],[16.9216,48.274],[16.8959,48.3107],[16.9101,48.3265],[16.8453,48.351],[16.8345,48.3807],[16.8649,48.4199],[16.8515,48.45],[16.9552,48.5435],[16.9029,48.7186],[16.8016,48.7064],[16.726,48.7386],[16.6839,48.7283],[16.665,48.7816],[16.5949,48.7832],[16.542,48.8149],[16.5199,48.7988],[16.4617,48.8096],[16.4363,48.7662],[16.3792,48.729],[16.3441,48.7462],[16.3311,48.7318],[16.1039,48.746],[15.9956,48.7799],[15.9508,48.8058],[15.9596,48.8236],[15.8944,48.8352],[15.8988,48.8489],[15.8439,48.8602],[15.8427,48.8777],[15.7807,48.8755],[15.7548,48.8528],[15.6908,48.8563],[15.6136,48.8989],[15.5145,48.9147],[15.4696,48.9524],[15.28,48.9953],[15.2627,48.9543],[15.1613,48.9423],[15.1574,48.9939],[15.0216,49.0212],[14.9915,49.0103],[14.9989,48.9926],[14.9773,48.9716],[14.994,48.9043],[14.974,48.8753],[14.9856,48.843],[14.9543,48.7904],[14.9806,48.7729],[14.9568,48.7587],[14.8097,48.7794],[14.8092,48.7345],[14.7351,48.6971],[14.7134,48.6507],[14.7221,48.603],[14.692,48.5849],[14.7377,48.5528],[14.8089,48.5566],[14.922,48.5063],[14.8675,48.4805],[14.8763,48.4565],[14.9504,48.4142],[14.9171,48.3898],[14.9655,48.3884],[14.9447,48.3242],[14.9875,48.3199],[14.9932,48.2571],[14.9532,48.2197],[14.9752,48.1994],[14.9408,48.2309],[14.8825,48.2331],[14.8333,48.1906],[14.7163,48.1792],[14.6923,48.1576],[14.5882,48.2221],[14.5221,48.2382],[14.4905,48.2224],[14.4686,48.1231],[14.4956,48.1124],[14.4595,48.0911],[14.4709,48.0862],[14.4536,48.0645],[14.4941,47.9986],[14.6282,47.9436],[14.7288,47.9355],[14.7729,47.8835],[14.7109,47.8512],[14.7259,47.8416],[14.7123,47.8159],[14.7328,47.8046],[14.7128,47.7906],[14.768,47.7268],[14.8615,47.7419],[14.8776,47.7165],[14.9138,47.7095],[15.0303,47.7531],[15.0594,47.7408],[15.1404,47.7619],[15.2004,47.7539],[15.2183,47.7965],[15.2882,47.7907],[15.2995,47.8211],[15.376,47.8259],[15.4071,47.8133],[15.4115,47.7853],[15.5099,47.7677],[15.5151,47.7469],[15.6083,47.7527],[15.637,47.7159],[15.6798,47.6995],[15.7187,47.7119],[15.7262,47.6469],[15.8578,47.6213],[15.8481,47.5682],[15.9054,47.5632],[15.915,47.5309],[16.0171,47.5175],[16.0588,47.485],[16.1106,47.5254],[16.1163,47.4748],[16.142,47.442],[16.2007,47.4228],[16.3036,47.4675],[16.3408,47.5166],[16.3106,47.5462],[16.3142,47.5656],[16.3737,47.6431],[16.3579,47.68],[16.3098,47.6876],[16.2923,47.7292],[16.3048,47.7853],[16.2698,47.7954],[16.3102,47.8078],[16.3168,47.785],[16.3784,47.8278],[16.3873,47.8458],[16.3492,47.8686],[16.4137,47.8819],[16.4282,47.9201],[16.4906,47.9434],[16.5199,47.944],[16.5797,47.8879],[16.6346,47.9461],[16.7005,47.9668],[16.7039,48.0128],[16.8291,48.0288],[16.875,48.0728],[16.918,48.0681],[16.9805,48.0239],[17.0183,48.0745],[16.9768,48.1061],[17.0214,48.1061],[17.0038,48.0932],[17.0373,48.0848],[17.068,48.1191]],[[16.4164,48.3227],[16.4755,48.276],[16.4977,48.293],[16.5141,48.2683],[16.5482,48.2635],[16.5376,48.1751],[16.5764,48.1623],[16.5773,48.1357],[16.4947,48.1593],[16.4343,48.1384],[16.4382,48.1204],[16.3258,48.1383],[16.313,48.1199],[16.216,48.1258],[16.2396,48.1377],[16.183,48.1716],[16.2108,48.2101],[16.1863,48.2237],[16.207,48.2634],[16.2578,48.2404],[16.2925,48.2719],[16.3718,48.2822],[16.3829,48.3176],[16.4164,48.3227]]]},"properties":{"iso3":"AUT","shapeId":"97560089B30234814950985","regionId":"AUT.3_1","name":"Niederösterreich"}},{"type":"Feature","geometry":{"type":"Polygon","coordinates":[[[14.692,48.5849],[14.6645,48.5826],[14.6115,48.6287],[14.563,48.6039],[14.5043,48.618],[14.4709,48.6491],[14.4447,48.644],[14.457,48.6258],[14.4324,48.5897],[14.3872,48.5933],[14.389,48.5725],[14.3586,48.5753],[14.3342,48.5524],[14.2725,48.582],[14.0679,48.5955],[14.0431,48.6135],[14.0491,48.628],[14.0115,48.6403],[14.0545,48.6536],[14.0604,48.6745],[13.8405,48.7723],[13.7958,48.7157],[13.8383,48.7012],[13.8144,48.6925],[13.8267,48.6192],[13.8018,48.5742],[13.7709,48.5542],[13.7549,48.5642],[13.7314,48.5154],[13.5099,48.5913],[13.4762,48.5567],[13.4385,48.5578],[13.459,48.5122],[13.4099,48.3736],[13.2574,48.2943],[13.0817,48.2778],[12.9575,48.2101],[12.8708,48.2019],[12.7872,48.124],[12.7593,48.1273],[12.7535,48.0882],[12.8609,47.9972],[12.8929,47.9916],[12.9411,48.0373],[12.9782,48.0241],[13.0429,48.0421],[13.0758,48.0046],[13.1504,47.9954],[13.147,47.9706],[13.2976,48.0112],[13.3019,47.9959],[13.3723,47.9774],[13.359,47.9402],[13.3083,47.9646],[13.2811,47.9553],[13.2709,47.892],[13.2964,47.8576],[13.2872,47.8308],[13.3901,47.7948],[13.5303,47.7976],[13.5362,47.7767],[13.5169,47.7726],[13.4661,47.7867],[13.4369,47.74],[13.5517,47.7147],[13.4849,47.6421],[13.5241,47.6189],[13.4791,47.5687],[13.477,47.5329],[13.5169,47.497],[13.5904,47.4735],[13.7233,47.4626],[13.7203,47.4809],[13.7615,47.5208],[13.7567,47.5532],[13.7363,47.5775],[13.6951,47.58],[13.6964,47.6332],[13.7075,47.6653],[13.7785,47.7189],[13.8772,47.7267],[13.9208,47.7056],[14.0114,47.7014],[14.0563,47.6684],[14.0516,47.6177],[14.2067,47.653],[14.2334,47.6511],[14.224,47.6427],[14.2562,47.6133],[14.3273,47.6081],[14.3984,47.6532],[14.5181,47.6823],[14.5329,47.7142],[14.6486,47.7262],[14.6979,47.7663],[14.7473,47.7564],[14.7128,47.7906],[14.7328,47.8046],[14.7123,47.8159],[14.7259,47.8416],[14.7109,47.8512],[14.7729,47.8835],[14.7288,47.9355],[14.7047,47.9261],[14.6088,47.9498],[14.4941,47.9986],[14.457,48.0435],[14.4595,48.0911],[14.4956,48.1124],[14.4686,48.1231],[14.4905,48.2224],[14.5613,48.2318],[14.6923,48.1576],[14.7163,48.1792],[14.8333,48.1906],[14.8825,48.2331],[14.9408,48.2309],[14.9752,48.1994],[14.9532,48.2197],[14.9932,48.2571],[14.9875,48.3199],[14.9447,48.3242],[14.9655,48.3884],[14.9171,48.3898],[14.9504,48.4142],[14.8763,48.4565],[14.8675,48.4805],[14.922,48.5063],[14.8089,48.5566],[14.7377,48.5528],[14.692,48.5849]]]},"properties":{"iso3":"AUT","shapeId":"97560089B86772589826985","regionId":"AUT.4_1","name":"Oberösterreich"}},{"type":"Feature","geometry":{"type":"Polygon","coordinates":[[[13.7854,46.9443],[13.8654,46.9966],[13.8647,47.0204],[13.9076,47.0706],[13.882,47.1084],[13.9403,47.1369],[13.9881,47.1262],[13.9944,47.1425],[13.895,47.1859],[13.904,47.1952],[13.8509,47.2301],[13.865,47.2526],[13.8221,47.2706],[13.824,47.2946],[13.7614,47.2667],[13.7261,47.2787],[13.7126,47.26],[13.5985,47.294],[13.6042,47.3306],[13.5641,47.421],[13.5919,47.4718],[13.5169,47.497],[13.477,47.5329],[13.4791,47.5687],[13.5241,47.6189],[13.4849,47.6421],[13.5517,47.7147],[13.4369,47.74],[13.4661,47.7867],[13.5395,47.7829],[13.468,47.8045],[13.3901,47.7948],[13.2905,47.8249],[13.2964,47.8576],[13.2709,47.892],[13.2811,47.9553],[13.3083,47.9646],[13.359,47.9402],[13.3742,47.9664],[13.2976,48.0112],[13.147,47.9706],[13.1504,47.9954],[13.0758,48.0046],[13.0429,48.0421],[12.9782,48.0241],[12.9411,48.0373],[12.8929,47.9916],[12.8609,47.9972],[12.8755,47.9639],[12.939,47.9437],[13.0047,47.8485],[12.906,47.724],[13.0467,47.7132],[13.0815,47.6876],[13.0996,47.6357],[13.0633,47.602],[13.0714,47.5875],[13.0444,47.5839],[13.0582,47.5627],[13.0316,47.5331],[13.0483,47.4927],[13.0073,47.4649],[12.795,47.5576],[12.7798,47.5797],[12.8252,47.6126],[12.7592,47.6521],[12.7818,47.6744],[12.608,47.6743],[12.5708,47.6123],[12.6672,47.5793],[12.6288,47.5501],[12.7002,47.4784],[12.632,47.4651],[12.623,47.4189],[12.5792,47.393],[12.5067,47.3947],[12.4799,47.3715],[12.4958,47.3379],[12.4704,47.3243],[12.3752,47.3118],[12.2972,47.3331],[12.2647,47.3027],[12.2235,47.3132],[12.1447,47.2887],[12.1151,47.307],[12.0767,47.2701],[12.1117,47.2424],[12.0824,47.1924],[12.1366,47.0812],[12.1865,47.0927],[12.262,47.0732],[12.3593,47.1173],[12.3639,47.1419],[12.4841,47.1583],[12.6575,47.1],[12.6668,47.1233],[12.7315,47.1315],[12.7395,47.1008],[12.92,47.0821],[12.9655,47.0395],[13.0185,47.0419],[13.0737,47.0139],[13.2488,47.051],[13.2505,47.088],[13.3636,47.0993],[13.4035,47.07],[13.4586,47.0808],[13.6941,47.0407],[13.6944,47.0066],[13.7591,46.9896],[13.7854,46.9443]]]},"properties":{"iso3":"AUT","shapeId":"97560089B65158936715310","regionId":"AUT.5_1","name":"Salzburg"}},{"type":"Feature","geometry":{"type":"Polygon","coordinates":[[[16.1729,47.4228],[16.1163,47.4748],[16.1106,47.5254],[16.0588,47.485],[16.0171,47.5175],[15.915,47.5309],[15.9054,47.5632],[15.8481,47.5682],[15.8578,47.6213],[15.7262,47.6469],[15.7165,47.7131],[15.6798,47.6995],[15.637,47.7159],[15.6083,47.7527],[15.5151,47.7469],[15.5099,47.7677],[15.4115,47.7853],[15.4071,47.8133],[15.3389,47.8284],[15.2995,47.8211],[15.2882,47.7907],[15.2183,47.7965],[15.2004,47.7539],[15.1404,47.7619],[15.0594,47.7408],[15.0303,47.7531],[14.9138,47.7095],[14.8776,47.7165],[14.8615,47.7419],[14.768,47.7268],[14.6979,47.7663],[14.6486,47.7262],[14.5329,47.7142],[14.5181,47.6823],[14.3984,47.6532],[14.3135,47.6069],[14.2562,47.6133],[14.224,47.6427],[14.2334,47.6511],[14.2067,47.653],[14.0516,47.6177],[14.0563,47.6684],[14.0114,47.7014],[13.9208,47.7056],[13.8772,47.7267],[13.7785,47.7189],[13.7075,47.6653],[13.6964,47.6332],[13.6951,47.58],[13.7363,47.5775],[13.7567,47.5532],[13.7615,47.5208],[13.7203,47.4809],[13.7233,47.4626],[13.5864,47.4753],[13.5641,47.421],[13.6084,47.284],[13.7126,47.26],[13.7261,47.2787],[13.7614,47.2667],[13.824,47.2946],[13.8221,47.2706],[13.865,47.2526],[13.8509,47.2301],[13.904,47.1952],[13.895,47.1859],[13.9944,47.1425],[13.9881,47.1262],[13.9403,47.1369],[13.882,47.1084],[13.9076,47.0706],[13.8647,47.0204],[13.8654,46.9966],[13.7854,46.9443],[13.8161,46.9189],[13.849,46.9097],[13.9519,46.9427],[13.9506,46.9586],[14.0069,46.971],[14.0134,47.0043],[14.0652,47.0092],[14.1293,47.0613],[14.1633,47.0528],[14.2041,47.0777],[14.2358,47.0263],[14.3666,47.0251],[14.3868,46.9804],[14.5066,47.0287],[14.5166,47.0091],[14.6161,46.9984],[14.6286,47.014],[14.73,47.0164],[14.8445,47.0488],[14.9049,47.0007],[14.9597,46.9889],[15.0278,46.9108],[15.009,46.88],[15.0206,46.8446],[14.9772,46.7852],[15.0315,46.7697],[15.0453,46.715],[15.0254,46.6701],[15.0833,46.6455],[15.1463,46.6602],[15.2369,46.6397],[15.4214,46.6552],[15.4757,46.6124],[15.5434,46.6303],[15.5447,46.6696],[15.5961,46.6904],[15.631,46.6804],[15.651,46.7061],[15.7695,46.6994],[15.8407,46.7227],[16.0391,46.6565],[16.0309,46.7119],[16.0046,46.7175],[15.9858,46.7524],[15.9992,46.8098],[15.9864,46.8277],[16.0143,46.8844],[16.0713,46.9359],[16.0963,46.9348],[16.1228,46.991],[16.1567,46.9932],[16.0876,47.0746],[16.1148,47.1618],[16.0521,47.3339],[16.0163,47.3675],[16.0853,47.4096],[16.0941,47.3906],[16.1023,47.4152],[16.1729,47.4228]]]},"properties":{"iso3":"AUT","shapeId":"97560089B87855108402029","regionId":"AUT.6_1","name":"Steiermark"}},{"type":"Feature","geometry":{"type":"MultiPolygon","coordinates":[[[[12.6575,47.1],[12.4988,47.157],[12.3639,47.1419],[12.3462,47.1098],[12.2171,47.0592],[12.2053,47.0274],[12.1266,47.0136],[12.1325,46.9628],[12.1692,46.9378],[12.1443,46.9143],[12.1909,46.9066],[12.216,46.8745],[12.2742,46.8849],[12.3073,46.8416],[12.2835,46.8154],[12.2845,46.7834],[12.358,46.7754],[12.3846,46.7168],[12.5657,46.6522],[12.6912,46.6574],[12.69,46.7031],[12.7221,46.7034],[12.7097,46.7155],[12.7256,46.7439],[12.8418,46.7498],[12.9,46.7773],[12.9321,46.7645],[12.9647,46.786],[12.8418,46.8614],[12.8377,46.913],[12.7452,46.961],[12.7253,46.9963],[12.7729,47.0406],[12.7152,47.0452],[12.6575,47.1]]],[[[10.4548,47.5564],[10.4824,47.5851],[10.4294,47.5782],[10.4548,47.5564]]],[[[12.5757,47.6329],[12.4998,47.6257],[12.4414,47.6745],[12.4407,47.6958],[12.2558,47.68],[12.2419,47.695],[12.2576,47.7436],[12.163,47.7017],[12.2036,47.607],[12.0225,47.6117],[12.0091,47.6258],[11.8555,47.6029],[11.8447,47.5817],[11.6367,47.5951],[11.6063,47.5816],[11.5729,47.5151],[11.4426,47.5185],[11.3843,47.473],[11.4217,47.4452],[11.339,47.4505],[11.2915,47.4276],[11.2816,47.4012],[11.2288,47.3957],[11.2504,47.4329],[11.1558,47.4216],[11.1153,47.396],[10.9709,47.4007],[10.984,47.4306],[10.93,47.4708],[10.9376,47.4817],[10.8705,47.4838],[10.8724,47.501],[10.9184,47.5142],[10.8907,47.5379],[10.7779,47.5145],[10.6914,47.5594],[10.5983,47.5703],[10.5715,47.5341],[10.4548,47.5564],[10.4317,47.5044],[10.4683,47.4777],[10.4763,47.4334],[10.4365,47.4116],[10.4371,47.381],[10.3951,47.3762],[10.3307,47.3054],[10.1745,47.2645],[10.2239,47.2506],[10.1979,47.2377],[10.214,47.2147],[10.197,47.1923],[10.2223,47.1507],[10.133,47.0821],[10.1572,47.0494],[10.1235,47.0227],[10.1602,46.9847],[10.0999,46.9175],[10.1452,46.8515],[10.233,46.8668],[10.2409,46.9319],[10.3164,46.9257],[10.308,46.9478],[10.3468,46.9901],[10.3896,47.0011],[10.4269,46.9762],[10.4242,46.9594],[10.4897,46.9383],[10.47,46.8554],[10.5528,46.8506],[10.5465,46.8378],[10.6677,46.876],[10.7639,46.824],[10.7307,46.7889],[10.7867,46.7968],[10.883,46.7634],[11.0226,46.7659],[11.0396,46.8055],[11.0837,46.8228],[11.0718,46.8538],[11.102,46.8902],[11.0963,46.9124],[11.1645,46.9405],[11.1648,46.9663],[11.3208,46.9929],[11.406,46.9653],[11.4792,47.0115],[11.539,46.9846],[11.6277,47.0138],[11.7475,46.9694],[11.9172,47.0337],[12.0772,47.0594],[12.1366,47.0812],[12.0824,47.1924],[12.1117,47.2424],[12.0767,47.2701],[12.1115,47.3048],[12.1447,47.2887],[12.2235,47.3132],[12.2647,47.3027],[12.2972,47.3331],[12.3752,47.3118],[12.4704,47.3243],[12.4958,47.3379],[12.4799,47.3715],[12.5067,47.3947],[12.5792,47.393],[12.6382,47.4371],[12.632,47.4651],[12.7002,47.4784],[12.6288,47.5501],[12.6672,47.5793],[12.5752,47.6055],[12.5757,47.6329]]]]},"properties":{"iso3":"AUT","shapeId":"97560089B46292059412713","regionId":"AUT.7_1","name":"Tirol"}},{"type":"Feature","geometry":{"type":"Polygon","coordinates":[[[10.1786,47.2707],[10.1786,47.2953],[10.2163,47.3117],[10.1998,47.3271],[10.2366,47.3824],[10.1822,47.393],[10.1662,47.3695],[10.1196,47.3762],[10.1001,47.3554],[10.0694,47.4108],[10.1059,47.4293],[10.0919,47.4596],[10.0703,47.4566],[10.045,47.4882],[10.0011,47.4827],[9.9655,47.5215],[9.9709,47.5465],[9.9222,47.5303],[9.8815,47.5488],[9.8748,47.5292],[9.816,47.5483],[9.8241,47.5877],[9.7773,47.5961],[9.7359,47.5348],[9.5621,47.5052],[9.5962,47.4634],[9.6588,47.4532],[9.6519,47.4052],[9.6743,47.3908],[9.6053,47.3519],[9.531,47.2712],[9.5674,47.2425],[9.552,47.2243],[9.5851,47.2059],[9.5648,47.1708],[9.6219,47.1519],[9.6352,47.1287],[9.621,47.1111],[9.6338,47.084],[9.6073,47.0613],[9.6821,47.0627],[9.8364,47.0131],[9.8765,47.0218],[9.8926,46.9909],[9.871,46.9638],[9.8764,46.9352],[10.0181,46.9022],[10.1054,46.8414],[10.1452,46.8515],[10.0981,46.9247],[10.1602,46.9847],[10.1235,47.0227],[10.1572,47.0494],[10.133,47.0821],[10.2223,47.1507],[10.197,47.1923],[10.214,47.2147],[10.1979,47.2377],[10.2239,47.2506],[10.1786,47.2707]]]},"properties":{"iso3":"AUT","shapeId":"97560089B20931628540879","regionId":"AUT.8_1","name":"Vorarlberg"}},{"type":"Feature","geometry":{"type":"Polygon","coordinates":[[[16.4164,48.3227],[16.3829,48.3176],[16.3718,48.2822],[16.2925,48.2719],[16.2578,48.2404],[16.207,48.2634],[16.1863,48.2237],[16.2108,48.2101],[16.183,48.1716],[16.2396,48.1377],[16.216,48.1258],[16.313,48.1199],[16.3258,48.1383],[16.4382,48.1204],[16.4343,48.1384],[16.4947,48.1593],[16.5773,48.1357],[16.5764,48.1623],[16.5376,48.1751],[16.5482,48.2635],[16.5141,48.2683],[16.4977,48.293],[16.4755,48.276],[16.4164,48.3227]]]},"properties":{"iso3":"AUT","shapeId":"97560089B24691553772644","regionId":"AUT.9_1","name":"Wien"}}]}