{"type":"FeatureCollection","features":[{"type":"Feature","geometry":{"type":"Polygon","coordinates":[[[23.8333,41.8284],[23.7995,41.8499],[23.7653,41.9594],[23.7731,41.9889],[23.8304,42.038],[23.8009,42.0535],[23.7895,42.1404],[23.7603,42.1857],[23.7346,42.1825],[23.737,42.1507],[23.6864,42.1734],[23.6146,42.1646],[23.5815,42.1003],[23.4971,42.0987],[23.4239,42.0538],[23.1766,42.0986],[23.1171,42.0598],[23.0409,42.0472],[22.9308,42.0998],[22.9024,42.0271],[22.8728,42.0173],[22.888,41.9223],[22.9752,41.7785],[23.0291,41.7603],[23.048,41.7181],[22.9673,41.635],[22.9903,41.5614],[22.9802,41.4866],[22.9934,41.4406],[22.9686,41.3342],[23.2151,41.3172],[23.2404,41.3338],[23.2533,41.3777],[23.3086,41.3973],[23.369,41.36],[23.4063,41.389],[23.4723,41.3996],[23.6493,41.3747],[23.6872,41.4017],[23.7779,41.3975],[23.8037,41.4297],[23.9132,41.4564],[23.9222,41.4741],[23.9719,41.439],[24.0261,41.4611],[24.0682,41.4562],[24.059,41.5118],[24.1091,41.6653],[23.9183,41.7987],[23.8333,41.8284]]]},"properties":{"iso3":"BGR","shapeId":"22928101B16069235588997","regionId":"BGR.1_1","name":"Blagoevgrad"}},{"type":"Feature","geometry":{"type":"Polygon","coordinates":[[[27.4475,42.884],[27.3144,42.9528],[27.2397,42.966],[27.0113,42.9021],[26.9689,42.932],[26.8615,42.9342],[26.6499,42.8993],[26.6344,42.9058],[26.6393,42.9267],[26.5857,42.932],[26.5639,42.9209],[26.5803,42.8479],[26.5644,42.8027],[26.6941,42.7335],[26.6987,42.7036],[26.7785,42.6217],[26.8015,42.5544],[26.8855,42.4437],[26.9313,42.4448],[26.963,42.4212],[26.9561,42.3722],[26.9057,42.3155],[26.914,42.2914],[26.9561,42.282],[26.9348,42.2381],[26.9708,42.2076],[26.9472,42.1616],[26.9956,42.1142],[27.1955,42.0595],[27.2194,42.0987],[27.2884,42.0958],[27.364,42.0533],[27.4145,41.9869],[27.5257,41.9514],[27.5707,41.9025],[27.5822,41.9299],[27.7108,41.9731],[27.8352,41.9481],[27.8257,41.985],[27.8613,42.0001],[27.9186,41.9769],[28.034,41.9782],[28.022,42.0212],[27.9518,42.1023],[27.7524,42.2519],[27.7869,42.3099],[27.7762,42.3344],[27.7414,42.325],[27.7195,42.3458],[27.7043,42.3941],[27.7189,42.4061],[27.6945,42.4244],[27.6569,42.4099],[27.6426,42.4422],[27.5864,42.4517],[27.5041,42.4333],[27.439,42.4675],[27.478,42.4919],[27.5092,42.5522],[27.6426,42.5526],[27.6271,42.6179],[27.7161,42.6512],[27.7066,42.6852],[27.7212,42.703],[27.8886,42.6976],[27.8928,42.7704],[27.8734,42.8348],[27.7749,42.828],[27.7051,42.8547],[27.6986,42.8853],[27.4475,42.884]]]},"properties":{"iso3":"BGR","shapeId":"22928101B44315306220510","regionId":"BGR.2_1","name":"Burgas"}},{"type":"Feature","geometry":{"type":"Polygon","coordinates":[[[28.0446,43.3224],[28.0509,43.3117],[28.093,43.3758],[28.1486,43.4025],[28.3123,43.4174],[28.4693,43.3768],[28.5505,43.4382],[28.6097,43.5319],[28.5774,43.5993],[28.5785,43.7378],[28.4584,43.7364],[28.136,43.7981],[27.9986,43.8588],[27.9209,44.0127],[27.8313,43.9739],[27.7361,43.9659],[27.673,43.9859],[27.6205,43.9384],[27.6208,43.9129],[27.5841,43.9015],[27.5491,43.9144],[27.5181,43.8555],[27.4382,43.8686],[27.3787,43.8239],[27.3079,43.8121],[27.2135,43.7456],[27.2087,43.717],[27.241,43.688],[27.2208,43.6674],[27.2298,43.6506],[27.2655,43.6543],[27.305,43.6081],[27.4021,43.6235],[27.4873,43.5771],[27.5078,43.5125],[27.5547,43.5117],[27.6005,43.5433],[27.6286,43.4902],[27.7278,43.4732],[27.7445,43.4403],[27.858,43.3623],[27.9912,43.4009],[28.0446,43.3224]]]},"properties":{"iso3":"BGR","shapeId":"22928101B87459279051229","regionId":"BGR.3_1","name":"Dobrich"}},{"type":"Feature","geometry":{"type":"Polygon","coordinates":[[[25.0682,43.1915],[24.9475,43.2104],[24.9445,43.1469],[24.9081,43.1175],[24.9187,43.0386],[24.8646,43.0208],[24.8516,42.9846],[24.8505,42.9008],[24.9272,42.8662],[24.9651,42.8278],[24.9886,42.7539],[25.0613,42.7523],[25.173,42.7925],[25.2248,42.764],[25.3955,42.7395],[25.4163,42.7491],[25.4029,42.778],[25.4882,42.7476],[25.5484,42.7643],[25.5931,42.7429],[25.6243,42.7507],[25.5784,42.8222],[25.6113,42.8699],[25.5901,42.9072],[25.5287,42.926],[25.532,42.9614],[25.5686,42.9944],[25.5582,43.0169],[25.4331,43.0546],[25.2816,43.0639],[25.2898,43.1205],[25.1416,43.1158],[25.0708,43.1661],[25.0682,43.1915]]]},"properties":{"iso3":"BGR","shapeId":"22928101B98033392474290","regionId":"BGR.4_1","name":"Gabrovo"}},{"type":"Feature","geometry":{"type":"Polygon","coordinates":[[[26.5552,41.9342],[26.4793,42.0217],[26.5067,42.0369],[26.5006,42.1125],[26.5156,42.1326],[26.4753,42.1593],[26.3793,42.1589],[26.1736,42.2206],[26.1175,42.1612],[26.1351,42.0493],[26.0403,42.0239],[25.9648,42.0929],[25.8936,42.1202],[25.8414,42.1202],[25.8224,42.0808],[25.7319,42.0618],[25.6737,42.1525],[25.5973,42.1379],[25.5869,42.2114],[25.5561,42.2032],[25.5392,42.162],[25.484,42.1746],[25.4499,42.162],[25.4347,42.1037],[25.3278,42.1188],[25.2875,42.0376],[25.3016,41.9712],[25.2284,41.8953],[25.2422,41.8363],[25.2814,41.8114],[25.3558,41.8541],[25.4007,41.7927],[25.5695,41.7617],[25.6072,41.7394],[25.6301,41.6927],[25.6113,41.6272],[25.7126,41.6183],[25.7648,41.6551],[25.8244,41.6464],[25.8438,41.6093],[25.7866,41.5754],[25.7915,41.5119],[25.8535,41.4858],[25.8273,41.4389],[25.8472,41.3966],[25.9234,41.3782],[25.9463,41.3154],[25.9695,41.3153],[26.1343,41.36],[26.1666,41.4187],[26.1986,41.4375],[26.1593,41.4796],[26.1809,41.5519],[26.1483,41.5603],[26.1368,41.6284],[26.091,41.6317],[26.0669,41.6577],[26.0676,41.7171],[26.1499,41.7507],[26.3045,41.7118],[26.3322,41.7255],[26.3275,41.7667],[26.3641,41.8165],[26.5421,41.8304],[26.5712,41.8738],[26.5552,41.9342]]]},"properties":{"iso3":"BGR","shapeId":"22928101B79406413645892","regionId":"BGR.6_1","name":"Haskovo"}},{"type":"Feature","geometry":{"type":"Polygon","coordinates":[[[25.2294,41.9097],[25.1736,41.8907],[25.0593,41.7985],[25.0497,41.7549],[25.0914,41.6765],[25.0892,41.6215],[24.9846,41.5937],[24.9786,41.5759],[25.0346,41.5033],[25.1695,41.5018],[25.1556,41.4315],[25.178,41.424],[25.1411,41.3951],[25.1486,41.3365],[25.2453,41.2414],[25.3018,41.2338],[25.4907,41.2838],[25.5329,41.2775],[25.568,41.3111],[25.7144,41.2917],[25.7232,41.3138],[25.8228,41.3357],[25.8843,41.3066],[25.9463,41.3154],[25.9341,41.3706],[25.8402,41.4071],[25.8273,41.4389],[25.8535,41.4858],[25.7877,41.5214],[25.7866,41.5754],[25.8438,41.6093],[25.8244,41.6464],[25.7648,41.6551],[25.7126,41.6183],[25.6113,41.6272],[25.6301,41.6927],[25.6072,41.7394],[25.5695,41.7617],[25.4007,41.7927],[25.3558,41.8541],[25.2814,41.8114],[25.2422,41.8363],[25.2294,41.9097]]]},"properties":{"iso3":"BGR","shapeId":"22928101B68200013052436","regionId":"BGR.7_1","name":"Kardzhali"}},{"type":"Feature","geometry":{"type":"Polygon","coordinates":[[[23.5086,42.1012],[23.5176,42.1239],[23.4666,42.1496],[23.4483,42.1859],[23.3594,42.1759],[23.3238,42.1938],[23.4076,42.261],[23.349,42.3025],[23.3275,42.3565],[23.1378,42.3725],[23.1069,42.4007],[23.0816,42.3774],[23.0342,42.3761],[22.9945,42.4029],[22.9184,42.3778],[22.9204,42.3643],[22.8452,42.3572],[22.7919,42.4076],[22.7267,42.4341],[22.7045,42.4963],[22.617,42.5617],[22.5906,42.6172],[22.4558,42.6387],[22.4461,42.5689],[22.5324,42.51],[22.5557,42.4726],[22.5139,42.3944],[22.4653,42.3736],[22.4504,42.3298],[22.3575,42.312],[22.4968,42.1904],[22.5139,42.1478],[22.5732,42.1107],[22.6781,42.0615],[22.8728,42.0173],[22.9024,42.0271],[22.9308,42.0998],[22.9705,42.0678],[23.0529,42.0469],[23.1377,42.0681],[23.1766,42.0986],[23.4239,42.0538],[23.5086,42.1012]]]},"properties":{"iso3":"BGR","shapeId":"22928101B44341321223640","regionId":"BGR.8_1","name":"Kyustendil"}},{"type":"Feature","geometry":{"type":"Polygon","coordinates":[[[25.0682,43.1915],[25.0961,43.1935],[25.1315,43.2937],[25.0757,43.3133],[25.0475,43.3759],[25.0076,43.3807],[25.0015,43.3512],[24.9571,43.3091],[24.9029,43.2963],[24.8144,43.3244],[24.7751,43.3185],[24.6746,43.2652],[24.6451,43.2739],[24.6338,43.2364],[24.6135,43.2299],[24.4402,43.2432],[24.3711,43.2861],[24.2415,43.245],[24.1138,43.256],[24.0292,43.2218],[24.0362,43.1178],[23.9575,43.1155],[23.9564,43.0985],[23.962,43.0591],[24.0492,43.0544],[24.0819,42.9524],[24.1538,42.9368],[24.1378,42.9003],[24.1596,42.8903],[24.1709,42.8324],[24.137,42.7853],[24.432,42.7601],[24.4605,42.7639],[24.4861,42.7984],[24.5634,42.7941],[24.6427,42.7803],[24.7088,42.7208],[24.8886,42.7211],[24.9886,42.7539],[24.9883,42.7707],[24.9272,42.8662],[24.8505,42.9008],[24.8646,43.0208],[24.9187,43.0386],[24.9081,43.1175],[24.9445,43.1469],[24.9475,43.2104],[25.0682,43.1915]]]},"properties":{"iso3":"BGR","shapeId":"22928101B46852240648203","regionId":"BGR.9_1","name":"Lovech"}},{"type":"Feature","geometry":{"type":"Polygon","coordinates":[[[23.6214,43.7958],[23.4072,43.8532],[23.2453,43.8429],[22.9645,43.7807],[22.9613,43.7544],[23.0193,43.7488],[23.0518,43.7224],[23.0466,43.7055],[22.9345,43.6665],[22.9201,43.5742],[22.8907,43.5663],[22.8463,43.5053],[22.7961,43.4904],[22.7933,43.4319],[22.738,43.3924],[22.8045,43.3379],[22.8809,43.2342],[22.9864,43.1972],[23.0197,43.2064],[23.1157,43.1225],[23.307,43.1306],[23.3461,43.1702],[23.4053,43.168],[23.3976,43.2122],[23.441,43.2246],[23.4436,43.2477],[23.3149,43.2982],[23.3968,43.3837],[23.4018,43.4559],[23.4358,43.5083],[23.5373,43.5013],[23.6161,43.5283],[23.5441,43.5942],[23.6332,43.7399],[23.6214,43.7958]]]},"properties":{"iso3":"BGR","shapeId":"22928101B62968334423713","regionId":"BGR.10_1","name":"Montana"}},{"type":"Feature","geometry":{"type":"Polygon","coordinates":[[[24.0911,41.6764],[24.1182,41.7341],[24.2728,41.7391],[24.327,41.7586],[24.3208,41.8235],[24.3487,41.8551],[24.3923,41.8679],[24.4505,41.9827],[24.4249,42.0585],[24.4478,42.0894],[24.4352,42.1258],[24.4584,42.1457],[24.5178,42.1457],[24.4709,42.2095],[24.4465,42.2971],[24.4626,42.3321],[24.423,42.3609],[24.4044,42.4016],[24.4145,42.4303],[24.3612,42.485],[24.4083,42.5554],[24.3196,42.5614],[24.268,42.6214],[24.1415,42.6175],[24.1232,42.5712],[24.0769,42.5716],[24.0487,42.5492],[23.9727,42.5713],[23.8971,42.5554],[23.9464,42.4726],[23.9876,42.4526],[24.0588,42.4607],[24.0694,42.4336],[24.0413,42.3952],[23.9647,42.3747],[23.9509,42.307],[23.9976,42.2916],[23.9769,42.2691],[23.9495,42.2562],[23.8924,42.2771],[23.8588,42.2378],[23.7603,42.1857],[23.7895,42.1404],[23.8009,42.0535],[23.8304,42.038],[23.7636,41.9724],[23.7995,41.8499],[23.9183,41.7987],[24.0911,41.6764]]]},"properties":{"iso3":"BGR","shapeId":"22928101B54448324978016","regionId":"BGR.11_1","name":"Pazardzhik"}},{"type":"Feature","geometry":{"type":"Polygon","coordinates":[[[23.228,42.3705],[23.2455,42.4051],[23.227,42.4658],[23.2805,42.5344],[23.2755,42.5569],[23.1636,42.5962],[23.1745,42.638],[23.153,42.6731],[23.1099,42.6789],[23.0224,42.754],[22.9259,42.7823],[22.8866,42.8256],[22.849,42.8306],[22.8459,42.8546],[22.766,42.8499],[22.7396,42.8935],[22.6708,42.8687],[22.5845,42.8949],[22.5613,42.8727],[22.5153,42.8764],[22.4341,42.8207],[22.4914,42.7434],[22.4565,42.69],[22.4696,42.6697],[22.4558,42.6387],[22.5906,42.6172],[22.617,42.5617],[22.7045,42.4963],[22.7267,42.4341],[22.7919,42.4076],[22.8368,42.361],[22.9204,42.3643],[22.9184,42.3778],[22.9945,42.4029],[23.0342,42.3761],[23.0816,42.3774],[23.1069,42.4007],[23.1378,42.3725],[23.228,42.3705]]]},"properties":{"iso3":"BGR","shapeId":"22928101B96010659565513","regionId":"BGR.12_1","name":"Pernik"}},{"type":"Feature","geometry":{"type":"Polygon","coordinates":[[[25.1315,43.2937],[25.2155,43.3262],[25.2305,43.3506],[25.2292,43.3744],[25.1789,43.3798],[25.2014,43.4298],[25.1062,43.4374],[25.1795,43.4682],[25.2059,43.5388],[25.1851,43.5517],[25.2012,43.6351],[25.1216,43.6428],[25.0848,43.6762],[24.9589,43.7092],[24.7923,43.7072],[24.7128,43.6822],[24.5919,43.7434],[24.5151,43.7559],[24.3038,43.696],[24.2863,43.6467],[24.2059,43.648],[24.1622,43.6002],[24.0576,43.6084],[24.0246,43.5892],[24.0031,43.5236],[24.0559,43.4348],[23.9576,43.3564],[23.9481,43.2526],[23.9577,43.235],[24.0445,43.2218],[24.1138,43.256],[24.2415,43.245],[24.3711,43.2861],[24.4402,43.2432],[24.576,43.2248],[24.6338,43.2364],[24.6451,43.2739],[24.6746,43.2652],[24.7751,43.3185],[24.8144,43.3244],[24.9029,43.2963],[24.9571,43.3091],[25.0015,43.3512],[25.0076,43.3807],[25.0475,43.3759],[25.0757,43.3133],[25.1315,43.2937]]]},"properties":{"iso3":"BGR","shapeId":"22928101B31715207622661","regionId":"BGR.13_1","name":"Pleven"}},{"type":"Feature","geometry":{"type":"Polygon","coordinates":[[[25.3278,42.1188],[25.2498,42.1854],[25.1256,42.1621],[25.075,42.1697],[25.0582,42.1929],[25.0674,42.2611],[25.1591,42.2781],[25.107,42.305],[25.098,42.4116],[25.1773,42.4025],[25.1939,42.4155],[25.142,42.4481],[25.1714,42.4902],[25.1558,42.5073],[25.0599,42.5036],[25.0091,42.5278],[24.9755,42.603],[24.9886,42.7539],[24.8886,42.7211],[24.7088,42.7208],[24.6427,42.7803],[24.4861,42.7984],[24.4605,42.7639],[24.3742,42.7594],[24.3427,42.7136],[24.3343,42.6943],[24.3583,42.6711],[24.4783,42.5998],[24.4389,42.5596],[24.4083,42.5554],[24.3612,42.485],[24.4145,42.4303],[24.4044,42.4016],[24.423,42.3609],[24.4626,42.3321],[24.4465,42.2971],[24.4709,42.2095],[24.5173,42.1554],[24.4352,42.1258],[24.4478,42.0894],[24.4249,42.0585],[24.4505,41.9827],[24.4246,41.9269],[24.5447,41.885],[24.6574,41.911],[24.761,41.8855],[24.7707,41.8428],[24.7448,41.7992],[24.7919,41.7764],[24.783,41.7323],[24.8407,41.697],[24.8773,41.7538],[24.954,41.7613],[24.9463,41.8232],[24.9947,41.8393],[25.0763,41.8007],[25.1736,41.8907],[25.2841,41.9505],[25.3053,41.991],[25.2875,42.0376],[25.3278,42.1188]]]},"properties":{"iso3":"BGR","shapeId":"22928101B63653503228719","regionId":"BGR.14_1","name":"Plovdiv"}},{"type":"Feature","geometry":{"type":"Polygon","coordinates":[[[26.3751,43.9465],[26.3117,43.8879],[26.3043,43.8535],[26.3493,43.7858],[26.4029,43.7924],[26.5321,43.7388],[26.5093,43.6531],[26.4665,43.6356],[26.2946,43.6268],[26.1479,43.6587],[26.044,43.6198],[26.0466,43.5743],[26.0952,43.5219],[26.1903,43.5314],[26.2277,43.5616],[26.3384,43.4915],[26.3561,43.4497],[26.4461,43.4492],[26.4762,43.4015],[26.4676,43.3591],[26.5497,43.363],[26.6296,43.3368],[26.6786,43.3932],[26.7318,43.4154],[26.7275,43.4565],[26.812,43.4897],[26.7914,43.5475],[26.8576,43.5816],[26.862,43.6042],[26.9353,43.6114],[26.9438,43.6384],[27.0068,43.6664],[26.989,43.7127],[26.9443,43.7507],[26.8936,43.7576],[26.8939,43.7875],[26.8325,43.8393],[26.7554,43.8241],[26.6203,43.8817],[26.5634,43.936],[26.4847,43.9194],[26.4563,43.9397],[26.3751,43.9465]]]},"properties":{"iso3":"BGR","shapeId":"22928101B37005697936135","regionId":"BGR.15_1","name":"Razgrad"}},{"type":"Feature","geometry":{"type":"Polygon","coordinates":[[[26.3751,43.9465],[26.3812,43.9948],[26.3268,44.0233],[26.1076,43.9556],[26.0511,43.9014],[25.941,43.8505],[25.8884,43.786],[25.7495,43.6969],[25.4893,43.6315],[25.4928,43.6019],[25.4556,43.5709],[25.5061,43.5002],[25.5469,43.4974],[25.5382,43.436],[25.5559,43.4216],[25.8319,43.3598],[25.9164,43.3666],[25.9421,43.3235],[25.9971,43.3188],[26.0024,43.3539],[25.9336,43.4017],[26.0028,43.4503],[26.031,43.5099],[26.0952,43.5219],[26.0466,43.5743],[26.0477,43.6253],[26.1608,43.6596],[26.2946,43.6268],[26.4665,43.6356],[26.5286,43.6827],[26.5321,43.7388],[26.4029,43.7924],[26.3493,43.7858],[26.3043,43.8535],[26.3117,43.8879],[26.3751,43.9465]]]},"properties":{"iso3":"BGR","shapeId":"22928101B77314555344177","regionId":"BGR.16_1","name":"Ruse"}},{"type":"Feature","geometry":{"type":"Polygon","coordinates":[[[27.1151,42.9359],[27.1172,42.9649],[27.0804,42.9774],[27.0724,43.0134],[27.2117,43.0442],[27.206,43.0846],[27.1736,43.087],[27.1535,43.1114],[27.2049,43.1652],[27.2877,43.2051],[27.2589,43.2296],[27.2364,43.2937],[27.3093,43.3437],[27.2704,43.3801],[27.3364,43.4528],[27.3103,43.4712],[27.3359,43.504],[27.3047,43.5095],[27.3039,43.5338],[27.4282,43.5971],[27.3892,43.6252],[27.305,43.6081],[27.2655,43.6543],[27.2298,43.6506],[27.2006,43.6743],[27.1454,43.6666],[27.0703,43.7274],[26.989,43.7127],[27.0037,43.661],[26.9438,43.6384],[26.9353,43.6114],[26.862,43.6042],[26.8576,43.5816],[26.7914,43.5475],[26.812,43.4897],[26.7275,43.4565],[26.7318,43.4154],[26.7834,43.3893],[26.7224,43.2986],[26.765,43.2685],[26.7607,43.2447],[26.707,43.1982],[26.7055,43.1566],[26.6641,43.1621],[26.6587,43.1212],[26.6766,43.0877],[26.6446,43.083],[26.6438,43.0572],[26.6083,43.0423],[26.6132,43.0123],[26.5545,42.9916],[26.5203,42.956],[26.5451,42.918],[26.6298,42.9301],[26.6379,42.9022],[26.6655,42.8984],[26.7321,42.9017],[26.782,42.9325],[26.8615,42.9342],[26.9689,42.932],[27.0113,42.9021],[27.1151,42.9359]]]},"properties":{"iso3":"BGR","shapeId":"22928101B51752222739071","regionId":"BGR.17_1","name":"Shumen"}},{"type":"Feature","geometry":{"type":"Polygon","coordinates":[[[27.6965,43.989],[27.6555,44.0523],[27.6004,44.022],[27.4067,44.018],[27.2865,44.0874],[27.2823,44.1255],[27.1284,44.1373],[26.9547,44.1348],[26.7585,44.0754],[26.3398,44.0189],[26.3845,43.9888],[26.3751,43.9465],[26.4563,43.9397],[26.4847,43.9194],[26.5634,43.936],[26.6203,43.8817],[26.7554,43.8241],[26.8325,43.8393],[26.8939,43.7875],[26.8936,43.7576],[26.9443,43.7507],[26.9783,43.7134],[27.0921,43.7227],[27.153,43.6655],[27.2403,43.6759],[27.2087,43.717],[27.2135,43.7456],[27.3079,43.8121],[27.3787,43.8239],[27.4475,43.871],[27.5181,43.8555],[27.5491,43.9144],[27.5841,43.9015],[27.6208,43.9129],[27.6467,43.9713],[27.6965,43.989]]]},"properties":{"iso3":"BGR","shapeId":"22928101B76058973774161","regionId":"BGR.18_1","name":"Silistra"}},{"type":"Feature","geometry":{"type":"Polygon","coordinates":[[[26.5639,42.9209],[26.5216,42.9445],[26.5545,42.9916],[26.5307,43.0036],[26.4115,43.0034],[26.3705,43.0196],[26.3371,43.004],[26.3318,43.0368],[26.2639,43.0348],[26.2579,43.0019],[26.2157,42.9662],[26.0552,42.8775],[26.0365,42.8282],[25.9661,42.7958],[25.7957,42.7911],[25.8453,42.6269],[25.8778,42.5893],[25.8303,42.5605],[25.8768,42.4757],[25.8552,42.4404],[25.9311,42.3319],[26.0267,42.2879],[26.0314,42.271],[26.1563,42.2449],[26.2239,42.3549],[26.2245,42.3782],[26.1832,42.3684],[26.1587,42.4016],[26.2023,42.415],[26.2035,42.449],[26.2927,42.4455],[26.3622,42.4983],[26.3436,42.5308],[26.367,42.5549],[26.5532,42.578],[26.6532,42.6379],[26.6502,42.7068],[26.6987,42.7036],[26.6993,42.7249],[26.6414,42.7718],[26.5659,42.7941],[26.5803,42.8479],[26.5639,42.9209]]]},"properties":{"iso3":"BGR","shapeId":"22928101B44229797432023","regionId":"BGR.19_1","name":"Sliven"}},{"type":"Feature","geometry":{"type":"Polygon","coordinates":[[[24.0773,41.5341],[24.1129,41.5456],[24.1952,41.516],[24.2078,41.5439],[24.2606,41.5704],[24.3137,41.5168],[24.3929,41.5376],[24.46,41.5296],[24.4754,41.5519],[24.5322,41.5649],[24.6063,41.4347],[24.7366,41.416],[24.7641,41.3699],[24.8051,41.3482],[24.8178,41.3966],[24.9138,41.4103],[25.1782,41.3075],[25.1486,41.3365],[25.139,41.3884],[25.178,41.424],[25.1556,41.4315],[25.1695,41.5018],[25.0346,41.5033],[24.9786,41.5759],[24.9846,41.5937],[25.0892,41.6215],[25.0914,41.6765],[25.0497,41.7549],[25.0593,41.7985],[24.9767,41.8383],[24.9463,41.8232],[24.9456,41.7524],[24.8842,41.7574],[24.8596,41.7135],[24.8264,41.6977],[24.783,41.7323],[24.7919,41.7764],[24.7448,41.7992],[24.7707,41.8428],[24.761,41.8855],[24.6574,41.911],[24.5447,41.885],[24.4155,41.9267],[24.3923,41.8679],[24.3487,41.8551],[24.3208,41.8235],[24.327,41.7586],[24.2728,41.7391],[24.1182,41.7341],[24.0911,41.6764],[24.1133,41.6462],[24.0773,41.5341]]]},"properties":{"iso3":"BGR","shapeId":"22928101B66285988905372","regionId":"BGR.20_1","name":"Smolyan"}},{"type":"Feature","geometry":{"type":"Polygon","coordinates":[[[23.7603,42.1857],[23.8588,42.2378],[23.8924,42.2771],[23.9495,42.2562],[23.9769,42.2691],[23.9976,42.2916],[23.9509,42.307],[23.9647,42.3747],[24.0413,42.3952],[24.0694,42.4336],[24.0588,42.4607],[23.9876,42.4526],[23.9464,42.4726],[23.8986,42.5356],[23.9135,42.5664],[23.9727,42.5713],[24.0487,42.5492],[24.0769,42.5716],[24.1169,42.5675],[24.1322,42.6124],[24.1896,42.6265],[24.268,42.6214],[24.3302,42.5567],[24.4283,42.556],[24.4618,42.5788],[24.4783,42.5998],[24.3343,42.6943],[24.3742,42.7594],[24.137,42.7853],[24.1709,42.8324],[24.1596,42.8903],[24.1378,42.9003],[24.1538,42.9368],[24.0819,42.9524],[24.0368,43.0646],[23.962,43.0591],[23.935,43.031],[23.7496,43.063],[23.6902,43.0332],[23.6248,43.0452],[23.5455,43.0007],[23.4669,43.0955],[23.4891,43.1398],[23.478,43.1579],[23.3533,43.1714],[23.307,43.1306],[23.1489,43.1162],[23.104,43.1287],[23.0197,43.2064],[22.9864,43.1972],[22.9799,43.1314],[22.8791,43.0347],[22.7694,42.9675],[22.7396,42.8935],[22.766,42.8499],[22.8459,42.8546],[22.849,42.8306],[22.8866,42.8256],[22.9259,42.7823],[22.9725,42.776],[23.0311,42.7364],[23.1858,42.7475],[23.2879,42.8924],[23.3739,42.8472],[23.4775,42.8786],[23.5468,42.8497],[23.6324,42.842],[23.6033,42.7275],[23.5065,42.6686],[23.5499,42.6245],[23.5528,42.5416],[23.6085,42.511],[23.6518,42.4232],[23.5324,42.4227],[23.5243,42.4906],[23.4834,42.5224],[23.4461,42.5165],[23.4534,42.4676],[23.4315,42.4591],[23.2805,42.5344],[23.227,42.4658],[23.2455,42.4051],[23.228,42.3705],[23.3275,42.3565],[23.349,42.3025],[23.4039,42.2697],[23.4057,42.2535],[23.3463,42.2268],[23.3291,42.1865],[23.4483,42.1859],[23.4666,42.1496],[23.5176,42.1239],[23.5086,42.1012],[23.5815,42.1003],[23.6146,42.1646],[23.6864,42.1734],[23.737,42.1507],[23.7346,42.1825],[23.7603,42.1857]]]},"properties":{"iso3":"BGR","shapeId":"22928101B17014479854950","regionId":"BGR.21_1","name":"Sofia"}},{"type":"Feature","geometry":{"type":"Polygon","coordinates":[[[23.2805,42.5344],[23.4315,42.4591],[23.4534,42.4676],[23.4461,42.5165],[23.4834,42.5224],[23.5243,42.4906],[23.5324,42.4227],[23.6518,42.4232],[23.6085,42.511],[23.5528,42.5416],[23.5499,42.6245],[23.5065,42.6686],[23.6033,42.7275],[23.6324,42.842],[23.5468,42.8497],[23.4775,42.8786],[23.3739,42.8472],[23.2879,42.8924],[23.1858,42.7475],[23.0311,42.7364],[23.1099,42.6789],[23.153,42.6731],[23.1745,42.638],[23.1636,42.5962],[23.2755,42.5569],[23.2805,42.5344]]]},"properties":{"iso3":"BGR","shapeId":"22928101B40975042441370","regionId":null,"name":"Sofia City"}},{"type":"Feature","geometry":{"type":"Polygon","coordinates":[[[24.9886,42.7539],[24.9755,42.603],[25.0091,42.5278],[25.0599,42.5036],[25.1558,42.5073],[25.1714,42.4902],[25.142,42.4481],[25.1939,42.4155],[25.1773,42.4025],[25.098,42.4116],[25.107,42.305],[25.1591,42.2781],[25.0674,42.2611],[25.0582,42.1929],[25.075,42.1697],[25.1256,42.1621],[25.2498,42.1854],[25.3278,42.1188],[25.4246,42.1017],[25.4499,42.162],[25.484,42.1746],[25.5392,42.162],[25.5561,42.2032],[25.5869,42.2114],[25.5973,42.1379],[25.6737,42.1525],[25.7319,42.0618],[25.8224,42.0808],[25.8414,42.1202],[25.8882,42.1207],[25.9648,42.0929],[26.0304,42.0256],[26.1351,42.0493],[26.1175,42.1612],[26.1736,42.2206],[26.1563,42.2449],[25.9892,42.2945],[25.8867,42.3852],[25.8552,42.4404],[25.8768,42.4757],[25.8303,42.5605],[25.8778,42.5893],[25.8453,42.6269],[25.7957,42.7911],[25.6909,42.7901],[25.6085,42.7415],[25.5682,42.7636],[25.4882,42.7476],[25.4029,42.778],[25.4163,42.7491],[25.3955,42.7395],[25.2248,42.764],[25.173,42.7925],[25.0613,42.7523],[24.9886,42.7539]]]},"properties":{"iso3":"BGR","shapeId":"22928101B69206981842261","regionId":"BGR.22_1","name":"Stara Zagora"}},{"type":"Feature","geometry":{"type":"Polygon","coordinates":[[[26.0952,43.5219],[26.031,43.5099],[26.0028,43.4503],[25.9336,43.4017],[26.0024,43.3539],[25.9971,43.3188],[26.0628,43.2933],[26.0648,43.2752],[26.0393,43.2599],[26.0943,43.2115],[26.0391,43.0936],[26.1157,43.0194],[26.0755,42.981],[26.1796,42.9495],[26.252,42.9942],[26.2639,43.0348],[26.3318,43.0368],[26.3371,43.004],[26.3705,43.0196],[26.5585,42.9916],[26.6132,43.0123],[26.6114,43.0471],[26.6438,43.0572],[26.6446,43.083],[26.6766,43.0877],[26.6572,43.1302],[26.6665,43.1662],[26.7055,43.1566],[26.707,43.1982],[26.765,43.2545],[26.7224,43.2986],[26.7528,43.3637],[26.7827,43.3742],[26.7707,43.4051],[26.7006,43.4098],[26.6296,43.3368],[26.5497,43.363],[26.4805,43.3565],[26.4626,43.3647],[26.4762,43.4015],[26.4461,43.4492],[26.3561,43.4497],[26.3384,43.4915],[26.2277,43.5616],[26.1903,43.5314],[26.0952,43.5219]]]},"properties":{"iso3":"BGR","shapeId":"22928101B13229128735183","regionId":"BGR.23_1","name":"Targovishte"}},{"type":"Feature","geometry":{"type":"Polygon","coordinates":[[[27.8734,42.8348],[27.8967,42.8557],[27.8838,43.0214],[27.9456,43.1617],[27.9063,43.1857],[28.0057,43.2284],[28.0486,43.2957],[28.0074,43.3872],[27.953,43.4005],[27.858,43.3623],[27.7445,43.4403],[27.7278,43.4732],[27.6286,43.4902],[27.6005,43.5433],[27.5547,43.5117],[27.4989,43.5158],[27.4873,43.5771],[27.4282,43.5971],[27.3082,43.5397],[27.3047,43.5095],[27.3369,43.5015],[27.3103,43.4712],[27.3364,43.4528],[27.2704,43.3801],[27.3093,43.3437],[27.2364,43.2937],[27.2589,43.2296],[27.2877,43.2051],[27.2049,43.1652],[27.1535,43.1114],[27.1736,43.087],[27.206,43.0846],[27.2174,43.0496],[27.0724,43.0134],[27.0804,42.9774],[27.114,42.9703],[27.1151,42.9359],[27.2397,42.966],[27.3144,42.9528],[27.4475,42.884],[27.6986,42.8853],[27.7051,42.8547],[27.7749,42.828],[27.8734,42.8348]]]},"properties":{"iso3":"BGR","shapeId":"22928101B59958785683132","regionId":"BGR.24_1","name":"Varna"}},{"type":"Feature","geometry":{"type":"Polygon","coordinates":[[[25.6303,42.7628],[25.7282,42.7944],[25.9661,42.7958],[26.0492,42.8367],[26.0552,42.8775],[26.1703,42.9387],[26.0755,42.981],[26.1157,43.0194],[26.0391,43.0936],[26.0635,43.1698],[26.0962,43.2046],[26.0393,43.2599],[26.0648,43.2752],[26.0628,43.2933],[25.9421,43.3235],[25.9164,43.3666],[25.8319,43.3598],[25.5559,43.4216],[25.5382,43.436],[25.5469,43.4974],[25.5061,43.5002],[25.4556,43.5709],[25.4928,43.6019],[25.4835,43.6221],[25.4585,43.6087],[25.3442,43.6165],[25.2598,43.6485],[25.2012,43.6351],[25.1851,43.5517],[25.2059,43.5388],[25.1795,43.4682],[25.1062,43.4374],[25.2014,43.4298],[25.1789,43.3798],[25.2292,43.3744],[25.2277,43.3395],[25.1315,43.2937],[25.0961,43.1935],[25.0682,43.1915],[25.0708,43.1661],[25.1416,43.1158],[25.2898,43.1205],[25.2816,43.0639],[25.4331,43.0546],[25.5582,43.0169],[25.5686,42.9944],[25.532,42.9614],[25.5287,42.926],[25.594,42.9015],[25.6117,42.8648],[25.5814,42.8402],[25.5803,42.814],[25.5911,42.7823],[25.6303,42.7628]]]},"properties":{"iso3":"BGR","shapeId":"22928101B33485564928872","regionId":"BGR.25_1","name":"Veliko Tarnovo"}},{"type":"Feature","geometry":{"type":"Polygon","coordinates":[[[23.0273,43.7912],[22.877,43.8295],[22.8254,43.8772],[22.88,43.9863],[23.0058,44.0226],[23.0367,44.0454],[23.0399,44.0767],[22.9225,44.101],[22.778,44.1847],[22.6788,44.21],[22.6498,44.192],[22.6153,44.066],[22.542,44.0523],[22.5232,44.025],[22.4069,44.0075],[22.3485,43.8226],[22.3996,43.693],[22.4706,43.6477],[22.4732,43.5716],[22.5161,43.4839],[22.6652,43.4031],[22.738,43.3924],[22.7933,43.4319],[22.7961,43.4904],[22.8463,43.5053],[22.8907,43.5663],[22.9201,43.5742],[22.9345,43.6665],[23.0466,43.7055],[23.0417,43.7332],[22.9567,43.7688],[23.0273,43.7912]]]},"properties":{"iso3":"BGR","shapeId":"22928101B21472932183906","regionId":"BGR.26_1","name":"Vidin"}},{"type":"Feature","geometry":{"type":"Polygon","coordinates":[[[24.0292,43.2218],[23.9577,43.235],[23.9481,43.2526],[23.9576,43.3564],[24.0559,43.4348],[24.0031,43.5236],[24.0246,43.5892],[24.0941,43.6108],[24.1535,43.5975],[24.2059,43.648],[24.2863,43.6467],[24.3038,43.696],[24.1627,43.6844],[23.7122,43.7964],[23.6214,43.7958],[23.6332,43.7399],[23.5441,43.5942],[23.6161,43.5283],[23.5373,43.5013],[23.4358,43.5083],[23.4018,43.4559],[23.3968,43.3837],[23.3149,43.2982],[23.4436,43.2477],[23.441,43.2246],[23.3976,43.2122],[23.3989,43.179],[23.484,43.1523],[23.4669,43.0955],[23.5455,43.0007],[23.6248,43.0452],[23.6902,43.0332],[23.7496,43.063],[23.9512,43.0343],[23.9664,43.0732],[23.9575,43.1155],[24.0362,43.1178],[24.0292,43.2218]]]},"properties":{"iso3":"BGR","shapeId":"22928101B85643102977503","regionId":"BGR.27_1","name":"Vratsa"}},{"type":"Feature","geometry":{"type":"Polygon","coordinates":[[[26.6987,42.7036],[26.6502,42.7068],[26.6532,42.6379],[26.6393,42.6254],[26.5532,42.578],[26.3751,42.5588],[26.3445,42.5373],[26.3622,42.4983],[26.2927,42.4455],[26.2177,42.4565],[26.1997,42.4454],[26.2023,42.415],[26.1587,42.4016],[26.1832,42.3684],[26.2259,42.3722],[26.159,42.2635],[26.1668,42.2259],[26.3303,42.1698],[26.4753,42.1593],[26.515,42.1373],[26.4975,42.078],[26.5067,42.0369],[26.4793,42.0217],[26.5552,41.9342],[26.6186,41.9771],[26.7317,41.96],[26.9613,42.004],[26.9773,42.0341],[27.0222,42.0572],[27.0172,42.0791],[27.0447,42.0898],[26.9556,42.1456],[26.9478,42.1821],[26.9708,42.2076],[26.9348,42.2458],[26.9587,42.2754],[26.914,42.2914],[26.9057,42.3155],[26.9561,42.3722],[26.963,42.4212],[26.9313,42.4448],[26.8855,42.4437],[26.8015,42.5544],[26.7785,42.6217],[26.6987,42.7036]]]},"properties":{"iso3":"BGR","shapeId":"22928101B84935851538926","regionId":"BGR.28_1","name":"Yambol"}}]}