{"type":"FeatureCollection","features":[{"type":"Feature","geometry":{"type":"Polygon","coordinates":[[[-61.5279,-13.5298],[-61.5725,-13.5171],[-61.5779,-13.4872],[-61.6487,-13.5189],[-61.6947,-13.4981],[-61.7322,-13.5268],[-61.7537,-13.5194],[-61.7579,-13.5403],[-61.7716,-13.5161],[-61.7824,-13.5369],[-61.8239,-13.5219],[-61.8563,-13.5376],[-61.8969,-13.4272],[-61.9689,-13.4077],[-61.9747,-13.3681],[-62.0003,-13.3736],[-62.0172,-13.3277],[-62.1128,-13.2604],[-62.1164,-13.159],[-62.1509,-13.1608],[-62.1688,-13.113],[-62.1922,-13.1527],[-62.2172,-13.1105],[-62.2755,-13.1565],[-62.3144,-13.1341],[-62.3212,-13.151],[-62.3925,-13.1344],[-62.3986,-13.1135],[-62.4156,-13.1278],[-62.4347,-13.0829],[-62.4561,-13.0874],[-62.4744,-13.0587],[-62.5003,-13.0821],[-62.6087,-13.0431],[-62.5999,-13.0147],[-62.6304,-13.0143],[-62.6508,-12.9645],[-62.6978,-13.0017],[-62.727,-13.0013],[-62.7326,-13.022],[-62.7458,-12.9987],[-62.7582,-13.0178],[-62.7804,-13.0082],[-62.8067,-12.9404],[-62.8481,-12.9474],[-62.8443,-12.9241],[-62.8731,-12.9082],[-62.8946,-12.8567],[-62.9326,-12.8402],[-62.9771,-12.8598],[-62.9861,-12.838],[-63.0108,-12.8357],[-63.0499,-12.7343],[-63.0809,-12.7239],[-63.0623,-12.6864],[-63.0977,-12.682],[-63.0933,-12.6597],[-63.1389,-12.646],[-63.1569,-12.6144],[-63.1637,-12.6409],[-63.1934,-12.6235],[-63.1946,-12.6535],[-63.2448,-12.6618],[-63.2412,-12.6906],[-63.3706,-12.6596],[-63.4096,-12.612],[-63.4421,-12.6051],[-63.4268,-12.5949],[-63.4369,-12.5645],[-63.5024,-12.5653],[-63.5573,-12.5048],[-63.785,-12.4289],[-63.8349,-12.4641],[-63.8872,-12.4457],[-63.899,-12.5033],[-63.9512,-12.5306],[-63.9964,-12.501],[-64.0391,-12.516],[-64.0602,-12.49],[-64.1005,-12.4866],[-64.123,-12.5061],[-64.1379,-12.4783],[-64.1639,-12.5139],[-64.1743,-12.4671],[-64.2306,-12.4539],[-64.2929,-12.5019],[-64.2949,-12.4579],[-64.4058,-12.4465],[-64.5087,-12.3608],[-64.4936,-12.2889],[-64.5135,-12.2234],[-64.5517,-12.2394],[-64.5781,-12.2108],[-64.6088,-12.2181],[-64.7027,-12.1822],[-64.7182,-12.1475],[-64.7086,-12.0859],[-64.7368,-12.0963],[-64.7538,-12.1573],[-64.7765,-12.0901],[-64.8039,-12.0867],[-64.8258,-12.1214],[-64.8417,-12.1097],[-64.8105,-12.0587],[-64.8351,-12.0129],[-64.9213,-12.028],[-64.9469,-11.9942],[-64.9785,-12.0191],[-65.0031,-11.9949],[-65.0364,-11.9957],[-65.0276,-11.9717],[-65.0431,-11.9639],[-65.0179,-11.8964],[-65.0737,-11.8658],[-65.0599,-11.798],[-65.0828,-11.7133],[-65.1898,-11.7235],[-65.174,-11.7466],[-65.1853,-11.7565],[-65.257,-11.7141],[-65.2245,-11.6647],[-65.2326,-11.5672],[-65.2132,-11.5268],[-65.3101,-11.491],[-65.3336,-11.3397],[-65.2901,-11.3208],[-65.347,-11.3025],[-65.3619,-11.2243],[-65.3151,-11.1933],[-65.3512,-11.1873],[-65.3622,-11.1429],[-65.3399,-11.1127],[-65.2833,-11.09],[-65.3005,-11.0295],[-65.2507,-10.9841],[-65.273,-10.9545],[-65.274,-10.8748],[-65.3619,-10.7918],[-65.3436,-10.7662],[-65.3526,-10.6625],[-65.4061,-10.6375],[-65.3955,-10.5817],[-65.4305,-10.4823],[-65.382,-10.4313],[-65.391,-10.3812],[-65.4082,-10.414],[-65.4838,-10.4381],[-65.5099,-10.4967],[-65.6181,-10.5399],[-65.6333,-10.5636],[-65.7279,-10.5669],[-65.7342,-10.5917],[-65.7019,-10.6514],[-65.7335,-10.7069],[-65.8201,-10.7442],[-65.8603,-10.6926],[-65.88,-10.6934],[-65.9056,-10.7408],[-65.8518,-10.7844],[-65.854,-10.8339],[-65.9758,-10.797],[-66.0763,-10.8517],[-66.0131,-10.8637],[-66.0473,-10.903],[-66.0579,-10.9866],[-66.0923,-10.9901],[-66.1066,-11.0228],[-66.0934,-11.0506],[-66.1439,-11.0461],[-66.1264,-11.1183],[-66.1574,-11.1344],[-66.1938,-11.0749],[-66.2147,-11.1186],[-66.1858,-11.1818],[-66.2165,-11.2116],[-66.267,-11.2172],[-66.2514,-11.2661],[-66.2776,-11.2777],[-66.2379,-11.3081],[-66.2281,-11.3404],[-66.3109,-11.3158],[-66.3382,-11.3311],[-66.321,-11.3612],[-66.4403,-11.3764],[-66.4646,-11.3963],[-66.464,-11.4238],[-66.495,-11.441],[-66.5471,-11.4144],[-66.6316,-11.424],[-66.6395,-11.4733],[-66.7053,-11.4465],[-66.734,-11.4842],[-66.6959,-11.4972],[-66.6758,-11.5617],[-66.7628,-11.5913],[-66.7128,-11.6105],[-66.7358,-11.6548],[-66.7067,-11.6607],[-66.7117,-11.6818],[-66.762,-11.7085],[-66.7813,-11.745],[-66.7959,-11.7309],[-66.7719,-11.6966],[-66.8167,-11.6973],[-66.8398,-11.7664],[-66.8702,-11.7429],[-66.9105,-11.7471],[-66.9179,-11.7806],[-66.8804,-11.7739],[-66.8567,-11.8226],[-66.9797,-11.9066],[-66.9561,-11.9406],[-66.9538,-11.9112],[-66.9346,-11.9155],[-66.93,-11.9503],[-66.9059,-11.9529],[-66.8937,-12.0074],[-66.9107,-12.0525],[-66.8886,-12.0581],[-66.8731,-12.1063],[-66.9253,-12.1615],[-66.9206,-12.1844],[-66.8892,-12.2],[-66.8869,-12.2512],[-66.9486,-12.305],[-66.946,-12.3276],[-66.9066,-12.342],[-66.8973,-12.3692],[-66.9698,-12.4186],[-66.9327,-12.4722],[-66.9673,-12.4903],[-66.9174,-12.5338],[-66.9695,-12.5678],[-66.9769,-12.5927],[-66.9265,-12.6256],[-66.9511,-12.6236],[-66.9753,-12.6569],[-66.9394,-12.685],[-66.9713,-12.6903],[-66.9533,-12.7281],[-66.9831,-12.7333],[-66.9478,-12.7903],[-66.954,-12.8022],[-66.9834,-12.7831],[-66.9831,-12.8097],[-66.9429,-12.826],[-66.9492,-12.8435],[-66.9902,-12.8512],[-66.9951,-12.8885],[-67.0348,-12.8924],[-67.0336,-12.9089],[-66.9981,-12.9166],[-67.0366,-12.9319],[-67.0384,-12.9741],[-67.0702,-12.9944],[-67.0434,-13.0131],[-67.0467,-13.0513],[-67.0654,-13.0287],[-67.0934,-13.0457],[-67.096,-13.0255],[-67.1113,-13.0312],[-67.1064,-13.0685],[-67.1148,-13.0479],[-67.1481,-13.0529],[-67.1344,-13.0922],[-67.1874,-13.1258],[-67.1603,-13.1664],[-67.2207,-13.1662],[-67.1979,-13.1953],[-67.2667,-13.2096],[-67.2512,-13.2583],[-67.2757,-13.2417],[-67.2954,-13.2532],[-67.267,-13.2617],[-67.2664,-13.2928],[-67.2861,-13.3041],[-67.2941,-13.2725],[-67.3001,-13.3051],[-67.357,-13.3479],[-67.3287,-13.3658],[-67.3902,-13.3967],[-67.3772,-13.42],[-67.3959,-13.4377],[-67.3552,-13.4462],[-67.3889,-13.4562],[-67.3875,-13.4781],[-67.3478,-13.4715],[-67.4044,-13.5295],[-67.3819,-13.5386],[-67.3778,-13.5681],[-67.3534,-13.5696],[-67.3633,-13.609],[-67.3882,-13.6035],[-67.3635,-13.6382],[-67.4348,-13.6576],[-67.4171,-13.7043],[-67.4266,-13.7345],[-67.4588,-13.7127],[-67.4504,-13.7384],[-67.5252,-13.7832],[-67.4818,-13.7945],[-67.5159,-13.8327],[-67.4864,-13.8536],[-67.4595,-13.846],[-67.5118,-13.9062],[-67.4847,-13.9151],[-67.5326,-13.9599],[-67.527,-14.0172],[-67.5484,-14.0316],[-67.494,-14.0648],[-67.5504,-14.0966],[-67.5048,-14.1124],[-67.5343,-14.1921],[-67.5091,-14.2273],[-67.5186,-14.2562],[-67.4726,-14.2882],[-67.517,-14.2941],[-67.5622,-14.3439],[-67.5362,-14.3537],[-67.5581,-14.3695],[-67.5417,-14.3861],[-67.5572,-14.4107],[-67.5329,-14.4171],[-67.5276,-14.4671],[-67.4816,-14.5036],[-67.4994,-14.5609],[-67.5376,-14.5931],[-67.5288,-14.6517],[-67.5104,-14.6449],[-67.4972,-14.6863],[-67.4757,-14.6866],[-67.4164,-14.7448],[-67.4242,-14.7623],[-67.393,-14.7941],[-67.3872,-14.8202],[-67.4109,-14.8434],[-67.4003,-14.8657],[-67.4315,-14.894],[-67.4155,-14.9074],[-67.4286,-14.9237],[-67.4066,-14.9718],[-67.4164,-14.9892],[-67.3938,-14.9884],[-67.3861,-15.0198],[-67.3623,-15.0331],[-67.356,-15.0209],[-67.335,-15.0448],[-67.2903,-15.0271],[-67.2379,-15.0586],[-67.2385,-15.1146],[-67.2132,-15.1126],[-67.1909,-15.1383],[-67.1965,-15.1546],[-67.1708,-15.1645],[-67.1369,-15.2213],[-67.1357,-15.2747],[-67.0814,-15.3145],[-67.1183,-15.3933],[-66.9623,-15.5068],[-66.8996,-15.6041],[-66.9069,-15.6402],[-66.7954,-15.7851],[-66.8075,-15.828],[-66.6762,-15.911],[-66.6388,-15.916],[-66.6156,-15.9517],[-66.4769,-16.0044],[-66.3393,-16.1172],[-66.1697,-16.3628],[-66.0089,-16.4492],[-65.8617,-16.4917],[-65.5947,-16.4602],[-65.2399,-16.3688],[-65.1162,-16.188],[-65.0717,-15.9057],[-65.0216,-15.8371],[-64.9583,-15.801],[-63.3806,-15.8839],[-63.3868,-15.8569],[-63.4105,-15.8583],[-63.3998,-15.8472],[-63.4162,-15.8529],[-63.4442,-15.8248],[-63.4293,-15.7491],[-63.471,-15.7346],[-63.5122,-15.6655],[-63.5491,-15.6513],[-63.574,-15.6653],[-63.5829,-15.634],[-63.642,-15.6245],[-63.6566,-15.5787],[-63.6927,-15.5812],[-63.6804,-15.4973],[-63.7121,-15.4899],[-63.7311,-15.453],[-63.7513,-15.4726],[-63.7651,-15.4382],[-63.788,-15.436],[-63.7984,-15.4201],[-63.7757,-15.3965],[-63.8377,-15.3426],[-63.8531,-15.2694],[-63.8713,-15.2637],[-63.8585,-15.227],[-63.8952,-15.21],[-63.8831,-15.1968],[-63.9014,-15.1664],[-63.9436,-15.16],[-63.9416,-15.11],[-63.9636,-15.069],[-63.9178,-15.0327],[-63.9406,-15.0143],[-63.9213,-14.9887],[-63.9469,-14.8771],[-63.9264,-14.7721],[-63.975,-14.7284],[-63.5612,-14.2959],[-61.5279,-13.5298]]]},"properties":{"iso3":"BOL","shapeId":"26024454B17172096462676","regionId":"BOL.3_1","name":"Beni"}},{"type":"Feature","geometry":{"type":"Polygon","coordinates":[[[-65.3457,-18.4179],[-65.3661,-18.4356],[-65.507,-18.3867],[-65.5465,-18.4046],[-65.5908,-18.3748],[-65.6939,-18.3519],[-65.6842,-18.4171],[-65.6241,-18.462],[-65.6238,-18.5011],[-65.5839,-18.4983],[-65.5143,-18.5475],[-65.496,-18.5358],[-65.486,-18.5908],[-65.4367,-18.616],[-65.4216,-18.605],[-65.3813,-18.6408],[-65.4191,-18.6632],[-65.4006,-18.702],[-65.4292,-18.748],[-65.3564,-18.7864],[-65.3871,-18.7962],[-65.4176,-18.7789],[-65.4437,-18.8314],[-65.4017,-18.9038],[-65.4059,-18.939],[-65.441,-18.9185],[-65.4809,-18.9259],[-65.5324,-18.9765],[-65.5873,-18.9977],[-65.5581,-19.0638],[-65.4062,-19.1438],[-65.3698,-19.2556],[-65.3304,-19.2714],[-65.3104,-19.3062],[-65.2307,-19.3205],[-65.141,-19.3781],[-65.0882,-19.3668],[-65.0546,-19.3857],[-65.0041,-19.352],[-64.9127,-19.3547],[-64.8956,-19.3996],[-64.8526,-19.4102],[-64.8231,-19.4835],[-64.8428,-19.5896],[-64.787,-19.6332],[-64.7144,-19.7796],[-64.7765,-19.841],[-64.795,-19.9028],[-64.8508,-19.9811],[-64.8908,-19.9636],[-64.9143,-19.8422],[-64.9416,-19.8765],[-64.9909,-19.8533],[-65.0302,-19.7946],[-65.0567,-19.7937],[-65.0831,-19.9319],[-65.0598,-19.9533],[-65.0906,-20.0094],[-65.1522,-20.0124],[-65.2033,-19.938],[-65.2223,-19.9359],[-65.2703,-20.0039],[-65.305,-20.0093],[-65.2326,-20.1405],[-65.3016,-20.1778],[-65.3157,-20.2251],[-65.2826,-20.2327],[-65.2212,-20.3188],[-65.2515,-20.3796],[-65.2435,-20.4151],[-65.2624,-20.4238],[-65.2686,-20.5047],[-65.3276,-20.5119],[-65.3501,-20.5484],[-65.3878,-20.5576],[-65.3472,-20.6226],[-65.3645,-20.6772],[-65.3569,-20.7258],[-65.3763,-20.7512],[-65.3462,-20.8632],[-65.3947,-20.8921],[-65.3999,-21.0069],[-65.4206,-21.0613],[-65.4025,-21.1607],[-65.4417,-21.1811],[-65.4371,-21.4265],[-65.4077,-21.4319],[-65.3877,-21.5164],[-65.3534,-21.5008],[-65.3201,-21.5173],[-65.3117,-21.4858],[-65.2471,-21.4808],[-65.2117,-21.2915],[-65.2242,-21.2564],[-65.211,-21.2555],[-65.2118,-21.192],[-65.1884,-21.1604],[-65.2028,-21.0843],[-65.1923,-20.9842],[-65.1631,-20.9452],[-65.1518,-20.9637],[-65.1091,-20.9698],[-65.1132,-20.9818],[-65.07,-20.9589],[-65.051,-21.0087],[-65.0223,-21.0118],[-65.0271,-21.0276],[-64.9878,-21.0081],[-64.9504,-21.0417],[-64.9342,-21.0267],[-64.9186,-21.0592],[-64.8896,-21.0568],[-64.8954,-21.0733],[-64.8517,-21.09],[-64.8536,-21.1064],[-64.7978,-21.0947],[-64.761,-20.9802],[-64.6989,-20.931],[-64.6051,-20.9819],[-64.5272,-21.0976],[-64.4571,-21.0831],[-64.3643,-21.1428],[-64.2903,-21.1325],[-64.2302,-21.1521],[-64.201,-21.1385],[-64.1891,-21.0912],[-64.2001,-21.0368],[-64.1797,-21.0287],[-64.1957,-21.0053],[-64.1808,-20.9614],[-64.1976,-20.9574],[-64.1732,-20.8859],[-64.1453,-20.9232],[-64.0776,-20.9234],[-64.0608,-20.9542],[-64.0256,-20.9625],[-64.0064,-20.9467],[-63.9987,-21.0064],[-62.2613,-20.9925],[-62.2666,-20.5627],[-62.1794,-20.4426],[-63.3576,-20.4601],[-63.3571,-20.3925],[-63.3997,-20.3986],[-63.4152,-20.4382],[-63.4641,-20.4535],[-63.5134,-20.4627],[-63.5841,-20.4425],[-63.6553,-20.4726],[-63.6842,-20.4651],[-63.7076,-20.2543],[-63.6808,-20.2084],[-63.6981,-20.187],[-63.6923,-20.1487],[-63.7258,-20.1157],[-63.7323,-20.0272],[-63.709,-19.8611],[-63.7203,-19.7291],[-63.6922,-19.5944],[-63.7136,-19.5503],[-63.7032,-19.4842],[-63.729,-19.3492],[-63.7145,-19.2721],[-63.7456,-19.175],[-63.7052,-19.0431],[-63.7687,-19.0316],[-63.8095,-19.0551],[-63.9017,-19.0317],[-63.9195,-19.1833],[-64.0115,-19.1789],[-64.0422,-19.1283],[-64.0319,-19.1128],[-64.0685,-19.0053],[-64.1033,-18.9734],[-64.1846,-18.9612],[-64.2132,-18.8824],[-64.2901,-18.8231],[-64.2868,-18.7857],[-64.3176,-18.7567],[-64.3109,-18.6705],[-64.3456,-18.6628],[-64.3613,-18.615],[-64.4296,-18.6296],[-64.4697,-18.6685],[-64.5579,-18.6745],[-64.6216,-18.6328],[-64.6967,-18.5296],[-64.7844,-18.526],[-64.7988,-18.494],[-64.8396,-18.4837],[-64.9323,-18.5179],[-64.9592,-18.5534],[-65.0006,-18.559],[-65.0477,-18.6134],[-65.0316,-18.6689],[-65.0435,-18.6818],[-65.1466,-18.6064],[-65.2027,-18.624],[-65.2436,-18.6107],[-65.2458,-18.506],[-65.2883,-18.5011],[-65.2974,-18.4557],[-65.3125,-18.4426],[-65.3316,-18.4579],[-65.3457,-18.4179]]]},"properties":{"iso3":"BOL","shapeId":"26024454B30905576957948","regionId":"BOL.1_1","name":"Chuquisaca"}},{"type":"Feature","geometry":{"type":"Polygon","coordinates":[[[-66.7954,-15.7851],[-66.8368,-15.7967],[-66.8605,-15.7831],[-66.9074,-15.8442],[-66.8688,-15.9354],[-66.9208,-15.9983],[-66.9205,-16.0914],[-66.8443,-16.195],[-66.8499,-16.2516],[-66.8004,-16.2956],[-66.7888,-16.4845],[-66.7321,-16.5901],[-66.7587,-16.6938],[-66.7412,-16.7552],[-66.833,-16.8397],[-66.924,-16.8358],[-67.0057,-16.9549],[-66.9807,-17.0468],[-66.8839,-17.1566],[-66.8875,-17.29],[-66.8426,-17.3175],[-66.8595,-17.3412],[-66.8464,-17.3843],[-66.8769,-17.4168],[-66.8357,-17.4511],[-66.8157,-17.5116],[-66.8777,-17.5415],[-66.8999,-17.5905],[-66.8728,-17.6173],[-66.892,-17.6661],[-66.7957,-17.7818],[-66.772,-17.7818],[-66.7136,-17.8846],[-66.7379,-17.9397],[-66.8414,-18.0517],[-66.8157,-18.1113],[-66.761,-18.1359],[-66.7247,-18.1159],[-66.6369,-18.1189],[-66.6011,-18.0823],[-66.5234,-18.0895],[-66.5335,-18.0584],[-66.4449,-17.9786],[-66.3202,-17.9495],[-66.2809,-17.966],[-66.2517,-17.9343],[-66.2472,-17.9532],[-66.226,-17.9526],[-66.2099,-17.9319],[-66.1654,-17.9256],[-66.092,-17.8082],[-66.0439,-17.8388],[-65.9886,-17.9352],[-65.9431,-17.9562],[-65.934,-17.9921],[-65.8451,-17.9742],[-65.638,-18.1374],[-65.5648,-18.2342],[-65.5023,-18.2573],[-65.4555,-18.3497],[-65.3331,-18.4232],[-65.3316,-18.4579],[-65.3098,-18.443],[-65.2784,-18.509],[-65.2458,-18.506],[-65.2436,-18.6107],[-65.2027,-18.624],[-65.1466,-18.6064],[-65.0435,-18.6818],[-65.0316,-18.6689],[-65.0477,-18.6134],[-65.0006,-18.559],[-64.9592,-18.5534],[-64.9323,-18.5179],[-64.8396,-18.4837],[-64.7988,-18.494],[-64.7844,-18.526],[-64.6967,-18.5296],[-64.6216,-18.6328],[-64.5579,-18.6745],[-64.4697,-18.6685],[-64.4296,-18.6296],[-64.3613,-18.615],[-64.3456,-18.6628],[-64.3292,-18.6655],[-64.2809,-18.5999],[-64.2986,-18.5585],[-64.2884,-18.5378],[-64.3056,-18.4957],[-64.4026,-18.4507],[-64.4276,-18.4181],[-64.4297,-18.3764],[-64.4484,-18.3735],[-64.4337,-18.3363],[-64.4854,-18.2936],[-64.4817,-18.2609],[-64.5222,-18.1604],[-64.6157,-18.0934],[-64.6919,-18.0988],[-64.7166,-18.0428],[-64.7369,-18.0393],[-64.8106,-17.9447],[-64.7866,-17.9333],[-64.8064,-17.8931],[-64.7562,-17.7501],[-64.7019,-17.7161],[-64.6398,-17.7082],[-64.6409,-17.6758],[-64.5921,-17.619],[-64.6025,-17.5574],[-64.5502,-17.5658],[-64.5198,-17.534],[-64.4894,-17.56],[-64.4323,-17.56],[-64.4006,-17.4939],[-64.4058,-17.4533],[-64.3726,-17.4532],[-64.3491,-17.4235],[-64.3062,-17.4374],[-64.255,-17.4265],[-64.2341,-17.3737],[-64.2473,-17.302],[-64.2787,-17.2908],[-64.2838,-17.2647],[-64.3105,-17.2587],[-64.3045,-17.2779],[-64.3402,-17.2638],[-64.3211,-17.2408],[-64.3362,-17.208],[-64.3712,-17.2299],[-64.3749,-17.1998],[-64.3573,-17.1871],[-64.3984,-17.1765],[-64.3877,-17.1559],[-64.4103,-17.1563],[-64.3946,-17.1407],[-64.4241,-17.1414],[-64.4284,-17.1594],[-64.4354,-17.13],[-64.487,-17.1354],[-64.477,-17.1181],[-64.5003,-17.0909],[-64.5497,-17.0873],[-64.5188,-17.0568],[-64.5775,-17.0602],[-64.5647,-17.0357],[-64.5927,-17.0538],[-64.6116,-17.0378],[-64.5872,-17.0363],[-64.6176,-17.0353],[-64.6195,-17.0145],[-64.6393,-17.0372],[-64.629,-17.0049],[-64.6875,-17.0192],[-64.682,-16.9855],[-64.7074,-17.0016],[-64.6745,-16.9707],[-64.7039,-16.9525],[-64.712,-16.9714],[-64.7102,-16.9438],[-64.7467,-16.9423],[-64.7203,-16.9264],[-64.75,-16.9174],[-64.7322,-16.8881],[-64.7608,-16.8907],[-64.737,-16.8681],[-64.7704,-16.8731],[-64.7396,-16.8551],[-64.7693,-16.8615],[-64.7894,-16.8447],[-64.7789,-16.805],[-64.8166,-16.7715],[-64.7964,-16.7644],[-64.8357,-16.7731],[-64.8318,-16.7251],[-64.7836,-16.7445],[-64.7825,-16.7215],[-64.8101,-16.7],[-64.7798,-16.6561],[-64.7725,-16.6849],[-64.758,-16.6789],[-64.7575,-16.6526],[-64.7905,-16.6312],[-64.7486,-16.5901],[-64.7508,-16.5126],[-64.7199,-16.5095],[-64.7264,-16.5293],[-64.7112,-16.5363],[-64.7112,-16.4958],[-64.6879,-16.485],[-64.7111,-16.4747],[-64.6733,-16.474],[-64.6876,-16.4466],[-64.6767,-16.4316],[-64.6989,-16.4176],[-64.6563,-16.3748],[-64.6927,-16.3788],[-64.6867,-16.3597],[-64.7088,-16.3464],[-64.6735,-16.3651],[-64.644,-16.3208],[-64.6803,-16.3213],[-64.6467,-16.2962],[-64.6928,-16.2931],[-64.6648,-16.2568],[-64.67,-16.2084],[-64.7082,-16.1859],[-64.6946,-16.1691],[-64.6817,-16.1814],[-64.6845,-16.1245],[-64.6634,-16.0971],[-64.6888,-16.1164],[-64.6919,-16.0901],[-64.7272,-16.0812],[-64.7116,-16.066],[-64.6901,-16.0808],[-64.6932,-16.0542],[-64.716,-16.0588],[-64.7025,-16.0287],[-64.7233,-16.0172],[-64.7327,-16.0345],[-64.7232,-16.0095],[-64.7015,-16.0116],[-64.7341,-16.0027],[-64.7095,-15.9675],[-64.74,-15.9816],[-64.7268,-15.9512],[-64.7562,-15.9502],[-64.7297,-15.9177],[-64.7459,-15.8912],[-64.723,-15.8968],[-64.7512,-15.8666],[-64.7297,-15.802],[-64.9583,-15.801],[-65.0412,-15.858],[-65.0807,-15.931],[-65.1162,-16.188],[-65.2399,-16.3688],[-65.5947,-16.4602],[-65.8617,-16.4917],[-65.9712,-16.467],[-66.1697,-16.3628],[-66.3393,-16.1172],[-66.5063,-15.9852],[-66.6156,-15.9517],[-66.6388,-15.916],[-66.6762,-15.911],[-66.8075,-15.828],[-66.7954,-15.7851]]]},"properties":{"iso3":"BOL","shapeId":"26024454B59884138823050","regionId":"BOL.2_1","name":"Cochabamba"}},{"type":"Feature","geometry":{"type":"MultiPolygon","coordinates":[[[[-68.7719,-16.3694],[-68.7741,-16.3704],[-68.7737,-16.3726],[-68.7705,-16.3725],[-68.7669,-16.3743],[-68.7671,-16.3715],[-68.7719,-16.3694]]],[[[-68.6998,-16.3578],[-68.7002,-16.3528],[-68.7049,-16.3561],[-68.7038,-16.3592],[-68.6998,-16.3578]]],[[[-68.6876,-16.3512],[-68.6872,-16.3468],[-68.6926,-16.3467],[-68.694,-16.3492],[-68.6933,-16.352],[-68.6922,-16.3513],[-68.6881,-16.3531],[-68.6876,-16.3512]]],[[[-68.7392,-16.3449],[-68.7439,-16.3421],[-68.7448,-16.3488],[-68.7423,-16.3523],[-68.7363,-16.3561],[-68.7343,-16.363],[-68.73,-16.3654],[-68.7345,-16.3568],[-68.7321,-16.3552],[-68.7321,-16.3533],[-68.7359,-16.3495],[-68.736,-16.3465],[-68.7392,-16.3449]]],[[[-68.7535,-16.3301],[-68.7523,-16.3295],[-68.7529,-16.3277],[-68.7587,-16.3238],[-68.7586,-16.3296],[-68.7535,-16.3301]]],[[[-68.7696,-16.293],[-68.7765,-16.3088],[-68.7467,-16.3088],[-68.7696,-16.293]]],[[[-68.8238,-16.2759],[-68.8298,-16.2762],[-68.8261,-16.2804],[-68.8252,-16.2846],[-68.8204,-16.2872],[-68.8242,-16.2919],[-68.8235,-16.2957],[-68.8168,-16.3022],[-68.8145,-16.3027],[-68.8099,-16.2984],[-68.8046,-16.2966],[-68.8066,-16.301],[-68.8055,-16.3027],[-68.804,-16.3024],[-68.8024,-16.2998],[-68.804,-16.2961],[-68.8015,-16.2916],[-68.8041,-16.2859],[-68.812,-16.2813],[-68.8178,-16.2827],[-68.8178,-16.2806],[-68.8224,-16.2782],[-68.8238,-16.2759]]],[[[-68.8472,-16.2702],[-68.8512,-16.2743],[-68.8505,-16.2798],[-68.8492,-16.2781],[-68.8507,-16.275],[-68.8472,-16.2702]]],[[[-68.8675,-16.2684],[-68.869,-16.2671],[-68.8711,-16.2688],[-68.8724,-16.2713],[-68.8711,-16.2747],[-68.8669,-16.2728],[-68.8661,-16.2703],[-68.8675,-16.2684]]],[[[-68.6032,-16.2247],[-68.6051,-16.223],[-68.6052,-16.2247],[-68.6003,-16.2292],[-68.5987,-16.2427],[-68.5961,-16.2464],[-68.5927,-16.2478],[-68.5884,-16.2391],[-68.5907,-16.2375],[-68.5928,-16.2299],[-68.5973,-16.2275],[-68.5997,-16.2284],[-68.6032,-16.2247]]],[[[-68.8654,-16.0733],[-68.8622,-16.0714],[-68.862,-16.069],[-68.8651,-16.0694],[-68.8665,-16.0723],[-68.8654,-16.0733]]],[[[-69.1315,-16.0555],[-69.1118,-16.0947],[-69.1356,-16.0775],[-69.0929,-16.1023],[-69.0749,-16.1471],[-69.1235,-16.1855],[-69.1256,-16.2005],[-69.0932,-16.2148],[-69.1024,-16.2256],[-69.0555,-16.1982],[-69.0171,-16.2231],[-68.985,-16.1914],[-68.9389,-16.1945],[-68.8889,-16.234],[-68.8919,-16.2601],[-68.8365,-16.2726],[-68.8306,-16.237],[-68.8576,-16.2159],[-68.9509,-16.1799],[-69.0122,-16.1127],[-69.1315,-16.0555]]],[[[-69.0703,-16.0379],[-69.0818,-16.0315],[-69.0613,-16.048],[-69.0703,-16.0379]]],[[[-69.2244,-15.9939],[-69.2161,-15.9985],[-69.2143,-15.9978],[-69.2244,-15.9939]]],[[[-69.1777,-15.9852],[-69.1786,-15.9859],[-69.1761,-15.9874],[-69.1777,-15.9852]]],[[[-69.1928,-15.9816],[-69.2143,-15.9882],[-69.1867,-16.0328],[-69.1627,-16.0564],[-69.1727,-16.0291],[-69.141,-16.0526],[-69.1442,-16.0236],[-69.1928,-15.9816]]],[[[-69.1903,-15.977],[-69.1922,-15.9758],[-69.1906,-15.9786],[-69.1903,-15.977]]],[[[-69.2075,-15.9686],[-69.2075,-15.9711],[-69.2063,-15.9699],[-69.2075,-15.9686]]],[[[-69.2155,-15.9583],[-69.2177,-15.9547],[-69.2181,-15.9565],[-69.2155,-15.9583]]],[[[-69.3368,-15.6783],[-69.34,-15.6748],[-69.3407,-15.6713],[-69.3407,-15.6749],[-69.3388,-15.6776],[-69.3302,-15.6856],[-69.3243,-15.6891],[-69.3232,-15.6927],[-69.3202,-15.6944],[-69.3293,-15.6811],[-69.3368,-15.6783]]],[[[-66.9673,-12.4903],[-67.9963,-11.8497],[-67.9776,-11.9359],[-68.0983,-12.0348],[-68.2366,-12.0128],[-68.2342,-12.1693],[-68.2929,-12.2246],[-68.3582,-12.2225],[-68.4041,-12.2542],[-68.4046,-12.3636],[-68.4502,-12.4109],[-68.472,-12.4232],[-68.5196,-12.3952],[-68.5882,-12.3969],[-68.5586,-12.4543],[-68.6183,-12.4954],[-68.6522,-12.4977],[-68.6568,-12.5363],[-68.683,-12.5234],[-68.6742,-12.5523],[-68.7417,-12.6341],[-68.7345,-12.6681],[-68.7124,-12.6806],[-68.7433,-12.7087],[-68.7286,-12.7135],[-68.8047,-12.7558],[-68.8189,-12.7919],[-68.8077,-12.8087],[-68.8398,-12.8231],[-68.8344,-12.8582],[-68.8712,-12.8698],[-68.8757,-12.9183],[-68.8601,-12.9258],[-68.8751,-12.9382],[-68.8591,-12.9477],[-68.8839,-12.956],[-68.8614,-12.9804],[-68.879,-12.9868],[-68.8759,-13.0146],[-68.8535,-13.0155],[-68.8677,-13.0316],[-68.8486,-13.0472],[-68.8636,-13.0475],[-68.8786,-13.137],[-68.8578,-13.15],[-68.8717,-13.1672],[-68.8601,-13.1843],[-68.8733,-13.1812],[-68.8449,-13.2469],[-68.8609,-13.2574],[-68.8622,-13.3199],[-68.8803,-13.331],[-68.8677,-13.358],[-68.8888,-13.3713],[-68.9162,-13.5206],[-68.9527,-13.5355],[-68.9531,-13.6049],[-69.0044,-13.6225],[-68.9941,-13.6521],[-69.0451,-13.6433],[-69.0679,-13.6857],[-69.0267,-13.7385],[-68.9756,-13.7612],[-68.995,-13.8448],[-68.9835,-13.9298],[-68.9634,-13.9495],[-68.9795,-13.9758],[-68.8825,-14.0594],[-68.872,-14.1105],[-68.8342,-14.1441],[-68.8565,-14.164],[-68.8277,-14.2298],[-68.9852,-14.2374],[-69.0019,-14.3847],[-69.0617,-14.4616],[-69.1493,-14.5127],[-69.1492,-14.5763],[-69.2255,-14.5809],[-69.2265,-14.6276],[-69.258,-14.6855],[-69.2305,-14.7487],[-69.3163,-14.7748],[-69.3575,-14.8128],[-69.3526,-14.9749],[-69.2771,-15.1115],[-69.2434,-15.1121],[-69.1901,-15.1588],[-69.1199,-15.259],[-69.176,-15.2615],[-69.1959,-15.3141],[-69.2154,-15.3177],[-69.2475,-15.371],[-69.2406,-15.4606],[-69.2534,-15.4696],[-69.2905,-15.437],[-69.3309,-15.537],[-69.2823,-15.5616],[-69.2888,-15.6015],[-69.3046,-15.6062],[-69.2591,-15.6405],[-69.2614,-15.6704],[-69.2113,-15.6773],[-69.1879,-15.6563],[-69.1461,-15.6888],[-69.1897,-15.6966],[-69.1815,-15.71],[-69.1039,-15.7171],[-68.9822,-15.8881],[-68.9385,-15.8994],[-68.8877,-15.9428],[-68.8494,-15.9226],[-68.7838,-15.9558],[-68.7544,-15.9321],[-68.7216,-15.9437],[-68.73,-15.9693],[-68.7152,-15.9732],[-68.7527,-15.9792],[-68.74,-16.0174],[-68.7683,-16.03],[-68.8183,-16.0107],[-68.8582,-16.0757],[-68.8737,-16.075],[-68.8649,-16.047],[-68.9103,-16.0722],[-68.863,-16.1712],[-68.8436,-16.1663],[-68.8493,-16.2158],[-68.8264,-16.2235],[-68.8045,-16.1803],[-68.673,-16.2187],[-68.6037,-16.1998],[-68.5671,-16.2676],[-68.6015,-16.2825],[-68.5852,-16.3215],[-68.6071,-16.3358],[-68.6938,-16.3062],[-68.6916,-16.3264],[-68.7313,-16.3284],[-68.717,-16.3502],[-68.695,-16.3312],[-68.676,-16.3507],[-68.7279,-16.4216],[-68.9466,-16.4374],[-68.957,-16.4716],[-68.8819,-16.468],[-68.826,-16.4881],[-68.84,-16.5151],[-68.8221,-16.5284],[-68.8499,-16.5339],[-68.8289,-16.5573],[-68.8447,-16.5855],[-68.9203,-16.5975],[-69.0294,-16.5532],[-69.0339,-16.606],[-68.9973,-16.6419],[-69.0096,-16.6671],[-69.1698,-16.7273],[-69.1877,-16.7966],[-69.3044,-16.9166],[-69.34,-16.9875],[-69.3686,-16.9889],[-69.3946,-17.0222],[-69.374,-17.0724],[-69.4325,-17.1103],[-69.4511,-17.094],[-69.558,-17.1656],[-69.6452,-17.2814],[-69.5759,-17.2914],[-69.4692,-17.3735],[-69.4679,-17.6049],[-69.3349,-17.7344],[-69.2993,-17.8553],[-69.3124,-17.9136],[-69.2813,-17.9692],[-69.2565,-17.954],[-69.2472,-17.9821],[-69.0795,-18.0469],[-68.9104,-17.9496],[-68.7846,-17.93],[-68.74,-17.8869],[-68.6958,-17.8891],[-68.5866,-17.8199],[-68.5365,-17.8097],[-68.5329,-17.7028],[-68.5047,-17.706],[-68.4632,-17.6683],[-68.436,-17.6676],[-68.4149,-17.6257],[-68.3606,-17.5908],[-68.3327,-17.6084],[-68.3097,-17.5939],[-68.2705,-17.6427],[-68.2049,-17.6711],[-68.1905,-17.6546],[-68.1435,-17.6687],[-68.0853,-17.7152],[-68.0003,-17.7411],[-67.969,-17.7327],[-67.9576,-17.7644],[-67.8605,-17.8143],[-67.8077,-17.8732],[-67.7534,-17.8719],[-67.7076,-17.848],[-67.677,-17.7639],[-67.5858,-17.7682],[-67.5863,-17.7119],[-67.5161,-17.6717],[-67.5087,-17.6426],[-67.5492,-17.5826],[-67.5054,-17.5182],[-67.4686,-17.5058],[-67.4032,-17.5744],[-67.3797,-17.5393],[-67.3745,-17.4618],[-67.3401,-17.449],[-67.3134,-17.3838],[-67.2535,-17.324],[-67.194,-17.3486],[-67.1839,-17.4228],[-67.1245,-17.4654],[-67.0674,-17.4701],[-67.0261,-17.5119],[-67.0213,-17.539],[-67.051,-17.5877],[-67.0068,-17.6319],[-66.8916,-17.5855],[-66.8777,-17.5415],[-66.8175,-17.5166],[-66.8357,-17.4511],[-66.8769,-17.4168],[-66.8464,-17.3843],[-66.8595,-17.3412],[-66.8426,-17.3175],[-66.8875,-17.29],[-66.8839,-17.1566],[-66.9807,-17.0468],[-67.0057,-16.9549],[-66.924,-16.8358],[-66.833,-16.8397],[-66.7412,-16.7552],[-66.7587,-16.6938],[-66.7321,-16.5901],[-66.7888,-16.4845],[-66.8004,-16.2956],[-66.8499,-16.2516],[-66.8443,-16.195],[-66.9205,-16.0914],[-66.9208,-15.9983],[-66.8688,-15.9354],[-66.9074,-15.8442],[-66.8605,-15.7831],[-66.8368,-15.7967],[-66.7954,-15.7851],[-66.9069,-15.6402],[-66.8996,-15.6041],[-66.9623,-15.5068],[-67.1183,-15.3933],[-67.0814,-15.3145],[-67.1357,-15.2747],[-67.1369,-15.2213],[-67.1708,-15.1645],[-67.1965,-15.1546],[-67.1909,-15.1383],[-67.2132,-15.1126],[-67.2385,-15.1146],[-67.2379,-15.0586],[-67.2903,-15.0271],[-67.335,-15.0448],[-67.356,-15.0209],[-67.3623,-15.0331],[-67.3861,-15.0198],[-67.3938,-14.9884],[-67.4164,-14.9892],[-67.4066,-14.9718],[-67.4286,-14.9237],[-67.4155,-14.9074],[-67.4315,-14.894],[-67.4003,-14.8657],[-67.4082,-14.8278],[-67.3866,-14.8179],[-67.4242,-14.7623],[-67.4164,-14.7448],[-67.4757,-14.6866],[-67.4972,-14.6863],[-67.5104,-14.6449],[-67.5288,-14.6517],[-67.5376,-14.5931],[-67.4994,-14.5609],[-67.4816,-14.5036],[-67.5276,-14.4671],[-67.5329,-14.4171],[-67.5572,-14.4107],[-67.5417,-14.3861],[-67.5581,-14.3695],[-67.5362,-14.3537],[-67.5622,-14.3439],[-67.517,-14.2941],[-67.4726,-14.2882],[-67.5186,-14.2562],[-67.5091,-14.2273],[-67.5343,-14.1921],[-67.5048,-14.1124],[-67.5506,-14.0935],[-67.4942,-14.0679],[-67.5484,-14.0316],[-67.527,-14.0172],[-67.5326,-13.9599],[-67.4847,-13.9151],[-67.5118,-13.9062],[-67.4595,-13.846],[-67.4864,-13.8536],[-67.5159,-13.8327],[-67.4818,-13.7945],[-67.5252,-13.7832],[-67.4504,-13.7384],[-67.4588,-13.7127],[-67.4266,-13.7345],[-67.4171,-13.7043],[-67.4348,-13.6576],[-67.3635,-13.6382],[-67.3882,-13.6035],[-67.3633,-13.609],[-67.3534,-13.5696],[-67.3778,-13.5681],[-67.3819,-13.5386],[-67.4044,-13.5295],[-67.3478,-13.4715],[-67.3875,-13.4781],[-67.3889,-13.4562],[-67.3552,-13.4462],[-67.3959,-13.4377],[-67.3772,-13.42],[-67.3902,-13.3967],[-67.3287,-13.3658],[-67.357,-13.3479],[-67.3001,-13.3051],[-67.2941,-13.2725],[-67.2861,-13.3041],[-67.2664,-13.2928],[-67.267,-13.2617],[-67.2954,-13.2532],[-67.2757,-13.2417],[-67.2512,-13.2583],[-67.2667,-13.2096],[-67.1979,-13.1953],[-67.2207,-13.1662],[-67.1603,-13.1664],[-67.1874,-13.1258],[-67.1344,-13.0922],[-67.1481,-13.0529],[-67.1148,-13.0479],[-67.1064,-13.0685],[-67.1113,-13.0312],[-67.096,-13.0255],[-67.0934,-13.0457],[-67.0654,-13.0287],[-67.0467,-13.0513],[-67.0434,-13.0131],[-67.0702,-12.9944],[-67.0384,-12.9741],[-67.0366,-12.9319],[-66.9981,-12.9166],[-67.0336,-12.9089],[-67.0348,-12.8924],[-66.9951,-12.8885],[-66.9902,-12.8512],[-66.9464,-12.8388],[-66.9439,-12.8234],[-66.9831,-12.8097],[-66.9834,-12.7831],[-66.954,-12.8022],[-66.9478,-12.7903],[-66.9831,-12.7333],[-66.9533,-12.7281],[-66.9713,-12.6903],[-66.9394,-12.685],[-66.9753,-12.6569],[-66.9511,-12.6236],[-66.9265,-12.6256],[-66.9769,-12.5927],[-66.9695,-12.5678],[-66.9174,-12.5338],[-66.9673,-12.4903]]]]},"properties":{"iso3":"BOL","shapeId":"26024454B78392246351569","regionId":"BOL.4_1","name":"La Paz"}},{"type":"Feature","geometry":{"type":"MultiPolygon","coordinates":[[[[-67.5293,-19.8601],[-67.5306,-19.8601],[-67.5295,-19.8602],[-67.5318,-19.8651],[-67.531,-19.8667],[-67.5292,-19.8622],[-67.5253,-19.8614],[-67.5293,-19.8601]]],[[[-68.2908,-19.4235],[-68.3077,-19.4288],[-68.279,-19.4316],[-68.2908,-19.4235]]],[[[-68.3115,-19.425],[-68.3137,-19.422],[-68.3219,-19.4251],[-68.3282,-19.4229],[-68.3392,-19.4238],[-68.3351,-19.4256],[-68.3316,-19.4305],[-68.3249,-19.4318],[-68.323,-19.4344],[-68.3202,-19.4348],[-68.3169,-19.4325],[-68.3122,-19.4337],[-68.3095,-19.4324],[-68.3115,-19.4303],[-68.3105,-19.4284],[-68.3115,-19.425]]],[[[-68.408,-19.423],[-68.4057,-19.4206],[-68.408,-19.4185],[-68.4126,-19.4219],[-68.4124,-19.431],[-68.416,-19.4323],[-68.408,-19.4397],[-68.4069,-19.4307],[-68.4099,-19.4272],[-68.408,-19.423]]],[[[-68.4023,-19.4188],[-68.4032,-19.4153],[-68.4055,-19.4155],[-68.4059,-19.4169],[-68.4023,-19.4188]]],[[[-68.3384,-19.411],[-68.3419,-19.4012],[-68.3431,-19.4036],[-68.3419,-19.4087],[-68.3403,-19.4109],[-68.3384,-19.411]]],[[[-68.4491,-19.3664],[-68.4523,-19.3674],[-68.4495,-19.3701],[-68.4491,-19.3664]]],[[[-68.4056,-19.3052],[-68.4126,-19.3087],[-68.4123,-19.3129],[-68.4088,-19.3171],[-68.4065,-19.3149],[-68.4036,-19.3164],[-68.4046,-19.3192],[-68.402,-19.3203],[-68.4021,-19.319],[-68.4038,-19.3195],[-68.4024,-19.3159],[-68.4069,-19.3103],[-68.4062,-19.309],[-68.4049,-19.311],[-68.4033,-19.3087],[-68.4027,-19.311],[-68.4022,-19.3059],[-68.4029,-19.3082],[-68.4049,-19.3085],[-68.4056,-19.3052]]],[[[-68.2148,-19.2964],[-68.2306,-19.2971],[-68.2023,-19.3168],[-68.2148,-19.2964]]],[[[-68.2281,-19.2861],[-68.229,-19.2848],[-68.2331,-19.2863],[-68.2348,-19.2889],[-68.2275,-19.2883],[-68.2281,-19.2861]]],[[[-68.2296,-19.2668],[-68.2304,-19.2658],[-68.2327,-19.2671],[-68.2309,-19.2716],[-68.236,-19.2753],[-68.2403,-19.2725],[-68.2432,-19.2729],[-68.2418,-19.2786],[-68.2341,-19.2799],[-68.2229,-19.2747],[-68.2267,-19.2687],[-68.2296,-19.2668]]],[[[-68.3567,-19.2726],[-68.3629,-19.2462],[-68.4029,-19.3031],[-68.3672,-19.2904],[-68.3632,-19.4045],[-68.3466,-19.3924],[-68.3282,-19.4177],[-68.3266,-19.3964],[-68.2854,-19.4015],[-68.2465,-19.3647],[-68.2417,-19.315],[-68.2652,-19.2985],[-68.2667,-19.2548],[-68.3567,-19.2726]]],[[[-66.8999,-17.5905],[-67.0104,-17.6294],[-67.051,-17.5877],[-67.0213,-17.539],[-67.0261,-17.5119],[-67.0674,-17.4701],[-67.1245,-17.4654],[-67.1839,-17.4228],[-67.194,-17.3486],[-67.2535,-17.324],[-67.3134,-17.3838],[-67.3401,-17.449],[-67.3745,-17.4618],[-67.3797,-17.5393],[-67.4032,-17.5744],[-67.4686,-17.5058],[-67.5054,-17.5182],[-67.5492,-17.5826],[-67.5087,-17.6426],[-67.5161,-17.6717],[-67.5863,-17.7119],[-67.5858,-17.7682],[-67.677,-17.7639],[-67.7076,-17.848],[-67.7534,-17.8719],[-67.8077,-17.8732],[-67.8605,-17.8143],[-67.9576,-17.7644],[-67.969,-17.7327],[-68.0003,-17.7411],[-68.0853,-17.7152],[-68.1435,-17.6687],[-68.1905,-17.6546],[-68.2049,-17.6711],[-68.2705,-17.6427],[-68.3097,-17.5939],[-68.3327,-17.6084],[-68.3606,-17.5908],[-68.4149,-17.6257],[-68.436,-17.6676],[-68.4632,-17.6683],[-68.5047,-17.706],[-68.5329,-17.7028],[-68.5365,-17.8097],[-68.5866,-17.8199],[-68.6958,-17.8891],[-68.74,-17.8869],[-68.7846,-17.93],[-68.9104,-17.9496],[-69.0725,-18.0382],[-69.0713,-18.0749],[-69.1423,-18.1632],[-69.0653,-18.2399],[-69.0749,-18.2917],[-69.038,-18.3227],[-69.055,-18.3756],[-69.0022,-18.5884],[-69.037,-18.6136],[-68.9854,-18.6774],[-68.9715,-18.7324],[-68.987,-18.7501],[-68.9262,-18.8431],[-68.9124,-18.8924],[-68.9502,-18.9368],[-68.8896,-19.0434],[-68.8059,-19.0834],[-68.6197,-19.2765],[-68.5428,-19.2967],[-68.4719,-19.3521],[-68.4729,-19.3168],[-68.4538,-19.3122],[-68.4699,-19.2959],[-68.4313,-19.2609],[-68.374,-19.243],[-68.3775,-19.2135],[-68.3551,-19.1977],[-68.2435,-19.1935],[-68.1257,-19.1134],[-68.0911,-19.1495],[-68.059,-19.1242],[-68.0511,-19.0853],[-68.0188,-19.121],[-68.0422,-19.1418],[-67.994,-19.19],[-68.008,-19.2955],[-67.9498,-19.2964],[-67.9562,-19.3089],[-67.9148,-19.3417],[-67.8483,-19.3587],[-67.8002,-19.3837],[-67.8212,-19.401],[-67.7732,-19.4096],[-67.8039,-19.4446],[-67.7946,-19.4788],[-67.8282,-19.5289],[-67.9042,-19.5426],[-68.0057,-19.5225],[-68.0568,-19.5402],[-68.0881,-19.5764],[-68.0319,-19.6223],[-67.9595,-19.7294],[-67.8764,-19.7619],[-67.8217,-19.8096],[-67.7586,-19.8059],[-67.7339,-19.8316],[-67.7145,-19.812],[-67.5713,-19.8867],[-67.5195,-19.8335],[-67.5437,-19.8184],[-67.5378,-19.782],[-67.556,-19.7854],[-67.5677,-19.7643],[-67.5623,-19.7152],[-67.3806,-19.713],[-67.291,-19.7652],[-67.2739,-19.7489],[-67.2566,-19.6993],[-67.2064,-19.6703],[-67.2029,-19.6153],[-67.2318,-19.5836],[-67.2183,-19.5593],[-67.2372,-19.5045],[-67.2258,-19.4839],[-67.2563,-19.4638],[-67.2677,-19.4286],[-67.1727,-19.4435],[-67.1089,-19.4113],[-67.0808,-19.356],[-67.0437,-19.381],[-66.9522,-19.3696],[-66.8566,-19.4474],[-66.8231,-19.455],[-66.7546,-19.4274],[-66.6998,-19.4484],[-66.5906,-19.4262],[-66.5021,-19.3599],[-66.429,-19.4063],[-66.3903,-19.4576],[-66.3569,-19.4537],[-66.27,-19.2986],[-66.2291,-19.2862],[-66.1889,-19.2421],[-66.1301,-19.2456],[-66.0861,-19.0998],[-66.1762,-19.0207],[-66.1839,-18.9822],[-66.2817,-19.0148],[-66.3017,-18.9906],[-66.3018,-18.9333],[-66.3923,-18.717],[-66.4605,-18.7071],[-66.5025,-18.7881],[-66.5321,-18.7737],[-66.537,-18.721],[-66.5762,-18.7144],[-66.6019,-18.6942],[-66.6069,-18.6506],[-66.6358,-18.6459],[-66.7293,-18.3404],[-66.6614,-18.2956],[-66.5541,-18.2767],[-66.5282,-18.2493],[-66.6757,-18.2326],[-66.7217,-18.2451],[-66.7577,-18.2274],[-66.7597,-18.1699],[-66.8157,-18.1113],[-66.8414,-18.0517],[-66.7379,-17.9397],[-66.7136,-17.8846],[-66.772,-17.7818],[-66.7957,-17.7818],[-66.8697,-17.7017],[-66.892,-17.6661],[-66.8728,-17.6173],[-66.8999,-17.5905]],[[-67.1041,-18.0261],[-67.0468,-18.0779],[-67.0957,-18.1873],[-67.1318,-18.1523],[-67.1362,-18.0743],[-67.1707,-18.0602],[-67.1109,-18.0439],[-67.1041,-18.0261]],[[-67.0637,-18.4484],[-67.049,-18.464],[-67.0912,-18.5648],[-67.1037,-18.6749],[-67.06,-18.6662],[-67.0044,-18.7136],[-66.9354,-18.9059],[-66.861,-18.9824],[-66.8641,-19.0429],[-66.9045,-19.1225],[-66.9232,-19.1476],[-66.984,-19.1648],[-67.0086,-19.2002],[-67.0511,-19.1405],[-67.0571,-19.0463],[-67.0812,-19.0153],[-67.0688,-18.9549],[-67.0877,-18.9238],[-67.0626,-18.9038],[-67.2076,-18.8031],[-67.1205,-18.751],[-67.1717,-18.6833],[-67.1994,-18.6635],[-67.2298,-18.6706],[-67.2664,-18.6329],[-67.2434,-18.5784],[-67.1485,-18.5311],[-67.1135,-18.4556],[-67.0637,-18.4484]]]]},"properties":{"iso3":"BOL","shapeId":"26024454B78289653685394","regionId":"BOL.5_1","name":"Oruro"}},{"type":"Feature","geometry":{"type":"Polygon","coordinates":[[[-65.391,-10.3812],[-65.3267,-10.3048],[-65.2918,-10.2237],[-65.3045,-10.0986],[-65.3304,-10.0637],[-65.3351,-9.9359],[-65.2868,-9.8566],[-65.3229,-9.8157],[-65.3623,-9.7145],[-65.4382,-9.6696],[-65.4401,-9.6977],[-65.5009,-9.7311],[-65.5024,-9.7869],[-65.5324,-9.7816],[-65.5659,-9.8119],[-65.5595,-9.8458],[-65.5984,-9.8438],[-65.6008,-9.8261],[-65.6287,-9.839],[-65.6371,-9.8065],[-65.6508,-9.8189],[-65.6463,-9.7948],[-65.6714,-9.7827],[-65.6912,-9.8149],[-65.7126,-9.8103],[-65.7116,-9.7709],[-65.6829,-9.7685],[-65.6873,-9.7503],[-65.7293,-9.7601],[-65.7473,-9.784],[-65.7755,-9.762],[-65.7754,-9.7382],[-65.798,-9.7952],[-65.816,-9.7755],[-65.8038,-9.7594],[-65.8655,-9.7989],[-65.8741,-9.7571],[-65.9071,-9.7699],[-65.9243,-9.756],[-65.9709,-9.7741],[-65.9655,-9.8046],[-65.9833,-9.8109],[-66.0058,-9.7983],[-66.0262,-9.8161],[-66.0347,-9.7921],[-66.0709,-9.7881],[-66.093,-9.8186],[-66.102,-9.7876],[-66.1502,-9.7894],[-66.1911,-9.8082],[-66.1836,-9.8258],[-66.2025,-9.8395],[-66.233,-9.8162],[-66.2831,-9.8452],[-66.314,-9.8299],[-66.3494,-9.8388],[-66.3583,-9.8653],[-66.4046,-9.8634],[-66.4267,-9.8997],[-66.436,-9.8651],[-66.4568,-9.8798],[-66.4844,-9.8668],[-66.4973,-9.8843],[-66.5646,-9.8809],[-66.5841,-9.9063],[-66.6245,-9.8972],[-66.6391,-9.9522],[-66.6639,-9.9406],[-66.676,-9.9696],[-66.7179,-9.9755],[-66.7923,-10.0233],[-66.8392,-10.084],[-66.8747,-10.0815],[-66.8738,-10.102],[-66.9186,-10.1307],[-66.9122,-10.1479],[-66.9464,-10.1586],[-66.9543,-10.1885],[-66.997,-10.1987],[-66.9893,-10.2208],[-67.0159,-10.2585],[-67.0794,-10.2904],[-67.1255,-10.2914],[-67.1405,-10.3076],[-67.1268,-10.3166],[-67.1766,-10.3386],[-67.2228,-10.3135],[-67.266,-10.3328],[-67.3175,-10.3198],[-67.3281,-10.3369],[-67.3118,-10.3781],[-67.3449,-10.3787],[-67.3518,-10.3956],[-67.4074,-10.3765],[-67.4236,-10.3956],[-67.4132,-10.4267],[-67.4512,-10.4649],[-67.4674,-10.4567],[-67.5229,-10.4933],[-67.5653,-10.4974],[-67.6409,-10.6011],[-67.6613,-10.617],[-67.6767,-10.6054],[-67.7092,-10.7099],[-67.736,-10.7119],[-67.7602,-10.6841],[-67.8648,-10.6392],[-67.9768,-10.6612],[-68.015,-10.6493],[-68.0561,-10.6705],[-68.1074,-10.7182],[-68.1073,-10.7819],[-68.1958,-10.8597],[-68.2367,-10.961],[-68.3314,-11.0158],[-68.3852,-11.0202],[-68.4016,-11.0562],[-68.429,-11.0356],[-68.4919,-11.0573],[-68.5448,-11.1088],[-68.7156,-11.1475],[-68.7221,-11.1068],[-68.766,-11.0692],[-68.7475,-11.0102],[-68.7624,-11.0187],[-68.7572,-11.0006],[-68.7795,-10.9987],[-68.7888,-11.0151],[-68.7927,-10.9904],[-68.8269,-11.0073],[-68.847,-10.9924],[-68.8597,-11.0169],[-68.8954,-11.0065],[-68.9102,-11.0228],[-68.9478,-11.0126],[-68.9526,-10.9902],[-68.9918,-11.0121],[-69.0384,-10.9773],[-69.1205,-10.9818],[-69.1228,-10.967],[-69.1509,-10.9719],[-69.1516,-10.9556],[-69.2155,-10.9585],[-69.233,-10.9399],[-69.2742,-10.9553],[-69.3252,-10.9357],[-69.3426,-10.9522],[-69.3535,-10.936],[-69.3747,-10.9565],[-69.4172,-10.9254],[-69.4782,-10.955],[-69.501,-10.9363],[-69.5747,-10.9451],[-68.97,-11.9125],[-68.6522,-12.4977],[-68.6183,-12.4954],[-68.5586,-12.4543],[-68.5837,-12.3936],[-68.5196,-12.3952],[-68.472,-12.4232],[-68.4193,-12.382],[-68.4017,-12.3498],[-68.4041,-12.2542],[-68.3582,-12.2225],[-68.2929,-12.2246],[-68.2342,-12.1693],[-68.2366,-12.0128],[-68.0983,-12.0348],[-67.9776,-11.9359],[-67.9963,-11.8497],[-66.9673,-12.4903],[-66.9327,-12.4722],[-66.9698,-12.4186],[-66.8973,-12.3692],[-66.9066,-12.342],[-66.946,-12.3276],[-66.9486,-12.305],[-66.8869,-12.2512],[-66.8892,-12.2],[-66.9206,-12.1844],[-66.9253,-12.1615],[-66.8731,-12.1063],[-66.8886,-12.0581],[-66.9107,-12.0525],[-66.8937,-12.0074],[-66.9059,-11.9529],[-66.928,-11.9527],[-66.946,-11.9098],[-66.9561,-11.9406],[-66.9791,-11.9],[-66.8567,-11.8226],[-66.8804,-11.7739],[-66.9179,-11.7806],[-66.9105,-11.7471],[-66.8702,-11.7429],[-66.8398,-11.7664],[-66.8167,-11.6973],[-66.7719,-11.6966],[-66.7959,-11.7309],[-66.7813,-11.745],[-66.762,-11.7085],[-66.7117,-11.6818],[-66.7067,-11.6607],[-66.7358,-11.6548],[-66.7128,-11.6105],[-66.7628,-11.5913],[-66.6758,-11.5617],[-66.6959,-11.4972],[-66.734,-11.4842],[-66.7178,-11.4581],[-66.6892,-11.4434],[-66.6395,-11.4733],[-66.6374,-11.4255],[-66.5543,-11.4144],[-66.495,-11.441],[-66.464,-11.4238],[-66.4646,-11.3963],[-66.4403,-11.3764],[-66.321,-11.3612],[-66.3382,-11.3311],[-66.3109,-11.3158],[-66.2281,-11.3404],[-66.2379,-11.3081],[-66.2776,-11.2777],[-66.2514,-11.2661],[-66.267,-11.2172],[-66.2165,-11.2116],[-66.1858,-11.1818],[-66.2147,-11.1186],[-66.1938,-11.0749],[-66.1574,-11.1344],[-66.1264,-11.1183],[-66.1439,-11.0461],[-66.0934,-11.0506],[-66.1066,-11.0228],[-66.0923,-10.9901],[-66.0579,-10.9866],[-66.0473,-10.903],[-66.0131,-10.8637],[-66.0763,-10.8517],[-65.9758,-10.797],[-65.854,-10.8339],[-65.8518,-10.7844],[-65.9056,-10.7408],[-65.88,-10.6934],[-65.8603,-10.6926],[-65.8201,-10.7442],[-65.7335,-10.7069],[-65.7019,-10.6514],[-65.7342,-10.5917],[-65.7279,-10.5669],[-65.6333,-10.5636],[-65.6181,-10.5399],[-65.5099,-10.4967],[-65.4838,-10.4381],[-65.4082,-10.414],[-65.391,-10.3812]]]},"properties":{"iso3":"BOL","shapeId":"26024454B66401228554177","regionId":"BOL.6_1","name":"Pando"}},{"type":"Feature","geometry":{"type":"MultiPolygon","coordinates":[[[[-68.1296,-20.4781],[-68.135,-20.4791],[-68.1359,-20.4815],[-68.1347,-20.4843],[-68.1321,-20.4857],[-68.1234,-20.4847],[-68.1232,-20.4809],[-68.1296,-20.4781]]],[[[-68.0907,-20.44],[-68.0959,-20.4786],[-68.0326,-20.46],[-68.0907,-20.44]]],[[[-67.7627,-20.4176],[-67.7729,-20.4196],[-67.7744,-20.4244],[-67.7678,-20.4261],[-67.7643,-20.4253],[-67.7606,-20.4209],[-67.7605,-20.4187],[-67.7627,-20.4176]]],[[[-68.2428,-20.3656],[-68.2518,-20.3655],[-68.2535,-20.3697],[-68.2509,-20.3736],[-68.2548,-20.3751],[-68.2538,-20.3775],[-68.2516,-20.3783],[-68.2492,-20.3868],[-68.243,-20.3893],[-68.2376,-20.386],[-68.235,-20.381],[-68.2357,-20.3791],[-68.2407,-20.3777],[-68.236,-20.3768],[-68.2428,-20.3656]]],[[[-68.0425,-20.3647],[-68.0413,-20.3628],[-68.0442,-20.3616],[-68.0459,-20.3645],[-68.0425,-20.3647]]],[[[-67.7569,-20.3629],[-67.7721,-20.3996],[-67.7373,-20.3828],[-67.7569,-20.3629]]],[[[-68.0797,-20.3542],[-68.0808,-20.3546],[-68.0799,-20.3557],[-68.0785,-20.3543],[-68.0797,-20.3542]]],[[[-67.6691,-20.3471],[-67.6826,-20.3587],[-67.663,-20.3619],[-67.6691,-20.3471]]],[[[-67.8589,-20.3105],[-67.8639,-20.3113],[-67.8646,-20.3144],[-67.8619,-20.3183],[-67.8547,-20.3189],[-67.854,-20.3171],[-67.8559,-20.3133],[-67.8589,-20.3105]]],[[[-67.8474,-20.3068],[-67.8539,-20.3071],[-67.8549,-20.3114],[-67.8502,-20.3137],[-67.8468,-20.3129],[-67.8454,-20.3094],[-67.8474,-20.3068]]],[[[-67.826,-20.2866],[-67.831,-20.2825],[-67.836,-20.2846],[-67.845,-20.2971],[-67.8453,-20.3028],[-67.8359,-20.3036],[-67.8254,-20.3002],[-67.8222,-20.2928],[-67.8249,-20.2834],[-67.8276,-20.2827],[-67.8279,-20.2838],[-67.825,-20.2855],[-67.826,-20.2866]]],[[[-67.8654,-20.2831],[-67.8687,-20.2825],[-67.8773,-20.2847],[-67.8759,-20.2867],[-67.8735,-20.2858],[-67.875,-20.2885],[-67.8692,-20.2945],[-67.8636,-20.2918],[-67.8626,-20.2866],[-67.8654,-20.2831]]],[[[-68.0453,-20.2838],[-68.0609,-20.2861],[-68.0552,-20.3532],[-67.9956,-20.3239],[-67.9934,-20.2902],[-68.02,-20.3391],[-68.0097,-20.313],[-68.0265,-20.3009],[-68.031,-20.3299],[-68.0453,-20.2838]]],[[[-68.0567,-20.2786],[-68.0602,-20.2788],[-68.0618,-20.2806],[-68.0589,-20.2828],[-68.0563,-20.2811],[-68.0567,-20.2786]]],[[[-67.8437,-20.2831],[-67.8408,-20.2818],[-67.8374,-20.277],[-67.8376,-20.2732],[-67.8396,-20.2718],[-67.8436,-20.2753],[-67.8498,-20.2778],[-67.8492,-20.2821],[-67.8437,-20.2831]]],[[[-67.8186,-20.2638],[-67.8179,-20.2629],[-67.8192,-20.2628],[-67.8186,-20.2638]]],[[[-67.8439,-20.2659],[-67.8426,-20.2587],[-67.8451,-20.2572],[-67.85,-20.2596],[-67.8518,-20.264],[-67.8506,-20.2659],[-67.8546,-20.2664],[-67.853,-20.2701],[-67.8558,-20.2703],[-67.8568,-20.2725],[-67.8537,-20.2738],[-67.8525,-20.2702],[-67.8479,-20.2689],[-67.8494,-20.2662],[-67.8473,-20.2673],[-67.8439,-20.2659]]],[[[-68.0645,-20.2566],[-68.0644,-20.2771],[-68.0505,-20.2646],[-68.0645,-20.2566]]],[[[-67.9778,-20.2575],[-67.978,-20.2564],[-67.9799,-20.2573],[-67.9778,-20.2575]]],[[[-67.6221,-20.2392],[-67.6257,-20.2411],[-67.6277,-20.24],[-67.6284,-20.2429],[-67.6262,-20.2458],[-67.6247,-20.2458],[-67.6221,-20.2392]]],[[[-67.9782,-20.2379],[-67.9773,-20.2371],[-67.9793,-20.2359],[-67.9782,-20.2379]]],[[[-67.8091,-20.2334],[-67.8084,-20.2312],[-67.8105,-20.2327],[-67.8091,-20.2334]]],[[[-67.9745,-20.2308],[-67.9759,-20.2295],[-67.9776,-20.2309],[-67.9756,-20.2348],[-67.9729,-20.2322],[-67.9745,-20.2308]]],[[[-67.8786,-20.2333],[-67.8753,-20.2316],[-67.8756,-20.2289],[-67.8802,-20.2311],[-67.8786,-20.2333]]],[[[-67.8106,-20.2184],[-67.8173,-20.218],[-67.8204,-20.221],[-67.8103,-20.2237],[-67.8106,-20.2184]]],[[[-67.8711,-20.226],[-67.8693,-20.2208],[-67.8711,-20.2161],[-67.8711,-20.226]]],[[[-67.9399,-20.2005],[-67.9397,-20.1995],[-67.9436,-20.203],[-67.9449,-20.2069],[-67.9401,-20.2126],[-67.9358,-20.2129],[-67.932,-20.2082],[-67.932,-20.2039],[-67.9343,-20.2008],[-67.9399,-20.2005]]],[[[-67.9386,-20.1868],[-67.9437,-20.1871],[-67.9438,-20.1906],[-67.9368,-20.1943],[-67.9298,-20.1929],[-67.9321,-20.188],[-67.9386,-20.1868]]],[[[-67.8721,-20.1883],[-67.877,-20.1856],[-67.8811,-20.18],[-67.8843,-20.1795],[-67.8872,-20.1813],[-67.8853,-20.1871],[-67.8822,-20.1888],[-67.8784,-20.1885],[-67.8689,-20.1945],[-67.8695,-20.1904],[-67.8721,-20.1883]]],[[[-67.9437,-20.1727],[-67.9465,-20.1707],[-67.95,-20.1777],[-67.9495,-20.1806],[-67.9464,-20.1822],[-67.9418,-20.1803],[-67.941,-20.1787],[-67.9437,-20.1727]]],[[[-67.8076,-20.1546],[-67.8023,-20.1445],[-67.802,-20.141],[-67.8052,-20.1349],[-67.8098,-20.1316],[-67.8119,-20.133],[-67.8102,-20.1345],[-67.8118,-20.1383],[-67.8104,-20.1417],[-67.8137,-20.1456],[-67.8146,-20.1497],[-67.8115,-20.1544],[-67.8076,-20.1546]]],[[[-67.808,-20.1174],[-67.8104,-20.1173],[-67.8076,-20.1209],[-67.808,-20.1174]]],[[[-67.8027,-20.1091],[-67.8021,-20.1076],[-67.8036,-20.1087],[-67.8027,-20.1091]]],[[[-68.1978,-19.9877],[-68.1963,-19.984],[-68.1977,-19.9831],[-68.1995,-19.9861],[-68.1978,-19.9877]]],[[[-68.1717,-19.982],[-68.1737,-19.9829],[-68.1704,-19.9853],[-68.1698,-19.9825],[-68.1717,-19.982]]],[[[-68.1618,-19.9774],[-68.1644,-19.9775],[-68.1662,-19.9799],[-68.1611,-19.9828],[-68.1581,-19.981],[-68.1586,-19.9786],[-68.1618,-19.9774]]],[[[-68.1856,-19.971],[-68.2044,-19.9727],[-68.1807,-19.9852],[-68.1856,-19.971]]],[[[-68.2012,-19.9697],[-68.205,-19.9665],[-68.2088,-19.9693],[-68.2071,-19.9725],[-68.2051,-19.9703],[-68.2012,-19.9697]]],[[[-67.7708,-19.9685],[-67.7667,-19.9644],[-67.7662,-19.9591],[-67.7719,-19.9653],[-67.7708,-19.9685]]],[[[-67.8112,-19.9482],[-67.8156,-19.9496],[-67.8102,-19.9485],[-67.8112,-19.9482]]],[[[-67.763,-19.946],[-67.7637,-19.9431],[-67.7583,-19.9329],[-67.7598,-19.9318],[-67.7717,-19.9479],[-67.7716,-19.949],[-67.7693,-19.9481],[-67.7679,-19.9492],[-67.7661,-19.9536],[-67.7638,-19.9553],[-67.7639,-19.9573],[-67.7592,-19.9542],[-67.7545,-19.9475],[-67.7577,-19.9487],[-67.7587,-19.9446],[-67.763,-19.946]]],[[[-67.7838,-19.9459],[-67.7753,-19.9358],[-67.7748,-19.9311],[-67.7838,-19.9459]]],[[[-67.8436,-19.8954],[-67.8414,-19.8933],[-67.842,-19.8917],[-67.8447,-19.8947],[-67.8436,-19.8954]]],[[[-67.8349,-19.8408],[-67.839,-19.8343],[-67.8398,-19.8385],[-67.8388,-19.8405],[-67.8371,-19.8418],[-67.8349,-19.8408]]],[[[-65.3457,-18.4179],[-65.4044,-18.3673],[-65.4394,-18.3651],[-65.5023,-18.2573],[-65.5648,-18.2342],[-65.638,-18.1374],[-65.8451,-17.9742],[-65.934,-17.9921],[-65.9431,-17.9562],[-65.9886,-17.9352],[-66.0439,-17.8388],[-66.092,-17.8082],[-66.1799,-17.9334],[-66.2472,-17.9532],[-66.2517,-17.9343],[-66.2809,-17.966],[-66.3202,-17.9495],[-66.4314,-17.9734],[-66.5335,-18.0584],[-66.5234,-18.0895],[-66.6011,-18.0823],[-66.6369,-18.1189],[-66.6764,-18.1093],[-66.7852,-18.1357],[-66.7597,-18.1699],[-66.7637,-18.2164],[-66.7462,-18.241],[-66.5282,-18.2493],[-66.5541,-18.2767],[-66.6614,-18.2956],[-66.7293,-18.3404],[-66.6395,-18.5988],[-66.6442,-18.6303],[-66.6069,-18.6506],[-66.6019,-18.6942],[-66.537,-18.721],[-66.5321,-18.7737],[-66.5025,-18.7881],[-66.4605,-18.7071],[-66.3923,-18.717],[-66.3018,-18.9333],[-66.3017,-18.9906],[-66.2817,-19.0148],[-66.1839,-18.9822],[-66.1762,-19.0207],[-66.0861,-19.0998],[-66.1301,-19.2456],[-66.1889,-19.2421],[-66.2291,-19.2862],[-66.27,-19.2986],[-66.3569,-19.4537],[-66.3903,-19.4576],[-66.429,-19.4063],[-66.5021,-19.3599],[-66.5906,-19.4262],[-66.6998,-19.4484],[-66.7546,-19.4274],[-66.8452,-19.4547],[-66.9522,-19.3696],[-67.0437,-19.381],[-67.0808,-19.356],[-67.1089,-19.4113],[-67.1727,-19.4435],[-67.2677,-19.4286],[-67.2563,-19.4638],[-67.2258,-19.4839],[-67.2372,-19.5045],[-67.2183,-19.5593],[-67.2318,-19.5836],[-67.2029,-19.6153],[-67.2064,-19.6703],[-67.2566,-19.6993],[-67.291,-19.7652],[-67.2299,-19.8029],[-67.1822,-19.9068],[-67.1893,-20.0018],[-67.1603,-19.9983],[-67.1389,-20.0526],[-67.1676,-20.1336],[-67.0854,-20.2185],[-67.0185,-20.2382],[-66.9991,-20.2873],[-66.9094,-20.3917],[-66.9862,-20.397],[-66.9783,-20.4136],[-66.9978,-20.4319],[-66.9854,-20.4422],[-67.0191,-20.4355],[-67.0761,-20.4835],[-67.0554,-20.5075],[-67.1065,-20.4837],[-67.1165,-20.5721],[-67.0996,-20.5808],[-67.118,-20.5778],[-67.1307,-20.6057],[-67.1023,-20.6297],[-67.1138,-20.6403],[-67.1938,-20.6246],[-67.2072,-20.6522],[-67.2281,-20.6199],[-67.2564,-20.6193],[-67.3286,-20.7222],[-67.4821,-20.6684],[-67.5513,-20.6103],[-67.7262,-20.3853],[-67.7895,-20.5341],[-67.8106,-20.5347],[-67.793,-20.5111],[-67.8037,-20.5256],[-67.8055,-20.5123],[-67.8625,-20.514],[-67.8727,-20.46],[-67.8386,-20.3461],[-67.8891,-20.3067],[-67.9294,-20.2209],[-67.9527,-20.2489],[-67.9671,-20.2301],[-67.9762,-20.2423],[-68.0014,-20.3678],[-67.9896,-20.4057],[-68.0279,-20.4092],[-68.0069,-20.4233],[-68.0249,-20.4331],[-68.0377,-20.5398],[-68.067,-20.5555],[-68.2076,-20.5381],[-68.238,-20.498],[-68.2383,-20.4371],[-68.2718,-20.3811],[-68.2601,-20.3488],[-68.2767,-20.3266],[-68.2317,-20.2821],[-68.2163,-20.1607],[-68.1591,-20.1345],[-68.2219,-20.1047],[-68.1959,-20.0845],[-68.2107,-20.0681],[-68.2036,-19.9943],[-68.2064,-20.0195],[-68.1872,-20.033],[-68.2331,-19.9302],[-68.1048,-19.8327],[-68.0991,-19.7992],[-68.0566,-19.7821],[-68.0061,-19.7858],[-67.9631,-19.8294],[-67.9096,-19.7802],[-67.8329,-19.8177],[-67.8345,-19.8339],[-67.7997,-19.8198],[-67.7609,-19.8647],[-67.7469,-19.9334],[-67.7068,-19.9017],[-67.5926,-19.9052],[-67.573,-19.8813],[-67.7145,-19.812],[-67.7339,-19.8316],[-67.7586,-19.8059],[-67.8217,-19.8096],[-67.8764,-19.7619],[-67.9595,-19.7294],[-68.0319,-19.6223],[-68.0881,-19.5764],[-68.167,-19.6143],[-68.294,-19.5463],[-68.2906,-19.5242],[-68.3521,-19.52],[-68.4259,-19.4355],[-68.5988,-19.6407],[-68.6232,-19.7006],[-68.6835,-19.7194],[-68.6889,-19.7484],[-68.6208,-19.7891],[-68.5993,-19.828],[-68.5282,-19.8453],[-68.5423,-19.89],[-68.5216,-19.9243],[-68.5662,-20.0501],[-68.7635,-20.0787],[-68.7739,-20.1297],[-68.7021,-20.1435],[-68.6917,-20.1772],[-68.7139,-20.1951],[-68.715,-20.2468],[-68.6594,-20.3355],[-68.7418,-20.3694],[-68.7387,-20.4568],[-68.5709,-20.5756],[-68.4487,-20.6242],[-68.4393,-20.6441],[-68.5016,-20.6688],[-68.5516,-20.7281],[-68.5411,-20.8014],[-68.5691,-20.8945],[-68.5035,-20.9429],[-68.4157,-20.9414],[-68.2951,-21.0978],[-68.1784,-21.3035],[-68.1806,-21.6041],[-68.0599,-21.7779],[-68.072,-21.9802],[-68.0074,-22.0395],[-67.9652,-22.0541],[-67.9392,-22.1086],[-67.9552,-22.1778],[-67.9225,-22.2525],[-67.9514,-22.3304],[-67.8986,-22.4239],[-67.8926,-22.4991],[-67.8534,-22.5573],[-67.8691,-22.6914],[-67.8892,-22.7023],[-67.8832,-22.8344],[-67.799,-22.8812],[-67.588,-22.9066],[-67.1805,-22.814],[-67.1278,-22.7221],[-67.0141,-22.6548],[-67.0273,-22.5409],[-66.973,-22.5407],[-66.9286,-22.4922],[-66.7825,-22.4381],[-66.7393,-22.2385],[-66.6863,-22.2095],[-66.6383,-22.2255],[-66.6232,-22.1974],[-66.357,-22.1322],[-66.3205,-22.0844],[-66.2895,-22.087],[-66.2748,-21.9441],[-66.2354,-21.8508],[-66.2428,-21.7937],[-66.2215,-21.7814],[-66.0763,-21.835],[-66.0433,-21.8719],[-66.0482,-21.919],[-65.9248,-21.9336],[-65.8048,-22.0753],[-65.748,-22.1092],[-65.5894,-22.0987],[-65.5749,-22.0755],[-65.4848,-22.0955],[-65.1866,-22.0854],[-65.185,-22.0131],[-65.2618,-21.9712],[-65.3362,-21.9648],[-65.4199,-21.8956],[-65.3967,-21.8793],[-65.3895,-21.8415],[-65.3546,-21.8376],[-65.3139,-21.7309],[-65.2926,-21.7318],[-65.3043,-21.6887],[-65.2628,-21.6366],[-65.2451,-21.57],[-65.2498,-21.4824],[-65.3117,-21.4858],[-65.3201,-21.5173],[-65.3534,-21.5008],[-65.3877,-21.5164],[-65.4077,-21.4319],[-65.4371,-21.4265],[-65.4417,-21.1811],[-65.4025,-21.1607],[-65.4206,-21.0613],[-65.3999,-21.0069],[-65.3947,-20.8921],[-65.3462,-20.8632],[-65.3763,-20.7512],[-65.3569,-20.7258],[-65.3645,-20.6772],[-65.3472,-20.6226],[-65.3878,-20.5576],[-65.3501,-20.5484],[-65.3276,-20.5119],[-65.2686,-20.5047],[-65.2624,-20.4238],[-65.2435,-20.4151],[-65.2515,-20.3796],[-65.2212,-20.3188],[-65.2826,-20.2327],[-65.3157,-20.2251],[-65.3016,-20.1778],[-65.2326,-20.1405],[-65.305,-20.0093],[-65.2703,-20.0039],[-65.2223,-19.9359],[-65.2033,-19.938],[-65.1522,-20.0124],[-65.0906,-20.0094],[-65.0598,-19.9533],[-65.0831,-19.9319],[-65.0567,-19.7937],[-65.0302,-19.7946],[-64.9909,-19.8533],[-64.9416,-19.8765],[-64.9143,-19.8422],[-64.8908,-19.9636],[-64.8508,-19.9811],[-64.795,-19.9028],[-64.7765,-19.841],[-64.7144,-19.7796],[-64.787,-19.6332],[-64.8428,-19.5896],[-64.8231,-19.4835],[-64.8526,-19.4102],[-64.8956,-19.3996],[-64.9127,-19.3547],[-65.0041,-19.352],[-65.0546,-19.3857],[-65.0882,-19.3668],[-65.141,-19.3781],[-65.2307,-19.3205],[-65.3104,-19.3062],[-65.3304,-19.2714],[-65.3698,-19.2556],[-65.4062,-19.1438],[-65.5581,-19.0638],[-65.5873,-18.9977],[-65.5324,-18.9765],[-65.4809,-18.9259],[-65.441,-18.9185],[-65.4059,-18.939],[-65.4017,-18.9038],[-65.4437,-18.8314],[-65.4176,-18.7789],[-65.3871,-18.7962],[-65.3564,-18.7864],[-65.4292,-18.748],[-65.4006,-18.702],[-65.4191,-18.6632],[-65.3813,-18.6408],[-65.4216,-18.605],[-65.4367,-18.616],[-65.486,-18.5908],[-65.496,-18.5358],[-65.5143,-18.5475],[-65.5839,-18.4983],[-65.6238,-18.5011],[-65.6241,-18.462],[-65.6842,-18.4171],[-65.6939,-18.3519],[-65.5908,-18.3748],[-65.5465,-18.4046],[-65.507,-18.3867],[-65.3661,-18.4356],[-65.3457,-18.4179]]]]},"properties":{"iso3":"BOL","shapeId":"26024454B37550803023778","regionId":"BOL.7_1","name":"Potosi"}},{"type":"Feature","geometry":{"type":"Polygon","coordinates":[[[-64.7297,-15.802],[-64.7512,-15.8666],[-64.723,-15.8968],[-64.7459,-15.8912],[-64.7297,-15.9177],[-64.7562,-15.9502],[-64.7268,-15.9512],[-64.74,-15.9816],[-64.7095,-15.9675],[-64.7341,-16.0027],[-64.7015,-16.0116],[-64.7232,-16.0095],[-64.7327,-16.0345],[-64.7233,-16.0172],[-64.7025,-16.0287],[-64.716,-16.0588],[-64.6932,-16.0542],[-64.6901,-16.0808],[-64.7116,-16.066],[-64.7272,-16.0812],[-64.6919,-16.0901],[-64.6888,-16.1164],[-64.6634,-16.0971],[-64.6845,-16.1245],[-64.6817,-16.1814],[-64.6946,-16.1691],[-64.7082,-16.1859],[-64.67,-16.2084],[-64.6648,-16.2568],[-64.6928,-16.2931],[-64.6467,-16.2962],[-64.6803,-16.3213],[-64.644,-16.3208],[-64.6735,-16.3651],[-64.7088,-16.3464],[-64.6867,-16.3597],[-64.6927,-16.3788],[-64.6563,-16.3748],[-64.6989,-16.4176],[-64.6767,-16.4316],[-64.6876,-16.4466],[-64.6733,-16.474],[-64.7111,-16.4747],[-64.6879,-16.485],[-64.7112,-16.4958],[-64.7112,-16.5363],[-64.7264,-16.5293],[-64.7199,-16.5095],[-64.7508,-16.5126],[-64.7486,-16.5901],[-64.7905,-16.6312],[-64.7575,-16.6526],[-64.758,-16.6789],[-64.7725,-16.6849],[-64.7798,-16.6561],[-64.8101,-16.7],[-64.7825,-16.7215],[-64.7836,-16.7445],[-64.8318,-16.7251],[-64.8357,-16.7731],[-64.7964,-16.7644],[-64.8166,-16.7715],[-64.7789,-16.805],[-64.7894,-16.8447],[-64.7693,-16.8615],[-64.7396,-16.8551],[-64.7704,-16.8731],[-64.737,-16.8681],[-64.7608,-16.8907],[-64.7322,-16.8881],[-64.75,-16.9174],[-64.7203,-16.9264],[-64.7467,-16.9423],[-64.7102,-16.9438],[-64.712,-16.9714],[-64.7039,-16.9525],[-64.6745,-16.9707],[-64.7074,-17.0016],[-64.682,-16.9855],[-64.6875,-17.0192],[-64.629,-17.0049],[-64.6393,-17.0372],[-64.6195,-17.0145],[-64.6176,-17.0353],[-64.5872,-17.0363],[-64.6116,-17.0378],[-64.5927,-17.0538],[-64.5647,-17.0357],[-64.5775,-17.0602],[-64.5188,-17.0568],[-64.5497,-17.0873],[-64.5003,-17.0909],[-64.477,-17.1181],[-64.487,-17.1354],[-64.4354,-17.13],[-64.4284,-17.1594],[-64.4241,-17.1414],[-64.3946,-17.1407],[-64.4103,-17.1563],[-64.3877,-17.1559],[-64.3984,-17.1765],[-64.3573,-17.1871],[-64.3749,-17.1998],[-64.3712,-17.2299],[-64.3362,-17.208],[-64.3211,-17.2408],[-64.3402,-17.2638],[-64.3045,-17.2779],[-64.3105,-17.2587],[-64.2838,-17.2647],[-64.2787,-17.2908],[-64.2473,-17.302],[-64.2341,-17.3737],[-64.255,-17.4265],[-64.3062,-17.4374],[-64.3491,-17.4235],[-64.3726,-17.4532],[-64.4058,-17.4533],[-64.4006,-17.4939],[-64.4323,-17.56],[-64.4894,-17.56],[-64.5198,-17.534],[-64.5502,-17.5658],[-64.6025,-17.5574],[-64.5921,-17.619],[-64.6409,-17.6758],[-64.6398,-17.7082],[-64.7019,-17.7161],[-64.7562,-17.7501],[-64.8064,-17.8931],[-64.7866,-17.9333],[-64.8106,-17.9447],[-64.7369,-18.0393],[-64.7166,-18.0428],[-64.6919,-18.0988],[-64.6157,-18.0934],[-64.5222,-18.1604],[-64.4817,-18.2609],[-64.4854,-18.2936],[-64.4337,-18.3363],[-64.4484,-18.3735],[-64.4297,-18.3764],[-64.4276,-18.4181],[-64.4026,-18.4507],[-64.3056,-18.4957],[-64.2809,-18.5999],[-64.3292,-18.6655],[-64.3109,-18.6705],[-64.3176,-18.7567],[-64.2868,-18.7857],[-64.2901,-18.8231],[-64.2132,-18.8824],[-64.1846,-18.9612],[-64.1033,-18.9734],[-64.0685,-19.0053],[-64.0165,-19.174],[-63.9195,-19.1833],[-63.9017,-19.0317],[-63.8095,-19.0551],[-63.7687,-19.0316],[-63.7052,-19.0431],[-63.7456,-19.175],[-63.7145,-19.2721],[-63.729,-19.3492],[-63.7032,-19.4842],[-63.7136,-19.5503],[-63.6922,-19.5944],[-63.7203,-19.7291],[-63.709,-19.8611],[-63.7323,-20.0272],[-63.7258,-20.1157],[-63.6923,-20.1487],[-63.6981,-20.187],[-63.6808,-20.2084],[-63.7076,-20.2543],[-63.6842,-20.4651],[-63.6553,-20.4726],[-63.5841,-20.4425],[-63.5134,-20.4627],[-63.4641,-20.4535],[-63.4152,-20.4382],[-63.3997,-20.3986],[-63.3571,-20.3925],[-63.3576,-20.4601],[-62.1794,-20.4426],[-61.9224,-20.0892],[-61.7355,-19.6342],[-60.601,-19.4559],[-59.9769,-19.2952],[-59.0996,-19.3494],[-58.2354,-19.7755],[-58.1648,-19.8271],[-58.2019,-19.8648],[-58.1959,-19.9282],[-58.2131,-19.9514],[-58.1855,-19.9712],[-58.1369,-20.1187],[-58.1698,-20.1659],[-58.1146,-20.1435],[-58.0937,-20.1087],[-58.0505,-20.1069],[-58.0302,-20.0619],[-57.983,-20.0582],[-57.9569,-20.0226],[-57.9029,-20.0435],[-57.8679,-19.9911],[-57.8591,-19.9717],[-58.1314,-19.7584],[-57.7837,-19.0352],[-57.711,-19.0348],[-57.6912,-19.0115],[-57.7197,-18.9781],[-57.7187,-18.8984],[-57.7672,-18.9005],[-57.5597,-18.2421],[-57.4544,-18.231],[-57.5797,-18.1201],[-57.6011,-18.0436],[-57.7229,-17.8302],[-57.6845,-17.8307],[-57.6851,-17.8106],[-57.7132,-17.7756],[-57.711,-17.7308],[-57.7835,-17.6393],[-57.772,-17.6153],[-57.7843,-17.6082],[-57.7382,-17.5614],[-57.8878,-17.4528],[-57.9695,-17.5145],[-57.9971,-17.5154],[-58.0442,-17.4923],[-58.0676,-17.452],[-58.1203,-17.4502],[-58.1228,-17.4143],[-58.1513,-17.4097],[-58.1571,-17.385],[-58.1998,-17.3903],[-58.2029,-17.3543],[-58.2552,-17.354],[-58.2781,-17.3003],[-58.3,-17.2987],[-58.3042,-17.2699],[-58.3974,-17.1864],[-58.3995,-17.0838],[-58.4323,-17.0598],[-58.4232,-16.9888],[-58.4449,-16.9855],[-58.4575,-16.9401],[-58.4765,-16.9381],[-58.4601,-16.8642],[-58.4787,-16.8228],[-58.4585,-16.7885],[-58.4671,-16.6949],[-58.4352,-16.5945],[-58.3381,-16.5163],[-58.3562,-16.4267],[-58.3461,-16.3899],[-58.3076,-16.3718],[-58.3037,-16.3097],[-58.322,-16.266],[-58.389,-16.2628],[-58.3958,-16.2988],[-58.4311,-16.3224],[-60.1735,-16.263],[-60.1799,-15.9977],[-60.2376,-15.4735],[-60.5749,-15.096],[-60.2444,-15.0953],[-60.2722,-14.6228],[-60.3217,-14.6095],[-60.3395,-14.5095],[-60.3995,-14.412],[-60.3825,-14.3676],[-60.4433,-14.3163],[-60.4508,-14.2383],[-60.4821,-14.1824],[-60.4666,-14.0964],[-60.4061,-14.0093],[-60.4421,-13.9343],[-60.4507,-13.857],[-60.472,-13.8517],[-60.4606,-13.7993],[-60.5285,-13.7947],[-60.521,-13.7709],[-60.5514,-13.7817],[-60.5765,-13.7464],[-60.6063,-13.7476],[-60.6209,-13.717],[-60.6563,-13.7353],[-60.6904,-13.6962],[-60.6958,-13.7136],[-60.7087,-13.6899],[-60.7634,-13.6862],[-60.8231,-13.6303],[-60.8803,-13.617],[-60.9234,-13.5665],[-60.9187,-13.5425],[-60.9568,-13.5512],[-60.9722,-13.5348],[-61.0069,-13.5513],[-61.0107,-13.5092],[-60.9896,-13.4939],[-61.0244,-13.4796],[-61.0535,-13.4807],[-61.0388,-13.5035],[-61.0545,-13.512],[-61.0921,-13.4932],[-61.1058,-13.531],[-61.1399,-13.5283],[-61.1427,-13.5118],[-61.1501,-13.531],[-61.1832,-13.506],[-61.1935,-13.5355],[-61.2252,-13.5302],[-61.2606,-13.4941],[-61.4695,-13.5546],[-61.5279,-13.5298],[-63.5612,-14.2959],[-63.975,-14.7284],[-63.9264,-14.7721],[-63.9469,-14.8771],[-63.9213,-14.9887],[-63.9406,-15.0143],[-63.9178,-15.0327],[-63.9636,-15.069],[-63.9416,-15.11],[-63.9436,-15.16],[-63.8929,-15.1749],[-63.8952,-15.21],[-63.8585,-15.227],[-63.8713,-15.2637],[-63.8531,-15.2694],[-63.8343,-15.3493],[-63.7784,-15.3907],[-63.7937,-15.4284],[-63.7651,-15.4382],[-63.7513,-15.4726],[-63.7311,-15.453],[-63.7121,-15.4899],[-63.6804,-15.4973],[-63.6927,-15.5812],[-63.6566,-15.5787],[-63.642,-15.6245],[-63.5829,-15.634],[-63.574,-15.6653],[-63.5491,-15.6513],[-63.5122,-15.6655],[-63.471,-15.7346],[-63.4293,-15.7491],[-63.4442,-15.8248],[-63.4162,-15.8529],[-63.3998,-15.8472],[-63.4105,-15.8583],[-63.3868,-15.8569],[-63.3806,-15.8839],[-64.7297,-15.802]]]},"properties":{"iso3":"BOL","shapeId":"26024454B26939592883549","regionId":"BOL.8_1","name":"Santa Cruz"}},{"type":"Feature","geometry":{"type":"Polygon","coordinates":[[[-65.2498,-21.4824],[-65.2451,-21.57],[-65.2628,-21.6366],[-65.3043,-21.6887],[-65.2926,-21.7318],[-65.3139,-21.7309],[-65.3546,-21.8376],[-65.3895,-21.8415],[-65.3967,-21.8793],[-65.4162,-21.8819],[-65.4086,-21.9156],[-65.3136,-21.975],[-65.2618,-21.9712],[-65.185,-22.0131],[-65.1866,-22.0854],[-64.9943,-22.084],[-64.924,-22.1211],[-64.8618,-22.1224],[-64.7369,-22.1942],[-64.6509,-22.1897],[-64.6166,-22.2056],[-64.5973,-22.2428],[-64.5366,-22.2856],[-64.5668,-22.368],[-64.5129,-22.4156],[-64.5251,-22.4412],[-64.4921,-22.4366],[-64.483,-22.4805],[-64.4129,-22.5382],[-64.4101,-22.5631],[-64.4318,-22.5814],[-64.4239,-22.6353],[-64.4423,-22.638],[-64.3944,-22.6881],[-64.403,-22.7194],[-64.3612,-22.7243],[-64.3417,-22.7493],[-64.3268,-22.8365],[-64.3388,-22.8682],[-64.3148,-22.8671],[-64.3157,-22.8828],[-64.2651,-22.7641],[-64.2835,-22.7521],[-64.2641,-22.7408],[-64.2711,-22.7083],[-64.2422,-22.6653],[-64.2645,-22.65],[-64.2389,-22.6206],[-64.2398,-22.5554],[-64.2163,-22.5435],[-64.1832,-22.4732],[-64.1618,-22.4673],[-64.1426,-22.4117],[-64.1167,-22.4071],[-64.1171,-22.3643],[-64.0738,-22.2592],[-64.0618,-22.2379],[-64.0333,-22.2424],[-64.0331,-22.1965],[-63.9925,-22.133],[-64.0001,-22.1076],[-63.9859,-22.109],[-63.9798,-22.0809],[-63.9582,-22.0861],[-63.9308,-21.9993],[-63.7177,-21.9995],[-63.6889,-22.0117],[-63.6836,-22.0548],[-63.6671,-22.0035],[-62.8048,-22.0022],[-62.8147,-22.0471],[-62.7931,-22.064],[-62.8121,-22.1338],[-62.7822,-22.1745],[-62.7555,-22.1527],[-62.7204,-22.2108],[-62.691,-22.1911],[-62.6655,-22.2447],[-62.6439,-22.2466],[-62.2607,-21.0585],[-62.2613,-20.9925],[-63.9987,-21.0064],[-64.0064,-20.9467],[-64.0256,-20.9625],[-64.0608,-20.9542],[-64.0776,-20.9234],[-64.1453,-20.9232],[-64.1732,-20.8859],[-64.1976,-20.9574],[-64.1808,-20.9614],[-64.1957,-21.0053],[-64.1797,-21.0287],[-64.2001,-21.0368],[-64.1891,-21.0912],[-64.201,-21.1385],[-64.2302,-21.1521],[-64.2903,-21.1325],[-64.3643,-21.1428],[-64.4571,-21.0831],[-64.5272,-21.0976],[-64.6051,-20.9819],[-64.6989,-20.931],[-64.761,-20.9802],[-64.7978,-21.0947],[-64.8536,-21.1064],[-64.8517,-21.09],[-64.8954,-21.0733],[-64.8896,-21.0568],[-64.9186,-21.0592],[-64.9342,-21.0267],[-64.9504,-21.0417],[-64.9878,-21.0081],[-65.0271,-21.0276],[-65.0223,-21.0118],[-65.051,-21.0087],[-65.07,-20.9589],[-65.1132,-20.9818],[-65.1091,-20.9698],[-65.1518,-20.9637],[-65.1631,-20.9452],[-65.1923,-20.9842],[-65.2028,-21.0843],[-65.1884,-21.1604],[-65.2118,-21.192],[-65.211,-21.2555],[-65.2242,-21.2564],[-65.2117,-21.2915],[-65.2498,-21.4824]]]},"properties":{"iso3":"BOL","shapeId":"26024454B43037921046937","regionId":"BOL.9_1","name":"Tarija"}}]}