{"type":"FeatureCollection","features":[{"type":"Feature","geometry":{"type":"Polygon","coordinates":[[[8.4257,47.5679],[8.3292,47.571],[8.2925,47.6089],[8.2265,47.605],[8.206,47.6211],[8.1098,47.5826],[8.0893,47.5577],[7.9599,47.5581],[7.9441,47.5439],[7.912,47.5508],[7.8921,47.5874],[7.8231,47.588],[7.7957,47.5574],[7.7135,47.5396],[7.7899,47.519],[7.7866,47.4931],[7.832,47.5147],[7.8332,47.5338],[7.8573,47.5332],[7.9048,47.4849],[7.947,47.4849],[7.94,47.462],[7.9743,47.4596],[7.9855,47.4228],[7.9632,47.4224],[8.0266,47.3956],[8.0011,47.3348],[7.948,47.3171],[7.9478,47.3325],[7.9078,47.3417],[7.8893,47.3116],[7.8613,47.3062],[7.8251,47.2656],[7.8387,47.2348],[7.9335,47.2359],[7.9619,47.2541],[7.9506,47.2748],[7.9953,47.2816],[8.0158,47.2441],[8.0884,47.2629],[8.1244,47.2414],[8.1749,47.2535],[8.1559,47.2378],[8.1847,47.2224],[8.2587,47.2872],[8.3003,47.2715],[8.3622,47.1461],[8.4053,47.1375],[8.4152,47.1646],[8.3948,47.2257],[8.4108,47.2455],[8.3886,47.29],[8.4291,47.3007],[8.4551,47.3341],[8.4132,47.3264],[8.3966,47.3939],[8.3628,47.4016],[8.3923,47.4217],[8.3751,47.4307],[8.3869,47.4496],[8.3577,47.5025],[8.4257,47.5679]]]},"properties":{"iso3":"CHE","shapeId":"70761945B11338788345342","regionId":"CHE.1_1","name":"Aargau"}},{"type":"Feature","geometry":{"type":"Polygon","coordinates":[[[9.5029,47.3474],[9.5234,47.4214],[9.5404,47.4318],[9.5763,47.4158],[9.5424,47.4082],[9.5553,47.3964],[9.5858,47.4131],[9.5588,47.434],[9.6297,47.4444],[9.5325,47.4678],[9.5305,47.4535],[9.435,47.4343],[9.4222,47.4061],[9.2326,47.398],[9.213,47.3651],[9.1911,47.3625],[9.2333,47.3321],[9.2098,47.3209],[9.2243,47.2929],[9.2063,47.2764],[9.3238,47.247],[9.3433,47.2494],[9.3097,47.3219],[9.3654,47.3584],[9.3502,47.3831],[9.5029,47.3474]]]},"properties":{"iso3":"CHE","shapeId":"70761945B71472094577065","regionId":"CHE.2_1","name":"Appenzell Ausserrhoden"}},{"type":"Feature","geometry":{"type":"MultiPolygon","coordinates":[[[[9.3433,47.2494],[9.382,47.234],[9.4643,47.2658],[9.5029,47.3474],[9.3502,47.3831],[9.3654,47.3584],[9.3097,47.3219],[9.3433,47.2494]]],[[[9.5096,47.3947],[9.5533,47.394],[9.5424,47.4082],[9.5763,47.4158],[9.5389,47.4317],[9.5096,47.3947]]],[[[9.583,47.4096],[9.6178,47.4377],[9.5588,47.434],[9.583,47.4096]]]]},"properties":{"iso3":"CHE","shapeId":"70761945B73029947081098","regionId":"CHE.3_1","name":"Appenzell Innerrhoden"}},{"type":"Feature","geometry":{"type":"MultiPolygon","coordinates":[[[[7.376,47.4141],[7.3811,47.432],[7.3273,47.44],[7.376,47.4141]]],[[[7.7135,47.5396],[7.6702,47.535],[7.6274,47.5615],[7.5903,47.5198],[7.5547,47.5644],[7.498,47.5362],[7.5312,47.5282],[7.4979,47.5213],[7.5362,47.4911],[7.5307,47.4612],[7.43,47.4595],[7.4209,47.4459],[7.4506,47.4354],[7.4484,47.4151],[7.376,47.4141],[7.4117,47.3806],[7.4373,47.3809],[7.4542,47.4042],[7.5186,47.3882],[7.5252,47.4116],[7.5807,47.4147],[7.5689,47.4369],[7.6158,47.4328],[7.6261,47.4629],[7.6045,47.4704],[7.6073,47.4894],[7.6661,47.4969],[7.7099,47.4694],[7.6798,47.4175],[7.6327,47.41],[7.6442,47.3672],[7.7279,47.3689],[7.7853,47.3379],[7.8022,47.3611],[7.8788,47.3835],[7.8833,47.4061],[7.9097,47.3985],[7.9618,47.4218],[7.9468,47.4432],[7.9576,47.4588],[7.94,47.462],[7.947,47.4849],[7.9048,47.4849],[7.8573,47.5332],[7.8332,47.5338],[7.832,47.5147],[7.7866,47.4931],[7.7899,47.519],[7.7135,47.5396]]]]},"properties":{"iso3":"CHE","shapeId":"70761945B84766611276082","regionId":"CHE.4_1","name":"Basel-Landschaft"}},{"type":"Feature","geometry":{"type":"Polygon","coordinates":[[[7.634,47.5612],[7.6859,47.5656],[7.6717,47.5873],[7.6938,47.6008],[7.6191,47.5769],[7.589,47.5899],[7.5569,47.5725],[7.5559,47.5443],[7.5873,47.5419],[7.5948,47.5193],[7.634,47.5612]]]},"properties":{"iso3":"CHE","shapeId":"70761945B62987387977087","regionId":"CHE.5_1","name":"Basel-Stadt"}},{"type":"Feature","geometry":{"type":"MultiPolygon","coordinates":[[[[7.1344,46.9194],[7.1149,46.9158],[7.1197,46.9005],[7.1344,46.9194]]],[[[7.8251,47.2656],[7.7327,47.2591],[7.6848,47.294],[7.5801,47.2764],[7.5959,47.2456],[7.6715,47.195],[7.6729,47.1684],[7.6451,47.1489],[7.5258,47.1622],[7.5097,47.1255],[7.4613,47.1082],[7.4748,47.0862],[7.4545,47.0749],[7.434,47.1005],[7.382,47.0957],[7.3714,47.1225],[7.4402,47.1237],[7.4266,47.1411],[7.497,47.1701],[7.4498,47.1896],[7.3842,47.1601],[7.3404,47.2176],[7.5329,47.2945],[7.5583,47.3224],[7.496,47.3021],[7.3786,47.315],[7.2792,47.2842],[7.1638,47.2941],[7.1687,47.2747],[7.1431,47.2595],[7.1558,47.2475],[7.0598,47.2428],[6.9808,47.1743],[6.9522,47.1874],[6.8837,47.1504],[6.872,47.1741],[6.8615,47.1656],[6.8888,47.1311],[6.8669,47.0851],[7.0311,47.1273],[7.0287,47.1037],[7.0868,47.0857],[7.0877,47.0597],[7.0335,47.0303],[7.0402,46.9798],[7.2178,47.0064],[7.2357,46.9846],[7.1946,46.9629],[7.2127,46.9285],[7.1877,46.9004],[7.3534,46.8868],[7.3493,46.8533],[7.3022,46.852],[7.3312,46.8318],[7.2905,46.772],[7.3005,46.7221],[7.3802,46.6902],[7.3773,46.6563],[7.3573,46.6393],[7.3211,46.6546],[7.3207,46.5919],[7.2371,46.5538],[7.2492,46.5211],[7.2241,46.4869],[7.2323,46.4539],[7.1925,46.4352],[7.2099,46.4163],[7.1937,46.3789],[7.2301,46.3619],[7.2215,46.3292],[7.2535,46.3307],[7.2623,46.3582],[7.3103,46.3752],[7.3158,46.3438],[7.4386,46.3861],[7.538,46.3772],[7.5553,46.389],[7.5339,46.4097],[7.5957,46.4112],[7.6261,46.4451],[7.7156,46.4148],[7.8447,46.4785],[7.9676,46.5128],[7.963,46.5394],[8.0148,46.5631],[8.1807,46.5203],[8.2581,46.5294],[8.3647,46.5825],[8.3714,46.6341],[8.4103,46.6529],[8.3996,46.6929],[8.4523,46.6887],[8.4466,46.7703],[8.3964,46.7655],[8.3689,46.7879],[8.2835,46.7532],[8.1898,46.7703],[8.1469,46.7548],[8.09,46.7876],[7.9757,46.7773],[7.8771,46.8371],[7.8573,46.8715],[7.8827,46.9035],[7.867,46.9148],[7.9317,46.9505],[7.9562,47.0034],[7.9018,47.0063],[7.8664,47.0498],[7.8816,47.0888],[7.8671,47.1195],[7.8906,47.1376],[7.8251,47.2656]],[[7.2302,46.94],[7.2348,46.9383],[7.2342,46.9294],[7.2308,46.9295],[7.2185,46.9243],[7.2154,46.9307],[7.2183,46.9314],[7.2175,46.9331],[7.2294,46.9369],[7.2282,46.9388],[7.2302,46.94]],[[7.6904,47.1528],[7.6744,47.154],[7.7008,47.1618],[7.6904,47.1528]]],[[[7.5583,47.3224],[7.5722,47.329],[7.5522,47.3453],[7.5278,47.3227],[7.5583,47.3224]]]]},"properties":{"iso3":"CHE","shapeId":"70761945B78940680080703","regionId":null,"name":"Bern"}},{"type":"Feature","geometry":{"type":"MultiPolygon","coordinates":[[[[6.773,46.7514],[6.7487,46.7318],[6.7624,46.7174],[6.7844,46.7354],[6.773,46.7514]]],[[[6.8488,46.7749],[6.7885,46.728],[6.8672,46.7271],[6.8821,46.7498],[6.8488,46.7749]]],[[[6.7798,46.853],[6.7419,46.8279],[6.7873,46.7996],[6.776,46.7898],[6.8254,46.7728],[6.8591,46.788],[6.911,46.7797],[6.9316,46.8053],[6.9049,46.8056],[6.9306,46.8532],[6.8919,46.865],[6.921,46.8713],[6.8657,46.9096],[6.7798,46.853]]],[[[7.2302,46.94],[7.2282,46.9388],[7.2294,46.9369],[7.2175,46.9331],[7.2183,46.9314],[7.2154,46.9307],[7.2185,46.9243],[7.2308,46.9295],[7.2342,46.9294],[7.2348,46.9383],[7.2302,46.94]]],[[[7.0402,46.9798],[7.063,46.9711],[7.0579,46.9386],[7.0934,46.9058],[7.0643,46.8871],[7.0703,46.8717],[7.0319,46.8478],[7.0357,46.8733],[6.9993,46.8743],[7.0095,46.889],[6.9867,46.9196],[6.9282,46.9534],[6.8962,46.9255],[6.9649,46.8654],[6.9582,46.8815],[6.9806,46.8818],[6.9928,46.8319],[6.9651,46.8282],[6.9571,46.7876],[6.9092,46.7588],[6.9406,46.7437],[6.8627,46.6809],[6.8673,46.6601],[6.8334,46.6622],[6.7969,46.6331],[6.7949,46.5753],[6.9016,46.5697],[6.8611,46.5307],[6.8253,46.5435],[6.8181,46.5165],[6.8489,46.4934],[6.8967,46.5204],[6.8957,46.5077],[6.9542,46.5019],[6.9875,46.4379],[7.0611,46.4873],[7.1228,46.4987],[7.1483,46.5285],[7.1922,46.5466],[7.2076,46.5329],[7.2814,46.5841],[7.308,46.5813],[7.3211,46.6546],[7.3573,46.6393],[7.3773,46.6563],[7.3802,46.6902],[7.3005,46.7221],[7.2905,46.772],[7.3312,46.8318],[7.3022,46.852],[7.3493,46.8533],[7.3534,46.8868],[7.1877,46.9004],[7.2127,46.9285],[7.1946,46.9629],[7.2357,46.9846],[7.2178,47.0064],[7.0402,46.9798]],[[7.1344,46.9194],[7.1197,46.9005],[7.1149,46.9158],[7.1344,46.9194]]]]},"properties":{"iso3":"CHE","shapeId":"70761945B87604960987122","regionId":"CHE.7_1","name":"Fribourg"}},{"type":"Feature","geometry":{"type":"MultiPolygon","coordinates":[[[[6.2196,46.3119],[6.1987,46.2844],[6.1258,46.3175],[6.1024,46.2849],[6.1208,46.248],[5.9734,46.2137],[5.9637,46.197],[5.9949,46.1818],[5.9568,46.1288],[5.9941,46.1446],[6.0354,46.1343],[6.0523,46.1513],[6.1364,46.1416],[6.2219,46.2007],[6.2947,46.2252],[6.3098,46.2562],[6.2602,46.2517],[6.2376,46.2776],[6.249,46.3019],[6.2196,46.3119]]],[[[6.1756,46.3513],[6.174,46.3489],[6.1718,46.3498],[6.1668,46.3431],[6.1713,46.3406],[6.1745,46.3469],[6.1817,46.3437],[6.1844,46.3458],[6.1756,46.3513]]],[[[6.2414,46.3437],[6.1711,46.3584],[6.2323,46.3304],[6.2414,46.3437]]]]},"properties":{"iso3":"CHE","shapeId":"70761945B83881285484717","regionId":null,"name":"Genève"}},{"type":"Feature","geometry":{"type":"Polygon","coordinates":[[[8.8771,46.8129],[8.9283,46.7965],[9.009,46.8112],[9.0611,46.8738],[9.1123,46.8506],[9.2489,46.9163],[9.2364,47.024],[9.1381,47.0391],[9.1903,47.0699],[9.1899,47.1237],[9.0681,47.13],[9.0056,47.174],[8.9916,47.1622],[8.9542,47.0943],[8.976,47.0857],[8.9481,47.0494],[8.893,47.0236],[8.9716,46.9599],[8.9632,46.9267],[8.9354,46.9199],[8.9578,46.8795],[8.8712,46.842],[8.8771,46.8129]]]},"properties":{"iso3":"CHE","shapeId":"70761945B11753136967749","regionId":"CHE.9_1","name":"Glarus"}},{"type":"Feature","geometry":{"type":"Polygon","coordinates":[[[8.8771,46.8129],[8.8277,46.7916],[8.8346,46.7669],[8.813,46.7373],[8.782,46.7283],[8.7661,46.7448],[8.743,46.7155],[8.6744,46.6921],[8.6786,46.6643],[8.6511,46.6346],[8.6787,46.616],[8.6787,46.5792],[8.8007,46.5633],[8.9037,46.5841],[8.9073,46.6157],[8.9528,46.6325],[8.9622,46.6026],[9.0341,46.6],[9.0221,46.5123],[9.0465,46.4807],[9.0854,46.4754],[9.1031,46.4127],[9.0539,46.2922],[9.0869,46.2143],[9.1594,46.1696],[9.1837,46.1704],[9.221,46.2291],[9.2484,46.2338],[9.2505,46.2665],[9.2993,46.3272],[9.2761,46.3678],[9.2803,46.4142],[9.2482,46.4332],[9.2782,46.4617],[9.2834,46.497],[9.3637,46.5093],[9.4117,46.4669],[9.4636,46.5089],[9.4491,46.4844],[9.4656,46.4695],[9.4613,46.3757],[9.4964,46.3643],[9.5426,46.306],[9.6187,46.2874],[9.677,46.3031],[9.7145,46.2929],[9.7369,46.3509],[9.7776,46.3349],[9.9068,46.3809],[9.9252,46.366],[9.958,46.3789],[9.9964,46.3511],[9.9799,46.3231],[10.0001,46.3132],[9.9959,46.2849],[10.0555,46.2659],[10.0438,46.2299],[10.0709,46.2172],[10.1323,46.2249],[10.1765,46.2583],[10.1044,46.3336],[10.1277,46.3777],[10.162,46.3875],[10.1619,46.4145],[10.1291,46.4318],[10.0802,46.4211],[10.0391,46.447],[10.0545,46.4647],[10.0439,46.5405],[10.1007,46.5827],[10.1024,46.6107],[10.2153,46.6169],[10.2399,46.6353],[10.2591,46.6102],[10.2461,46.575],[10.2874,46.5704],[10.2961,46.55],[10.4182,46.5513],[10.4528,46.5307],[10.4719,46.5431],[10.4921,46.6154],[10.4461,46.6413],[10.4023,46.6368],[10.3818,46.6843],[10.416,46.709],[10.4008,46.7338],[10.4427,46.7539],[10.4227,46.7882],[10.4577,46.816],[10.4893,46.9378],[10.4239,46.9589],[10.4271,46.9749],[10.3893,47.0005],[10.3465,46.9896],[10.3077,46.9473],[10.3161,46.9252],[10.2406,46.9314],[10.2327,46.8663],[10.1054,46.8409],[10.0178,46.9016],[9.8761,46.9346],[9.8707,46.9632],[9.8923,46.9904],[9.8763,47.0212],[9.8361,47.0125],[9.6818,47.0621],[9.5589,47.0484],[9.5398,47.0651],[9.4769,47.0546],[9.5456,46.9766],[9.4865,46.9355],[9.488,46.9123],[9.4489,46.8729],[9.2489,46.9163],[9.1123,46.8506],[9.0611,46.8738],[9.009,46.8112],[8.9283,46.7965],[8.8771,46.8129]]]},"properties":{"iso3":"CHE","shapeId":"70761945B85432491504073","regionId":"CHE.10_1","name":"Graubünden"}},{"type":"Feature","geometry":{"type":"Polygon","coordinates":[[[7.3273,47.44],[7.2466,47.4203],[7.2334,47.4386],[7.1702,47.443],[7.201,47.4943],[6.983,47.4946],[7.0022,47.4542],[6.9403,47.4333],[6.9384,47.4061],[6.9133,47.4046],[6.8793,47.3526],[7.0156,47.3729],[7.0624,47.3441],[7.01,47.3245],[7.0076,47.301],[6.941,47.2867],[6.9557,47.2431],[6.8409,47.1713],[6.872,47.1741],[6.8837,47.1504],[6.9522,47.1874],[6.9808,47.1743],[7.0598,47.2428],[7.1558,47.2475],[7.1431,47.2595],[7.1687,47.2747],[7.1638,47.2941],[7.2792,47.2842],[7.3786,47.315],[7.496,47.3021],[7.5583,47.3224],[7.5278,47.3227],[7.5522,47.3453],[7.5237,47.3721],[7.4117,47.3806],[7.4146,47.3942],[7.3273,47.44]]]},"properties":{"iso3":"CHE","shapeId":"70761945B19914004537681","regionId":"CHE.11_1","name":"Jura"}},{"type":"Feature","geometry":{"type":"Polygon","coordinates":[[[7.8387,47.2348],[7.8906,47.1376],[7.8671,47.1195],[7.8816,47.0888],[7.8664,47.0498],[7.9018,47.0063],[7.9562,47.0034],[7.9153,46.9346],[7.8727,46.9243],[7.8818,46.8997],[7.8573,46.8715],[7.8771,46.8371],[7.9757,46.7773],[8.0561,46.7929],[8.0645,46.8081],[8.0422,46.8365],[8.0698,46.8957],[8.0948,46.912],[8.1113,46.8927],[8.1647,46.9388],[8.1507,46.9579],[8.2289,46.97],[8.2281,46.9926],[8.3345,46.989],[8.3685,47.02],[8.3856,46.9983],[8.426,46.9981],[8.428,47.0172],[8.4736,46.9955],[8.5135,47.0126],[8.4414,47.0631],[8.3905,47.0613],[8.4204,47.1017],[8.45,47.1144],[8.4931,47.1002],[8.4937,47.1137],[8.3622,47.1461],[8.3003,47.2715],[8.2786,47.2821],[8.2286,47.2734],[8.2051,47.226],[8.1847,47.2224],[8.1559,47.2378],[8.1749,47.2535],[8.1244,47.2414],[8.0884,47.2629],[8.0158,47.2441],[7.9953,47.2816],[7.9506,47.2748],[7.9619,47.2541],[7.9335,47.2359],[7.8387,47.2348]]]},"properties":{"iso3":"CHE","shapeId":"70761945B29073934101403","regionId":null,"name":"Luzern"}},{"type":"Feature","geometry":{"type":"Polygon","coordinates":[[[6.8615,47.1656],[6.7027,47.0821],[6.6915,47.0667],[6.7192,47.0512],[6.6336,46.9982],[6.4965,46.9741],[6.4327,46.9287],[6.4646,46.8904],[6.46,46.8513],[6.6271,46.8887],[6.7208,46.9361],[6.7325,46.8683],[6.7798,46.853],[6.9282,46.9534],[7.0024,46.9869],[7.0403,46.9795],[7.0335,47.0303],[7.0877,47.0597],[7.0868,47.0857],[7.0287,47.1037],[7.0311,47.1273],[6.8669,47.0851],[6.8888,47.1311],[6.8615,47.1656]]]},"properties":{"iso3":"CHE","shapeId":"70761945B64873726514121","regionId":"CHE.13_1","name":"Neuchâtel"}},{"type":"Feature","geometry":{"type":"Polygon","coordinates":[[[8.3952,46.7715],[8.4264,46.7771],[8.3739,46.8162],[8.3641,46.8673],[8.382,46.872],[8.3748,46.8479],[8.4128,46.8698],[8.4202,46.852],[8.4708,46.8548],[8.4791,46.8825],[8.4583,46.8988],[8.5441,46.9279],[8.571,46.9902],[8.4966,46.9764],[8.4652,46.9843],[8.4691,47.0093],[8.428,47.0172],[8.426,46.9981],[8.3856,46.9983],[8.3685,47.02],[8.3345,46.989],[8.2655,46.9982],[8.2181,46.9811],[8.3072,46.9759],[8.3099,46.9522],[8.2883,46.9339],[8.3435,46.9149],[8.3221,46.8202],[8.3952,46.7715]]]},"properties":{"iso3":"CHE","shapeId":"70761945B45925471978558","regionId":"CHE.14_1","name":"Nidwalden"}},{"type":"Feature","geometry":{"type":"MultiPolygon","coordinates":[[[[8.4483,46.7634],[8.4914,46.7725],[8.4643,46.8005],[8.5069,46.8455],[8.4202,46.852],[8.4128,46.8698],[8.3748,46.8479],[8.3734,46.8745],[8.3615,46.8622],[8.3739,46.8162],[8.4264,46.7771],[8.3964,46.7655],[8.4483,46.7634]]],[[[8.3689,46.7879],[8.3221,46.8202],[8.3435,46.9149],[8.2883,46.9339],[8.3099,46.9522],[8.3013,46.9777],[8.1507,46.9579],[8.1647,46.9388],[8.1113,46.8927],[8.0948,46.912],[8.0698,46.8957],[8.0422,46.8365],[8.0645,46.8081],[8.0469,46.7871],[8.09,46.7876],[8.1469,46.7548],[8.1898,46.7703],[8.2835,46.7532],[8.3689,46.7879]]]]},"properties":{"iso3":"CHE","shapeId":"70761945B39944874342149","regionId":"CHE.15_1","name":"Obwalden"}},{"type":"Feature","geometry":{"type":"MultiPolygon","coordinates":[[[[8.5631,47.5994],[8.5336,47.5822],[8.5561,47.5524],[8.5957,47.6056],[8.5631,47.5994]]],[[[8.8754,47.6549],[8.8504,47.6818],[8.8727,47.7041],[8.8191,47.7128],[8.8067,47.7383],[8.7698,47.7184],[8.8101,47.6934],[8.7961,47.6753],[8.8754,47.6549]]],[[[8.728,47.6928],[8.7363,47.7163],[8.7112,47.7301],[8.7414,47.7482],[8.7273,47.7623],[8.6887,47.7584],[8.6569,47.8004],[8.6317,47.7582],[8.6186,47.7983],[8.568,47.8085],[8.5773,47.7817],[8.4841,47.7709],[8.4508,47.7402],[8.4549,47.7225],[8.4046,47.698],[8.4208,47.6839],[8.4122,47.6663],[8.466,47.6572],[8.4735,47.6384],[8.5318,47.6457],[8.5269,47.6605],[8.5544,47.6694],[8.6062,47.6687],[8.6251,47.6917],[8.6634,47.6858],[8.6764,47.6981],[8.6647,47.7134],[8.703,47.7146],[8.728,47.6928]]]]},"properties":{"iso3":"CHE","shapeId":"70761945B22837365779622","regionId":"CHE.17_1","name":"Schaffhausen"}},{"type":"Feature","geometry":{"type":"Polygon","coordinates":[[[9.0047,47.1733],[8.962,47.1795],[8.969,47.2173],[8.8412,47.2082],[8.7934,47.2226],[8.6942,47.1964],[8.6804,47.179],[8.7012,47.1509],[8.6414,47.0944],[8.5657,47.081],[8.45,47.1144],[8.3888,47.0697],[8.4414,47.0631],[8.5135,47.0217],[8.4652,46.9843],[8.5971,46.9902],[8.6044,46.952],[8.693,46.947],[8.7077,46.9172],[8.8107,46.9415],[8.8488,46.9128],[8.8536,46.8853],[8.9632,46.9267],[8.9716,46.9599],[8.893,47.0236],[8.9481,47.0494],[8.976,47.0857],[8.9539,47.0915],[8.9713,47.1046],[8.9674,47.1366],[9.0047,47.1733]]]},"properties":{"iso3":"CHE","shapeId":"70761945B29858350399599","regionId":"CHE.18_1","name":"Schwyz"}},{"type":"Feature","geometry":{"type":"MultiPolygon","coordinates":[[[[7.6904,47.1528],[7.7008,47.1618],[7.6744,47.154],[7.6904,47.1528]]],[[[7.376,47.4141],[7.4382,47.4127],[7.4556,47.4279],[7.4209,47.4459],[7.376,47.4141]]],[[[7.9568,47.4552],[7.955,47.4156],[7.8833,47.4061],[7.8788,47.3835],[7.8022,47.3611],[7.7853,47.3379],[7.7279,47.3689],[7.6442,47.3672],[7.6327,47.41],[7.6798,47.4175],[7.7099,47.4694],[7.6661,47.4969],[7.6073,47.4894],[7.6045,47.4704],[7.6261,47.4629],[7.6158,47.4328],[7.5689,47.4369],[7.5807,47.4147],[7.5252,47.4116],[7.5186,47.3882],[7.4434,47.4023],[7.4361,47.3781],[7.5237,47.3721],[7.5722,47.329],[7.5329,47.2945],[7.3404,47.2176],[7.3842,47.1601],[7.4498,47.1896],[7.497,47.1701],[7.4266,47.1411],[7.4402,47.1237],[7.3697,47.116],[7.3901,47.0923],[7.434,47.1005],[7.4545,47.0749],[7.4748,47.0862],[7.4613,47.1082],[7.5097,47.1255],[7.5258,47.1622],[7.6508,47.1499],[7.6746,47.1909],[7.6472,47.2018],[7.6406,47.2298],[7.5959,47.2456],[7.5801,47.2764],[7.6848,47.294],[7.7327,47.2591],[7.7862,47.2561],[7.8332,47.2679],[7.9078,47.3417],[7.9478,47.3325],[7.948,47.3171],[8.0011,47.3348],[8.0314,47.3837],[7.9632,47.4224],[7.9865,47.4332],[7.9743,47.4596],[7.9568,47.4552]]],[[[7.5105,47.5026],[7.4876,47.4821],[7.435,47.4981],[7.4208,47.4804],[7.4557,47.4734],[7.4548,47.4492],[7.5307,47.4612],[7.5362,47.4911],[7.5105,47.5026]]]]},"properties":{"iso3":"CHE","shapeId":"70761945B36749553910786","regionId":"CHE.19_1","name":"Solothurn"}},{"type":"Feature","geometry":{"type":"MultiPolygon","coordinates":[[[[9.3568,47.5114],[9.3535,47.5114],[9.3581,47.5081],[9.3591,47.5105],[9.3568,47.5114]]],[[[9.2489,46.9163],[9.4489,46.8729],[9.488,46.9123],[9.4865,46.9355],[9.5456,46.9766],[9.4718,47.0615],[9.5193,47.0966],[9.4898,47.1965],[9.6058,47.3519],[9.6738,47.3839],[9.6444,47.4341],[9.6586,47.4526],[9.5955,47.463],[9.562,47.4963],[9.5587,47.5419],[9.5069,47.5497],[9.397,47.475],[9.3665,47.4855],[9.374,47.5004],[9.3369,47.5013],[9.3564,47.5195],[9.3396,47.5315],[9.2688,47.5117],[9.3166,47.5096],[9.321,47.4908],[9.2987,47.4772],[9.2132,47.4789],[9.1692,47.504],[9.1185,47.4797],[9.0125,47.49],[9.0082,47.4724],[9.0626,47.4462],[8.9875,47.4297],[8.9887,47.4113],[8.9449,47.3781],[8.985,47.3194],[8.9337,47.2883],[8.9429,47.2674],[8.7965,47.2425],[8.8412,47.2082],[8.969,47.2173],[8.962,47.1795],[8.9949,47.1792],[9.0681,47.13],[9.1899,47.1237],[9.1903,47.0699],[9.1381,47.0391],[9.2364,47.024],[9.2489,46.9163]],[[9.6178,47.4377],[9.5883,47.4254],[9.6047,47.4141],[9.5096,47.3947],[9.4963,47.306],[9.4378,47.2507],[9.382,47.234],[9.2063,47.2764],[9.2243,47.2929],[9.2098,47.3209],[9.2333,47.3321],[9.1911,47.3625],[9.213,47.3651],[9.2326,47.398],[9.4038,47.4012],[9.4299,47.4096],[9.435,47.4343],[9.5424,47.469],[9.6297,47.4444],[9.6178,47.4377]],[[9.4576,47.5073],[9.4835,47.4938],[9.453,47.49],[9.4576,47.5073]]]]},"properties":{"iso3":"CHE","shapeId":"70761945B27205007293794","regionId":"CHE.16_1","name":"St. Gallen"}},{"type":"Feature","geometry":{"type":"MultiPolygon","coordinates":[[[[9.4576,47.5073],[9.453,47.49],[9.4835,47.4938],[9.4576,47.5073]]],[[[8.7961,47.6753],[8.6901,47.6954],[8.668,47.6771],[8.7087,47.6419],[8.7472,47.6386],[8.7885,47.6654],[8.8264,47.6467],[8.8028,47.6011],[8.7481,47.623],[8.7394,47.608],[8.851,47.5636],[8.8279,47.556],[8.8408,47.5327],[8.8983,47.5242],[8.8977,47.4851],[8.881,47.4748],[8.9068,47.4388],[8.9327,47.4355],[8.9078,47.4313],[8.9035,47.4021],[8.9435,47.3759],[8.9887,47.4113],[8.9875,47.4297],[9.0626,47.4462],[9.0082,47.4724],[9.0125,47.49],[9.1185,47.4797],[9.1692,47.504],[9.2132,47.4789],[9.2987,47.4772],[9.321,47.4908],[9.3166,47.5096],[9.2688,47.5117],[9.3396,47.5315],[9.3564,47.5195],[9.3369,47.5013],[9.374,47.5004],[9.3665,47.4855],[9.397,47.475],[9.5069,47.5497],[9.3947,47.6203],[9.2566,47.6587],[9.176,47.654],[9.0238,47.6869],[8.8982,47.6482],[8.7961,47.6753]],[[9.3568,47.5114],[9.3591,47.5105],[9.3581,47.5081],[9.3535,47.5114],[9.3568,47.5114]]]]},"properties":{"iso3":"CHE","shapeId":"70761945B73326014959541","regionId":"CHE.20_1","name":"Thurgau"}},{"type":"Feature","geometry":{"type":"Polygon","coordinates":[[[8.6787,46.5792],[8.6408,46.5641],[8.5314,46.5846],[8.5195,46.5389],[8.4826,46.5324],[8.4431,46.4954],[8.3924,46.4946],[8.3847,46.4522],[8.4457,46.4637],[8.4659,46.4444],[8.4654,46.3339],[8.4277,46.2983],[8.4559,46.2638],[8.4445,46.2489],[8.5324,46.2183],[8.5736,46.1643],[8.6032,46.1553],[8.5927,46.1429],[8.6118,46.1217],[8.714,46.0972],[8.7423,46.1223],[8.76,46.1016],[8.806,46.1013],[8.8521,46.0756],[8.7859,45.9891],[8.8937,45.959],[8.8933,45.9312],[8.9453,45.867],[8.9121,45.8304],[8.9562,45.8434],[9.0316,45.8209],[9.089,45.9007],[9.0194,45.9284],[9.014,45.9605],[8.9883,45.9726],[9.0285,45.9936],[9.0095,46.0373],[9.0783,46.0653],[9.0896,46.087],[9.0725,46.1181],[9.1594,46.1696],[9.0869,46.2143],[9.0539,46.2922],[9.1031,46.4127],[9.0854,46.4754],[9.0465,46.4807],[9.0221,46.5123],[9.0428,46.5888],[9.0062,46.6109],[8.9622,46.6026],[8.9528,46.6325],[8.9073,46.6157],[8.9112,46.5887],[8.8432,46.5634],[8.6787,46.5792]],[[8.9685,45.9619],[8.9682,45.963],[8.9585,45.9648],[8.9671,45.9841],[8.9774,45.9829],[8.9763,45.9759],[8.9772,45.9719],[8.9794,45.971],[8.9756,45.9616],[8.9685,45.9619]]]},"properties":{"iso3":"CHE","shapeId":"70761945B95773795125249","regionId":"CHE.21_1","name":"Ticino"}},{"type":"Feature","geometry":{"type":"Polygon","coordinates":[[[8.4103,46.6529],[8.4224,46.6273],[8.4061,46.586],[8.4453,46.5368],[8.5195,46.5389],[8.5136,46.5592],[8.5392,46.5868],[8.6573,46.5691],[8.6819,46.5885],[8.6767,46.62],[8.6511,46.6346],[8.6786,46.6643],[8.6744,46.6921],[8.743,46.7155],[8.7661,46.7448],[8.782,46.7283],[8.813,46.7373],[8.8346,46.7669],[8.8277,46.7916],[8.8739,46.8086],[8.8712,46.842],[8.9559,46.8753],[8.9534,46.9007],[8.9354,46.9199],[8.8536,46.8853],[8.8488,46.9128],[8.8107,46.9415],[8.7077,46.9172],[8.693,46.947],[8.6044,46.952],[8.6031,46.9868],[8.571,46.9902],[8.5441,46.9279],[8.4583,46.8988],[8.4791,46.8825],[8.4708,46.8548],[8.5069,46.8455],[8.4643,46.8005],[8.4914,46.7725],[8.439,46.7524],[8.4523,46.6887],[8.3996,46.6929],[8.4103,46.6529]]]},"properties":{"iso3":"CHE","shapeId":"70761945B76174754463268","regionId":"CHE.22_1","name":"Uri"}},{"type":"Feature","geometry":{"type":"Polygon","coordinates":[[[7.2215,46.3292],[7.1891,46.3039],[7.1884,46.2707],[7.1063,46.211],[7.0332,46.1871],[6.9371,46.2975],[6.9301,46.33],[6.8945,46.3416],[6.8848,46.3761],[6.8211,46.4272],[6.8054,46.3784],[6.771,46.3538],[6.8649,46.2802],[6.8035,46.2046],[6.8126,46.1815],[6.7903,46.154],[6.8151,46.1293],[6.8999,46.1239],[6.8717,46.0512],[6.8913,46.0427],[6.9373,46.0643],[7.0105,45.9974],[7.0236,45.9791],[7.0085,45.969],[7.0374,45.9549],[7.0437,45.9232],[7.1011,45.8593],[7.1535,45.8793],[7.1906,45.8587],[7.2164,45.8888],[7.2568,45.8882],[7.2944,45.9218],[7.3863,45.8971],[7.4992,45.9624],[7.5427,45.957],[7.5501,45.9866],[7.5886,45.9705],[7.6643,45.9757],[7.7212,45.9236],[7.7478,45.941],[7.7995,45.9171],[7.8641,45.9167],[7.8774,45.9739],[7.9087,45.9969],[7.9891,45.9959],[8.0124,46.012],[8.0354,46.044],[8.0217,46.0694],[8.0348,46.1008],[8.1082,46.1116],[8.1553,46.1476],[8.1655,46.1822],[8.0859,46.2666],[8.1374,46.3017],[8.212,46.3093],[8.2638,46.364],[8.3129,46.3771],[8.3157,46.399],[8.2889,46.4081],[8.3038,46.4233],[8.3847,46.4522],[8.3924,46.4946],[8.4431,46.4954],[8.4776,46.5276],[8.4293,46.5433],[8.4061,46.586],[8.422,46.6479],[8.399,46.654],[8.3714,46.6341],[8.3506,46.5684],[8.2581,46.5294],[8.1807,46.5203],[8.0148,46.5631],[7.963,46.5394],[7.9676,46.5128],[7.8447,46.4785],[7.7156,46.4148],[7.6261,46.4451],[7.5957,46.4112],[7.5339,46.4097],[7.5553,46.389],[7.538,46.3772],[7.4386,46.3861],[7.3158,46.3438],[7.3103,46.3752],[7.2623,46.3582],[7.2535,46.3307],[7.2215,46.3292]]]},"properties":{"iso3":"CHE","shapeId":"70761945B38573473865054","regionId":"CHE.23_1","name":"Valais"}},{"type":"Feature","geometry":{"type":"MultiPolygon","coordinates":[[[[7.2371,46.5538],[7.2076,46.5329],[7.1922,46.5466],[7.1483,46.5285],[7.1228,46.4987],[7.0611,46.4873],[6.9875,46.4379],[6.9542,46.5019],[6.8957,46.5077],[6.8967,46.5204],[6.8417,46.4968],[6.8109,46.5252],[6.8183,46.5365],[6.8611,46.5307],[6.9016,46.5697],[6.7949,46.5753],[6.7985,46.6486],[6.8673,46.6601],[6.8627,46.6809],[6.9356,46.7332],[6.938,46.7495],[6.9082,46.7572],[6.9571,46.7876],[6.9651,46.8282],[6.9928,46.8319],[6.9776,46.8499],[6.9889,46.8735],[6.9621,46.8841],[6.9649,46.8654],[6.8962,46.9255],[6.8657,46.9096],[6.921,46.8713],[6.8919,46.865],[6.9306,46.8532],[6.9049,46.8056],[6.9316,46.8053],[6.911,46.7797],[6.8591,46.788],[6.8254,46.7728],[6.776,46.7898],[6.7873,46.7996],[6.7419,46.8279],[6.7798,46.853],[6.7325,46.8683],[6.7208,46.9361],[6.6271,46.8887],[6.46,46.8513],[6.431,46.8124],[6.4584,46.7888],[6.4382,46.7618],[6.282,46.6907],[6.1265,46.5899],[6.1105,46.5764],[6.1567,46.5453],[6.0728,46.4654],[6.0864,46.4439],[6.0639,46.4164],[6.1593,46.3797],[6.1699,46.3661],[6.1258,46.3175],[6.1987,46.2844],[6.2323,46.3304],[6.1744,46.3624],[6.2414,46.3437],[6.3352,46.4037],[6.4256,46.4158],[6.5191,46.4564],[6.6819,46.4543],[6.8211,46.4272],[6.8848,46.3761],[6.8945,46.3416],[6.9301,46.33],[6.9371,46.2975],[7.0332,46.1871],[7.1063,46.211],[7.1884,46.2707],[7.1891,46.3039],[7.2215,46.3292],[7.2301,46.3619],[7.1937,46.3789],[7.2099,46.4163],[7.1925,46.4352],[7.2323,46.4539],[7.2241,46.4869],[7.2492,46.5211],[7.2371,46.5538]],[[6.773,46.7514],[6.7844,46.7354],[6.7624,46.7174],[6.7487,46.7318],[6.773,46.7514]],[[6.8488,46.7749],[6.8821,46.7498],[6.8672,46.7271],[6.7885,46.728],[6.8488,46.7749]],[[6.1756,46.3513],[6.1844,46.3458],[6.1817,46.3437],[6.1745,46.3469],[6.1713,46.3406],[6.1668,46.3431],[6.1718,46.3498],[6.174,46.3489],[6.1756,46.3513]]],[[[7.0403,46.9795],[7.0024,46.9869],[6.9282,46.9534],[6.9867,46.9196],[7.0095,46.889],[6.9993,46.8743],[7.0357,46.8733],[7.0375,46.8455],[7.0934,46.9058],[7.0579,46.9386],[7.063,46.9711],[7.0403,46.9795]]]]},"properties":{"iso3":"CHE","shapeId":"70761945B85268669280160","regionId":"CHE.24_1","name":"Vaud"}},{"type":"Feature","geometry":{"type":"Polygon","coordinates":[[[8.4122,47.1406],[8.4178,47.1224],[8.4804,47.1263],[8.4931,47.1002],[8.5657,47.081],[8.6449,47.0959],[8.7012,47.1509],[8.6247,47.1727],[8.5827,47.2179],[8.4733,47.2085],[8.4217,47.2233],[8.4101,47.2484],[8.3948,47.2257],[8.4122,47.1406]]]},"properties":{"iso3":"CHE","shapeId":"70761945B70106229378933","regionId":"CHE.25_1","name":"Zug"}},{"type":"Feature","geometry":{"type":"Polygon","coordinates":[[[8.4101,47.2484],[8.4217,47.2233],[8.4733,47.2085],[8.5827,47.2179],[8.6247,47.1727],[8.675,47.1594],[8.7041,47.2023],[8.8086,47.2201],[8.8027,47.2467],[8.9331,47.2589],[8.9488,47.2809],[8.9337,47.2883],[8.985,47.3194],[8.9416,47.3873],[8.9035,47.4021],[8.9078,47.4313],[8.9327,47.4355],[8.9068,47.4388],[8.881,47.4748],[8.8977,47.4851],[8.8983,47.5242],[8.8408,47.5327],[8.8279,47.556],[8.851,47.5636],[8.7394,47.608],[8.7481,47.623],[8.8028,47.6011],[8.8264,47.6467],[8.7885,47.6654],[8.7472,47.6386],[8.7087,47.6419],[8.6433,47.6944],[8.6062,47.6687],[8.6289,47.6497],[8.5959,47.6431],[8.6052,47.6148],[8.5593,47.5533],[8.5336,47.5822],[8.5745,47.612],[8.5167,47.6341],[8.4567,47.6023],[8.4947,47.581],[8.4188,47.5652],[8.4174,47.5459],[8.3612,47.5101],[8.3657,47.4662],[8.3869,47.4496],[8.3751,47.4307],[8.3923,47.4217],[8.3628,47.4016],[8.3966,47.3939],[8.4132,47.3264],[8.4551,47.3341],[8.4291,47.3007],[8.3886,47.29],[8.4101,47.2484]]]},"properties":{"iso3":"CHE","shapeId":"70761945B4468941998498","regionId":"CHE.26_1","name":"Zurich"}}]}