{"type":"FeatureCollection","features":[{"type":"Feature","geometry":{"type":"Polygon","coordinates":[[[14.3023,50.1298],[14.2245,50.1028],[14.2894,50.0771],[14.2481,50.0583],[14.3159,50.0236],[14.2948,50.0022],[14.3428,49.9906],[14.3268,49.9719],[14.3449,49.9676],[14.3254,49.9572],[14.3956,49.9419],[14.4006,49.9707],[14.4622,49.9708],[14.5275,50.0108],[14.5824,50.0164],[14.6402,49.9944],[14.6695,50.0188],[14.6402,50.0569],[14.7068,50.087],[14.6574,50.1065],[14.6591,50.1226],[14.6005,50.1295],[14.599,50.1541],[14.5342,50.1616],[14.5325,50.1772],[14.3657,50.148],[14.3608,50.116],[14.3023,50.1298]]]},"properties":{"iso3":"CZE","shapeId":"73172107B16313596965023","regionId":"CZE.11_1","name":"Prague"}},{"type":"Feature","geometry":{"type":"Polygon","coordinates":[[[15.4971,49.8611],[15.4977,49.8979],[15.5355,49.9274],[15.516,49.9411],[15.5315,49.9617],[15.4611,49.9872],[15.4688,50.0069],[15.3628,50.0411],[15.4026,50.0465],[15.3753,50.0557],[15.4126,50.0631],[15.4043,50.086],[15.428,50.0881],[15.3991,50.0955],[15.4372,50.1017],[15.448,50.1246],[15.3487,50.1448],[15.3974,50.1979],[15.3708,50.2267],[15.3777,50.2849],[15.3511,50.3009],[15.3068,50.2812],[15.2287,50.2878],[15.2067,50.2967],[15.2163,50.3198],[15.181,50.3282],[15.1887,50.3399],[15.1298,50.3458],[15.1313,50.3636],[15.1042,50.3761],[15.1441,50.3876],[15.137,50.404],[15.1623,50.4273],[15.1296,50.4505],[15.1447,50.475],[15.1136,50.5065],[15.1469,50.5227],[15.0976,50.5346],[15.0642,50.571],[15.0395,50.5655],[15.0045,50.604],[14.9578,50.5937],[14.9236,50.6188],[14.8953,50.6018],[14.9087,50.5865],[14.8471,50.572],[14.8593,50.5563],[14.8268,50.5383],[14.7504,50.5568],[14.754,50.5188],[14.7255,50.5199],[14.6923,50.4799],[14.5898,50.4737],[14.5785,50.511],[14.5471,50.4958],[14.5103,50.5096],[14.501,50.4919],[14.4693,50.5093],[14.4548,50.4965],[14.4732,50.4493],[14.4235,50.4533],[14.4164,50.4207],[14.3598,50.4298],[14.3796,50.3951],[14.3671,50.352],[14.2745,50.3547],[14.2506,50.3284],[14.0076,50.3463],[13.9815,50.3338],[13.9913,50.3037],[13.9523,50.3072],[13.9515,50.2881],[13.8778,50.2702],[13.8636,50.2438],[13.8123,50.2635],[13.7514,50.2237],[13.6716,50.2225],[13.6695,50.2383],[13.6077,50.1918],[13.5356,50.189],[13.4882,50.1661],[13.4928,50.128],[13.4707,50.1324],[13.4629,50.1055],[13.4044,50.098],[13.4299,50.0609],[13.3967,50.038],[13.5205,50.0406],[13.5374,50.0286],[13.5012,50.0221],[13.5687,49.9945],[13.6564,50.0018],[13.6991,49.962],[13.748,49.9661],[13.7431,49.9405],[13.8332,49.9278],[13.8182,49.9089],[13.8343,49.8677],[13.8083,49.8679],[13.809,49.8124],[13.7891,49.8015],[13.7999,49.7815],[13.7816,49.7598],[13.8128,49.7609],[13.8404,49.6966],[13.7872,49.6815],[13.7638,49.6546],[13.7734,49.6379],[13.7408,49.6222],[13.7539,49.6152],[13.737,49.5448],[13.7649,49.5463],[13.7657,49.5139],[13.7821,49.509],[13.8675,49.5257],[13.932,49.5013],[13.999,49.5194],[14.0098,49.5513],[14.0618,49.5629],[14.0742,49.5295],[14.2083,49.5317],[14.2267,49.5618],[14.2659,49.5679],[14.3546,49.5241],[14.4136,49.5368],[14.4059,49.5578],[14.4669,49.5315],[14.4774,49.5461],[14.561,49.5311],[14.5893,49.5442],[14.5735,49.5216],[14.648,49.5031],[14.6938,49.5443],[14.738,49.549],[14.7241,49.5925],[14.7663,49.6211],[14.8451,49.5761],[14.8777,49.5869],[14.9099,49.5431],[14.9464,49.5567],[14.9396,49.5798],[14.9933,49.5818],[14.969,49.5958],[14.9818,49.606],[15.0559,49.5941],[15.1175,49.6104],[15.1649,49.5889],[15.171,49.6141],[15.2498,49.6301],[15.2347,49.6652],[15.1799,49.6758],[15.182,49.7103],[15.2171,49.7259],[15.225,49.757],[15.3463,49.7694],[15.3822,49.7999],[15.4251,49.7925],[15.439,49.8043],[15.4164,49.8277],[15.4971,49.8611]],[[14.3023,50.1298],[14.3608,50.116],[14.3657,50.148],[14.5325,50.1772],[14.5342,50.1616],[14.599,50.1541],[14.6005,50.1295],[14.6591,50.1226],[14.6574,50.1065],[14.7068,50.087],[14.6402,50.0569],[14.6695,50.0188],[14.6402,49.9944],[14.5824,50.0164],[14.5275,50.0108],[14.4622,49.9708],[14.4006,49.9707],[14.3956,49.9419],[14.3254,49.9572],[14.3449,49.9676],[14.3268,49.9719],[14.3428,49.9906],[14.2948,50.0022],[14.3159,50.0236],[14.2481,50.0583],[14.2894,50.0771],[14.2245,50.1028],[14.3023,50.1298]]]},"properties":{"iso3":"CZE","shapeId":"73172107B58641114734330","regionId":"CZE.12_1","name":"Central Bohemia Region"}},{"type":"Feature","geometry":{"type":"Polygon","coordinates":[[[13.7657,49.5139],[13.7478,49.4867],[13.7689,49.4828],[13.7641,49.4526],[13.7906,49.435],[13.7586,49.3991],[13.7915,49.3684],[13.7701,49.3234],[13.7222,49.3105],[13.7309,49.2802],[13.6984,49.2787],[13.7079,49.2579],[13.7335,49.2566],[13.6888,49.2282],[13.7199,49.1948],[13.6917,49.1872],[13.6897,49.1599],[13.6591,49.1605],[13.6298,49.1357],[13.5888,49.1464],[13.5981,49.1088],[13.5794,49.1042],[13.6071,49.0645],[13.557,49.0382],[13.536,48.9857],[13.6102,48.9386],[13.6286,48.9492],[13.6714,48.8801],[13.7379,48.886],[13.7644,48.8345],[13.7929,48.8301],[13.8152,48.7971],[13.8132,48.774],[13.8761,48.7666],[14.0595,48.6738],[14.0535,48.6529],[14.0106,48.6397],[14.0481,48.6274],[14.0422,48.6129],[14.067,48.5949],[14.2715,48.5814],[14.3332,48.5518],[14.3577,48.5746],[14.3881,48.5719],[14.3862,48.5927],[14.4314,48.5891],[14.456,48.6251],[14.4438,48.6434],[14.4699,48.6485],[14.5033,48.6174],[14.5621,48.6033],[14.6105,48.6281],[14.6635,48.582],[14.7015,48.5827],[14.7211,48.6024],[14.7123,48.6501],[14.727,48.6871],[14.8081,48.7339],[14.8087,48.7788],[14.9558,48.7581],[14.9808,48.7753],[14.9532,48.7951],[14.9845,48.8424],[14.9729,48.8747],[14.9929,48.904],[14.9762,48.971],[14.9959,49.0151],[15.1563,48.9933],[15.1602,48.9417],[15.2616,48.9536],[15.2789,48.9947],[15.4685,48.9518],[15.5424,48.9077],[15.5868,48.947],[15.5803,48.9657],[15.5234,48.9761],[15.5281,48.995],[15.4873,48.9969],[15.5337,49.0254],[15.5249,49.037],[15.5458,49.0425],[15.5532,49.0771],[15.5978,49.0765],[15.5902,49.1044],[15.5497,49.1148],[15.5675,49.1289],[15.4684,49.1196],[15.4413,49.133],[15.4238,49.1176],[15.3372,49.1668],[15.3415,49.2183],[15.2532,49.2065],[15.1915,49.2365],[15.1665,49.216],[15.1393,49.2211],[15.1237,49.2478],[15.075,49.2519],[15.1008,49.249],[15.1037,49.2701],[15.0622,49.2722],[15.0299,49.2966],[14.9788,49.2772],[14.9242,49.3104],[14.9038,49.3331],[14.933,49.3563],[14.8882,49.376],[14.9336,49.484],[14.9013,49.5145],[14.945,49.5276],[14.932,49.5494],[14.8914,49.5532],[14.8688,49.5915],[14.8451,49.5761],[14.7663,49.6211],[14.7241,49.5925],[14.738,49.549],[14.6938,49.5443],[14.648,49.5031],[14.5735,49.5216],[14.5893,49.5442],[14.561,49.5311],[14.4774,49.5461],[14.4669,49.5315],[14.4059,49.5578],[14.4136,49.5368],[14.3546,49.5241],[14.2659,49.5679],[14.2267,49.5618],[14.2083,49.5317],[14.1255,49.5281],[14.0742,49.5295],[14.0762,49.5564],[14.0389,49.5601],[14.0098,49.5513],[14.0052,49.5226],[13.932,49.5013],[13.8675,49.5257],[13.7657,49.5139]]]},"properties":{"iso3":"CZE","shapeId":"73172107B46425968394697","regionId":"CZE.1_1","name":"South Bohemia Region"}},{"type":"Feature","geometry":{"type":"Polygon","coordinates":[[[13.4068,50.0896],[13.3721,50.0769],[13.3571,50.1043],[13.3337,50.0866],[13.3247,50.1034],[13.2817,50.0983],[13.2769,50.0766],[13.2991,50.0703],[13.2308,50.0492],[13.2318,49.996],[13.0969,50.0351],[13.0004,49.9779],[12.9599,49.9758],[12.9667,49.9436],[12.9282,49.9208],[12.7927,49.941],[12.7029,49.9259],[12.7128,49.9123],[12.6735,49.9081],[12.6758,49.8904],[12.6493,49.916],[12.5948,49.8928],[12.5507,49.9053],[12.498,49.8375],[12.4731,49.8337],[12.4726,49.7861],[12.4006,49.7538],[12.4425,49.7038],[12.522,49.6864],[12.5281,49.6181],[12.5607,49.6196],[12.5885,49.5385],[12.6442,49.523],[12.6336,49.4761],[12.6556,49.4348],[12.7577,49.3948],[12.7858,49.3455],[12.8868,49.3323],[12.88,49.3504],[12.9428,49.3442],[13.0291,49.3043],[13.034,49.2639],[13.1709,49.1736],[13.1828,49.1345],[13.3361,49.0938],[13.3963,49.0515],[13.4027,48.9872],[13.5083,48.9421],[13.5071,48.9691],[13.5509,48.9676],[13.536,48.9857],[13.557,49.0382],[13.6032,49.0545],[13.5794,49.1042],[13.5981,49.1088],[13.5888,49.1464],[13.6298,49.1357],[13.694,49.1637],[13.6917,49.1872],[13.7199,49.1948],[13.6888,49.2282],[13.7335,49.2566],[13.7079,49.2579],[13.6984,49.2787],[13.7309,49.2802],[13.7222,49.3105],[13.7701,49.3234],[13.7906,49.3637],[13.7586,49.3991],[13.7906,49.435],[13.7641,49.4526],[13.7689,49.4828],[13.7478,49.4867],[13.7724,49.5358],[13.737,49.5448],[13.7539,49.6152],[13.7408,49.6222],[13.7734,49.6379],[13.7638,49.6546],[13.7872,49.6815],[13.8404,49.6966],[13.8128,49.7609],[13.7816,49.7598],[13.7999,49.7815],[13.7891,49.8015],[13.809,49.8124],[13.8083,49.8679],[13.8343,49.8677],[13.8182,49.9089],[13.8332,49.9278],[13.7431,49.9405],[13.748,49.9661],[13.6991,49.962],[13.6564,50.0018],[13.5687,49.9945],[13.5012,50.0221],[13.5374,50.0286],[13.5205,50.0406],[13.3998,50.0319],[13.4138,50.0624],[13.4299,50.0609],[13.4068,50.0896]]]},"properties":{"iso3":"CZE","shapeId":"73172107B93878397098511","regionId":"CZE.10_1","name":"The Plzen Region"}},{"type":"Feature","geometry":{"type":"Polygon","coordinates":[[[13.3018,50.0993],[13.2739,50.1281],[13.2281,50.134],[13.2838,50.1365],[13.2649,50.1574],[13.2871,50.1681],[13.2119,50.2161],[13.2555,50.2291],[13.2233,50.2396],[13.2333,50.2727],[13.1992,50.2798],[13.2344,50.2965],[13.2221,50.3525],[13.1335,50.36],[13.1148,50.3452],[13.0931,50.3547],[13.1087,50.3722],[13.0972,50.3825],[12.9743,50.3893],[12.819,50.4603],[12.8105,50.4309],[12.7949,50.4494],[12.7345,50.4323],[12.7071,50.3971],[12.6733,50.4168],[12.512,50.3973],[12.4895,50.3498],[12.3984,50.3214],[12.3996,50.2937],[12.3526,50.2627],[12.3592,50.2421],[12.3313,50.2424],[12.3321,50.1713],[12.2894,50.1769],[12.2747,50.1965],[12.2939,50.221],[12.2395,50.2462],[12.2659,50.2502],[12.2538,50.271],[12.2013,50.2728],[12.1846,50.3222],[12.1065,50.3225],[12.1401,50.2778],[12.0906,50.2524],[12.1511,50.2357],[12.1597,50.2112],[12.1971,50.1991],[12.216,50.1682],[12.1952,50.1432],[12.2008,50.1087],[12.2754,50.0765],[12.2616,50.0581],[12.3173,50.0534],[12.3259,50.0328],[12.4316,50.0025],[12.4315,49.9844],[12.49,49.9816],[12.4783,49.9355],[12.5948,49.8928],[12.6493,49.916],[12.683,49.8915],[12.6735,49.9081],[12.7128,49.9123],[12.7029,49.9259],[12.7927,49.941],[12.9282,49.9208],[12.9667,49.9436],[12.9599,49.9758],[13.0004,49.9779],[13.0969,50.0351],[13.2318,49.996],[13.2308,50.0492],[13.2929,50.0602],[13.2817,50.0983],[13.3018,50.0993]]]},"properties":{"iso3":"CZE","shapeId":"73172107B80386947470046","regionId":"CZE.3_1","name":"The Karlovy Vary Region"}},{"type":"Feature","geometry":{"type":"Polygon","coordinates":[[[14.4864,50.505],[14.4398,50.5301],[14.3428,50.6674],[14.379,50.6908],[14.3762,50.7208],[14.4312,50.7364],[14.4168,50.7414],[14.4276,50.7667],[14.4582,50.7785],[14.4429,50.8112],[14.5607,50.7998],[14.5673,50.8381],[14.6083,50.8433],[14.6523,50.9259],[14.5644,50.9186],[14.5991,50.9872],[14.4986,51.0221],[14.5002,51.0465],[14.4927,51.0234],[14.4538,51.0359],[14.4086,51.0188],[14.3017,51.055],[14.2739,51.0398],[14.2864,51.0275],[14.2587,50.9875],[14.3235,50.9854],[14.3282,50.9731],[14.3026,50.9653],[14.3114,50.954],[14.397,50.9363],[14.388,50.8992],[14.3048,50.8839],[14.2674,50.8953],[14.2334,50.8876],[14.2235,50.8591],[14.0785,50.8125],[14.0299,50.8043],[13.9907,50.82],[13.939,50.7899],[13.9008,50.7934],[13.8873,50.7701],[13.8988,50.7451],[13.8549,50.727],[13.7583,50.7358],[13.7067,50.7167],[13.6647,50.7321],[13.5519,50.7137],[13.5252,50.7044],[13.5444,50.6775],[13.5128,50.6538],[13.5243,50.639],[13.4649,50.6018],[13.3711,50.6508],[13.3773,50.6273],[13.3248,50.6084],[13.3232,50.5811],[13.2484,50.5921],[13.1953,50.5032],[13.1326,50.5186],[13.0853,50.5002],[13.0317,50.5098],[13.0199,50.4466],[12.941,50.4072],[12.9743,50.3893],[13.0972,50.3825],[13.1087,50.3722],[13.0931,50.3547],[13.1148,50.3452],[13.1335,50.36],[13.2221,50.3525],[13.2344,50.2965],[13.1992,50.2798],[13.2333,50.2727],[13.2233,50.2396],[13.2555,50.2291],[13.2119,50.2161],[13.2871,50.1681],[13.2649,50.1574],[13.2838,50.1365],[13.2281,50.134],[13.2739,50.1281],[13.297,50.0994],[13.3247,50.1034],[13.324,50.0874],[13.3571,50.1043],[13.3721,50.0769],[13.4254,50.1092],[13.4629,50.1055],[13.4707,50.1324],[13.4928,50.128],[13.4882,50.1661],[13.5356,50.189],[13.6077,50.1918],[13.6695,50.2383],[13.6716,50.2225],[13.7514,50.2237],[13.8123,50.2635],[13.8636,50.2438],[13.8778,50.2702],[13.9515,50.2881],[13.9523,50.3072],[13.9913,50.3037],[13.9815,50.3338],[14.0076,50.3463],[14.2506,50.3284],[14.2745,50.3547],[14.3671,50.352],[14.3796,50.3951],[14.3598,50.4298],[14.4164,50.4207],[14.4235,50.4533],[14.4732,50.4493],[14.4548,50.4965],[14.4864,50.505]]]},"properties":{"iso3":"CZE","shapeId":"73172107B34062378650272","regionId":"CZE.13_1","name":"The Usti Region"}},{"type":"Feature","geometry":{"type":"Polygon","coordinates":[[[15.1469,50.5227],[15.2232,50.4942],[15.2658,50.5256],[15.368,50.4948],[15.3795,50.5086],[15.3924,50.4798],[15.4416,50.4872],[15.4539,50.5012],[15.4365,50.5217],[15.48,50.5326],[15.478,50.547],[15.5364,50.5131],[15.6326,50.5254],[15.5711,50.5812],[15.6021,50.6144],[15.5651,50.6373],[15.5838,50.6526],[15.5615,50.6823],[15.5691,50.7439],[15.5393,50.7575],[15.5352,50.7794],[15.4388,50.8091],[15.3737,50.7781],[15.3673,50.838],[15.2771,50.891],[15.2678,50.9325],[15.2922,50.9526],[15.2741,50.9795],[15.2366,50.9987],[15.1799,50.983],[15.1718,51.02],[15.129,50.9901],[15.061,51.0229],[14.9854,51.0108],[14.9682,50.99],[15.0217,50.9671],[14.9895,50.9216],[15.0068,50.9072],[15.0019,50.8688],[14.8295,50.8727],[14.8002,50.8231],[14.7665,50.8192],[14.6189,50.8578],[14.5673,50.8381],[14.5607,50.7998],[14.5409,50.7942],[14.4429,50.8112],[14.4582,50.7785],[14.4276,50.7667],[14.4168,50.7414],[14.4312,50.7364],[14.3762,50.7208],[14.379,50.6908],[14.3428,50.6674],[14.4398,50.5301],[14.4731,50.5252],[14.501,50.4919],[14.5103,50.5096],[14.5471,50.4958],[14.5785,50.511],[14.5898,50.4737],[14.6923,50.4799],[14.7255,50.5199],[14.754,50.5188],[14.7504,50.5568],[14.8268,50.5383],[14.8593,50.5563],[14.8471,50.572],[14.9087,50.5865],[14.8953,50.6018],[14.9174,50.6068],[14.912,50.619],[14.968,50.592],[15.0045,50.604],[15.0395,50.5655],[15.0642,50.571],[15.0976,50.5346],[15.1469,50.5227]]]},"properties":{"iso3":"CZE","shapeId":"73172107B98776772787889","regionId":"CZE.6_1","name":"The Liberec Region"}},{"type":"Feature","geometry":{"type":"Polygon","coordinates":[[[15.4374,50.1099],[15.4698,50.0996],[15.57,50.1504],[15.5864,50.1333],[15.6897,50.1257],[15.7762,50.1757],[15.8043,50.168],[15.8047,50.1402],[15.8373,50.1319],[15.917,50.1707],[15.9922,50.1574],[16.0096,50.1126],[16.0634,50.1128],[16.0751,50.0865],[16.196,50.0386],[16.2423,50.0557],[16.3303,50.0401],[16.3121,50.0608],[16.3574,50.0776],[16.3407,50.0924],[16.4722,50.1369],[16.4811,50.1646],[16.5694,50.1387],[16.5854,50.1523],[16.5578,50.1706],[16.5483,50.2298],[16.4313,50.3247],[16.3832,50.3288],[16.3607,50.3796],[16.2786,50.3674],[16.2529,50.4056],[16.2145,50.4091],[16.1957,50.4321],[16.213,50.4517],[16.2319,50.4435],[16.2204,50.4579],[16.2587,50.4802],[16.2941,50.4792],[16.3115,50.5061],[16.3604,50.5012],[16.4018,50.5299],[16.3874,50.542],[16.4109,50.5479],[16.4047,50.5693],[16.4449,50.5796],[16.3431,50.6615],[16.2348,50.6716],[16.2174,50.6333],[16.1842,50.6272],[16.1037,50.6634],[16.0248,50.5986],[15.9864,50.6135],[16.0218,50.6302],[15.9909,50.6834],[15.861,50.6745],[15.8162,50.7553],[15.7057,50.7373],[15.5457,50.7805],[15.5354,50.7633],[15.5736,50.7359],[15.5615,50.6823],[15.5838,50.6526],[15.5651,50.6373],[15.6021,50.6144],[15.5711,50.5812],[15.6322,50.5227],[15.5364,50.5131],[15.478,50.547],[15.48,50.5326],[15.4365,50.5217],[15.4539,50.5012],[15.4416,50.4872],[15.4018,50.4799],[15.3795,50.5086],[15.368,50.4948],[15.2855,50.5239],[15.2362,50.4951],[15.1469,50.5227],[15.1136,50.5065],[15.1447,50.475],[15.1296,50.4505],[15.1623,50.4273],[15.137,50.404],[15.1441,50.3876],[15.1042,50.3761],[15.1313,50.3636],[15.1298,50.3458],[15.1887,50.3399],[15.181,50.3282],[15.2163,50.3198],[15.2067,50.2967],[15.2287,50.2878],[15.3068,50.2812],[15.3511,50.3009],[15.3777,50.2849],[15.3708,50.2267],[15.3974,50.1979],[15.3487,50.1448],[15.4154,50.1405],[15.448,50.1246],[15.4374,50.1099]]]},"properties":{"iso3":"CZE","shapeId":"73172107B56271871797203","regionId":"CZE.5_1","name":"The Hradec Kralove Region"}},{"type":"Feature","geometry":{"type":"Polygon","coordinates":[[[15.4971,49.8611],[15.5924,49.8087],[15.6621,49.8168],[15.7384,49.7793],[15.7816,49.7804],[15.775,49.7557],[15.8637,49.7445],[15.8487,49.7186],[15.9178,49.6855],[15.9599,49.6913],[15.9536,49.7024],[16.0096,49.738],[16.0162,49.719],[16.0752,49.7118],[16.1029,49.6834],[16.1395,49.6914],[16.2422,49.66],[16.2871,49.6199],[16.3481,49.6131],[16.4064,49.5722],[16.4357,49.5986],[16.54,49.5897],[16.5554,49.6308],[16.6965,49.6264],[16.8041,49.5988],[16.822,49.6233],[16.8038,49.6565],[16.8457,49.6806],[16.8475,49.7161],[16.7888,49.7291],[16.813,49.7485],[16.792,49.759],[16.8013,49.7727],[16.7361,49.8307],[16.7415,49.864],[16.7691,49.8743],[16.712,49.9995],[16.7486,49.9947],[16.8097,50.0313],[16.8187,50.0445],[16.7983,50.0693],[16.8243,50.0855],[16.8047,50.109],[16.8258,50.1147],[16.8673,50.189],[16.8486,50.2076],[16.8122,50.191],[16.7833,50.1456],[16.706,50.0966],[16.4811,50.1646],[16.4722,50.1369],[16.3407,50.0924],[16.3574,50.0776],[16.3121,50.0608],[16.3303,50.0401],[16.2423,50.0557],[16.196,50.0386],[16.0751,50.0865],[16.0634,50.1128],[16.0096,50.1126],[15.9922,50.1574],[15.9224,50.17],[15.8345,50.1317],[15.7762,50.1757],[15.6897,50.1257],[15.5864,50.1333],[15.5665,50.15],[15.4698,50.0996],[15.4078,50.1053],[15.3991,50.0955],[15.428,50.0881],[15.4043,50.086],[15.4126,50.0631],[15.3753,50.0557],[15.4026,50.0465],[15.3628,50.0411],[15.4688,50.0069],[15.4611,49.9872],[15.5315,49.9617],[15.516,49.9411],[15.5355,49.9274],[15.4977,49.8979],[15.4971,49.8611]]]},"properties":{"iso3":"CZE","shapeId":"73172107B96941531518499","regionId":"CZE.9_1","name":"The Pardubice Region"}},{"type":"Feature","geometry":{"type":"Polygon","coordinates":[[[14.932,49.5494],[14.9437,49.5243],[14.9013,49.5145],[14.9336,49.484],[14.8882,49.376],[14.933,49.3563],[14.9038,49.3331],[14.9242,49.3104],[14.9788,49.2772],[15.0299,49.2966],[15.0622,49.2722],[15.1037,49.2701],[15.1008,49.249],[15.075,49.2519],[15.1237,49.2478],[15.1393,49.2211],[15.1665,49.216],[15.1915,49.2365],[15.2532,49.2065],[15.3415,49.2183],[15.3372,49.1668],[15.4238,49.1176],[15.4413,49.133],[15.4684,49.1196],[15.5675,49.1289],[15.5497,49.1148],[15.5902,49.1044],[15.5978,49.0765],[15.5532,49.0771],[15.5458,49.0425],[15.5249,49.037],[15.5337,49.0254],[15.4873,48.9969],[15.5281,48.995],[15.5234,48.9761],[15.6457,48.9376],[15.669,48.9657],[15.7063,48.9678],[15.7305,48.947],[15.7581,48.9809],[15.792,48.9842],[15.8186,49.0109],[15.8753,49.0085],[15.8841,49.0392],[15.9172,49.0289],[15.9315,49.0511],[15.9613,49.0573],[15.9973,49.0279],[16.0333,49.0471],[16.0858,49.0308],[16.1465,49.0479],[16.137,49.0679],[16.211,49.0716],[16.2203,49.0972],[16.256,49.1095],[16.2037,49.1385],[16.2337,49.1361],[16.2461,49.1461],[16.2329,49.1745],[16.2758,49.1841],[16.2349,49.2255],[16.2543,49.2536],[16.2883,49.2571],[16.2553,49.2832],[16.294,49.3123],[16.2399,49.3261],[16.2731,49.3325],[16.2199,49.3509],[16.237,49.3769],[16.2277,49.3941],[16.2596,49.4056],[16.267,49.4282],[16.3292,49.4314],[16.3257,49.4498],[16.2917,49.447],[16.3146,49.4656],[16.3786,49.452],[16.3896,49.476],[16.355,49.5022],[16.3848,49.4928],[16.4183,49.5252],[16.3726,49.5508],[16.3937,49.5764],[16.3704,49.6021],[16.2871,49.6199],[16.1937,49.6783],[16.1029,49.6834],[16.0022,49.7393],[15.9536,49.7024],[15.9599,49.6913],[15.9178,49.6855],[15.8487,49.7186],[15.8637,49.7445],[15.775,49.7557],[15.7816,49.7804],[15.7384,49.7793],[15.6621,49.8168],[15.5924,49.8087],[15.4971,49.8611],[15.4164,49.8277],[15.439,49.8043],[15.4251,49.7925],[15.3822,49.7999],[15.3463,49.7694],[15.225,49.757],[15.2171,49.7259],[15.1776,49.6964],[15.1848,49.6677],[15.2347,49.6652],[15.2497,49.6434],[15.2304,49.6149],[15.171,49.6141],[15.1649,49.5889],[15.1175,49.6104],[15.0559,49.5941],[14.9818,49.606],[14.969,49.5958],[14.9933,49.5818],[14.9396,49.5798],[14.9464,49.5567],[14.932,49.5494]]]},"properties":{"iso3":"CZE","shapeId":"73172107B33107872828953","regionId":"CZE.4_1","name":"The Vysocina Region"}},{"type":"Feature","geometry":{"type":"Polygon","coordinates":[[[15.5424,48.9077],[15.6142,48.8977],[15.6906,48.8555],[15.7537,48.8522],[15.7795,48.8749],[15.8415,48.8771],[15.8427,48.8596],[15.8977,48.8484],[15.8932,48.8346],[15.9584,48.8231],[15.9496,48.8053],[15.9944,48.7793],[16.1029,48.7454],[16.3299,48.7312],[16.3428,48.7456],[16.378,48.7285],[16.435,48.7656],[16.4604,48.809],[16.5186,48.7982],[16.5407,48.8143],[16.5936,48.7827],[16.6637,48.781],[16.6826,48.7278],[16.7247,48.738],[16.8003,48.7059],[16.902,48.718],[16.9233,48.6696],[16.9188,48.6224],[16.9402,48.6165],[17.0433,48.7643],[17.0887,48.7855],[17.1109,48.8312],[17.2002,48.8776],[17.3217,48.8453],[17.3613,48.8135],[17.3969,48.8133],[17.4532,48.8467],[17.5285,48.8122],[17.6469,48.8543],[17.6021,48.9103],[17.5382,48.9232],[17.5481,48.9477],[17.4988,48.9665],[17.4343,48.9504],[17.3966,48.9805],[17.3518,48.9792],[17.363,49.0048],[17.3357,49.0156],[17.2221,49.0329],[17.232,49.0644],[17.2135,49.0929],[17.1097,49.0774],[17.1131,49.1034],[17.1416,49.1035],[17.1486,49.1328],[17.1876,49.138],[17.2025,49.1764],[17.1472,49.1748],[17.165,49.19],[17.1298,49.2449],[17.162,49.2783],[17.1409,49.3255],[17.0353,49.3594],[17.0512,49.3654],[17.0228,49.3714],[17.0243,49.4036],[16.9878,49.4261],[16.9873,49.455],[16.9481,49.4927],[16.9057,49.499],[16.8584,49.4796],[16.9157,49.429],[16.8596,49.3812],[16.8054,49.4057],[16.8003,49.4288],[16.8291,49.4364],[16.798,49.4563],[16.7844,49.4969],[16.8329,49.5323],[16.7377,49.5434],[16.7529,49.5599],[16.7454,49.5874],[16.793,49.5739],[16.8041,49.5988],[16.6217,49.6333],[16.5484,49.6286],[16.54,49.5897],[16.4357,49.5986],[16.4064,49.5722],[16.392,49.5801],[16.3726,49.5508],[16.4183,49.5252],[16.3848,49.4928],[16.355,49.5022],[16.3896,49.476],[16.3786,49.452],[16.3146,49.4656],[16.2917,49.447],[16.3257,49.4498],[16.3292,49.4314],[16.267,49.4282],[16.2596,49.4056],[16.2277,49.3941],[16.237,49.3769],[16.2199,49.3509],[16.2731,49.3325],[16.2399,49.3261],[16.294,49.3123],[16.2553,49.2832],[16.2883,49.2571],[16.2543,49.2536],[16.2349,49.2255],[16.2758,49.1841],[16.2329,49.1745],[16.2461,49.1461],[16.2337,49.1361],[16.2037,49.1385],[16.256,49.1095],[16.2203,49.0972],[16.211,49.0716],[16.137,49.0679],[16.1465,49.0479],[16.0858,49.0308],[16.0333,49.0471],[15.9973,49.0279],[15.9613,49.0573],[15.9315,49.0511],[15.9172,49.0289],[15.8841,49.0392],[15.8753,49.0085],[15.8186,49.0109],[15.792,48.9842],[15.7581,48.9809],[15.7305,48.947],[15.7063,48.9678],[15.6604,48.9646],[15.6457,48.9376],[15.588,48.9551],[15.5424,48.9077]]]},"properties":{"iso3":"CZE","shapeId":"73172107B81289681513643","regionId":"CZE.2_1","name":"The South Moravian Region"}},{"type":"Feature","geometry":{"type":"Polygon","coordinates":[[[16.8041,49.5988],[16.793,49.5739],[16.7454,49.5874],[16.7529,49.5599],[16.7377,49.5434],[16.8329,49.5323],[16.7876,49.5096],[16.798,49.4563],[16.8291,49.4364],[16.7962,49.4115],[16.8596,49.3812],[16.9157,49.429],[16.8584,49.4796],[16.9057,49.499],[16.9481,49.4927],[16.9873,49.455],[16.9878,49.4261],[17.0243,49.4036],[17.0228,49.3714],[17.1409,49.3255],[17.1731,49.2689],[17.1941,49.2973],[17.2757,49.2951],[17.3567,49.3426],[17.3327,49.3821],[17.3552,49.4087],[17.3856,49.4052],[17.3747,49.3801],[17.4499,49.3801],[17.4737,49.3547],[17.515,49.3834],[17.5044,49.4013],[17.632,49.401],[17.6503,49.415],[17.6246,49.4497],[17.6644,49.4392],[17.6921,49.4632],[17.72,49.4378],[17.775,49.4376],[17.8004,49.4705],[17.7868,49.4884],[17.8389,49.504],[17.8428,49.5238],[17.9004,49.5112],[17.9181,49.5405],[17.9024,49.5664],[17.8533,49.5508],[17.8436,49.565],[17.8638,49.5816],[17.7777,49.6331],[17.7466,49.6757],[17.7246,49.6626],[17.6895,49.6769],[17.6811,49.7046],[17.6984,49.733],[17.6811,49.7536],[17.6142,49.7449],[17.5277,49.7706],[17.5249,49.7904],[17.4939,49.7988],[17.5058,49.8167],[17.4833,49.8255],[17.4759,49.8737],[17.4411,49.867],[17.4627,49.8324],[17.4103,49.8268],[17.4168,49.8146],[17.3926,49.8131],[17.3872,49.7909],[17.3563,49.8128],[17.3814,49.8486],[17.3558,49.8633],[17.265,49.835],[17.266,49.8185],[17.2158,49.8183],[17.225,49.8594],[17.1852,49.8444],[17.1606,49.8635],[17.1465,49.8808],[17.1752,49.911],[17.1622,49.9214],[17.2035,49.9494],[17.1552,49.983],[17.2345,50.0639],[17.2203,50.1022],[17.2493,50.121],[17.2394,50.142],[17.3088,50.1866],[17.3485,50.1899],[17.3769,50.2229],[17.4215,50.2101],[17.4312,50.2631],[17.3891,50.2827],[17.3494,50.2641],[17.3487,50.3284],[17.2899,50.3175],[17.2479,50.3318],[17.2011,50.364],[17.2033,50.3864],[17.1433,50.3804],[17.1108,50.405],[16.9983,50.4278],[16.974,50.4178],[16.9079,50.4495],[16.8812,50.4424],[16.8603,50.4078],[16.911,50.389],[16.9461,50.3154],[17.0026,50.3021],[17.02,50.2783],[17.0016,50.2564],[17.0283,50.23],[16.9985,50.2159],[16.9759,50.2448],[16.9564,50.2227],[16.8991,50.2229],[16.8628,50.1982],[16.8258,50.1147],[16.8047,50.109],[16.8243,50.0855],[16.7983,50.0693],[16.8187,50.0445],[16.8097,50.0313],[16.7486,49.9947],[16.712,49.9995],[16.7691,49.8743],[16.7415,49.864],[16.7361,49.8307],[16.8013,49.7727],[16.792,49.759],[16.813,49.7485],[16.7888,49.7291],[16.8475,49.7161],[16.8457,49.6806],[16.8038,49.6565],[16.822,49.6233],[16.8041,49.5988]]]},"properties":{"iso3":"CZE","shapeId":"73172107B12746720248776","regionId":"CZE.8_1","name":"The Olomouc Region"}},{"type":"Feature","geometry":{"type":"Polygon","coordinates":[[[17.9168,49.5382],[17.9733,49.538],[17.998,49.5035],[18.1259,49.5205],[18.2033,49.489],[18.3012,49.4899],[18.3211,49.4518],[18.3669,49.4323],[18.3663,49.4055],[18.4332,49.3928],[18.5479,49.4679],[18.5344,49.4845],[18.5457,49.5005],[18.6778,49.5076],[18.7545,49.4884],[18.8516,49.5183],[18.8372,49.5236],[18.8592,49.5506],[18.8372,49.5631],[18.8056,49.678],[18.741,49.6765],[18.7096,49.7045],[18.6252,49.7224],[18.6292,49.7471],[18.5689,49.8292],[18.6057,49.8616],[18.5696,49.8734],[18.5737,49.9212],[18.5394,49.9257],[18.5471,49.9091],[18.5237,49.8995],[18.4308,49.9382],[18.333,49.9494],[18.35,49.9296],[18.3179,49.9157],[18.2792,49.9401],[18.2763,49.9646],[18.2143,49.972],[18.2066,49.9979],[18.1538,49.9824],[18.117,49.9942],[18.0894,50.0441],[18.0336,50.066],[18.0041,50.039],[18.0444,50.0366],[18.0455,50.0051],[18.0046,50.0184],[17.9228,49.9788],[17.8685,49.9725],[17.8264,49.994],[17.8277,50.0113],[17.7776,50.0202],[17.7309,50.0972],[17.6968,50.117],[17.6503,50.1108],[17.5927,50.16],[17.7585,50.2066],[17.765,50.2364],[17.725,50.2568],[17.7521,50.298],[17.7098,50.3235],[17.6869,50.328],[17.686,50.2991],[17.6173,50.2669],[17.4562,50.2697],[17.4297,50.2542],[17.4215,50.2101],[17.3769,50.2229],[17.3485,50.1899],[17.3088,50.1866],[17.2394,50.142],[17.2493,50.121],[17.2203,50.1022],[17.2345,50.0639],[17.1552,49.983],[17.2035,49.9494],[17.1622,49.9214],[17.1752,49.911],[17.1465,49.8808],[17.1606,49.8635],[17.1852,49.8444],[17.225,49.8594],[17.2158,49.8183],[17.266,49.8185],[17.265,49.835],[17.3558,49.8633],[17.3814,49.8486],[17.3563,49.8128],[17.3872,49.7909],[17.3926,49.8131],[17.4168,49.8146],[17.4103,49.8268],[17.4627,49.8324],[17.4411,49.867],[17.4759,49.8737],[17.4833,49.8255],[17.5058,49.8167],[17.4939,49.7988],[17.5249,49.7904],[17.5277,49.7706],[17.6142,49.7449],[17.6811,49.7536],[17.6984,49.733],[17.6811,49.7046],[17.6895,49.6769],[17.7246,49.6626],[17.7466,49.6757],[17.7777,49.6331],[17.8638,49.5816],[17.8436,49.565],[17.8533,49.5508],[17.9024,49.5664],[17.9168,49.5382]]]},"properties":{"iso3":"CZE","shapeId":"73172107B23519183895960","regionId":"CZE.7_1","name":"The Moravian-Silesian Region"}},{"type":"Feature","geometry":{"type":"Polygon","coordinates":[[[17.6469,48.8543],[17.7033,48.86],[17.7813,48.9253],[17.8853,48.9277],[17.9243,49.02],[18.0245,49.0212],[18.077,49.042],[18.1155,49.0901],[18.1222,49.118],[18.1067,49.1342],[18.1367,49.161],[18.1472,49.2484],[18.1839,49.2695],[18.184,49.287],[18.3657,49.3244],[18.4042,49.3502],[18.4089,49.3899],[18.3663,49.4055],[18.3669,49.4323],[18.3211,49.4518],[18.3012,49.4899],[18.2033,49.489],[18.1259,49.5205],[17.998,49.5035],[17.9733,49.538],[17.9168,49.5382],[17.9004,49.5112],[17.8428,49.5238],[17.8389,49.504],[17.7868,49.4884],[17.8004,49.4705],[17.775,49.4376],[17.72,49.4378],[17.6921,49.4632],[17.6644,49.4392],[17.6246,49.4497],[17.6503,49.415],[17.632,49.401],[17.5044,49.4013],[17.515,49.3834],[17.4737,49.3547],[17.4499,49.3801],[17.3747,49.3801],[17.3856,49.4052],[17.3552,49.4087],[17.3327,49.3821],[17.3567,49.3426],[17.2757,49.2951],[17.1941,49.2973],[17.1771,49.2688],[17.1597,49.2751],[17.1331,49.2501],[17.1475,49.2303],[17.1357,49.2151],[17.165,49.19],[17.1472,49.1748],[17.2025,49.1764],[17.1876,49.138],[17.1486,49.1328],[17.1416,49.1035],[17.1131,49.1034],[17.1097,49.0774],[17.2135,49.0929],[17.232,49.0644],[17.2221,49.0329],[17.3357,49.0156],[17.363,49.0048],[17.3518,48.9792],[17.3966,48.9805],[17.4343,48.9504],[17.4988,48.9665],[17.5481,48.9477],[17.5382,48.9232],[17.6021,48.9103],[17.6469,48.8543]]]},"properties":{"iso3":"CZE","shapeId":"73172107B87463303438563","regionId":"CZE.14_1","name":"The Zlin Region"}}]}