{"type":"FeatureCollection","features":[{"type":"Feature","geometry":{"type":"MultiPolygon","coordinates":[[[[9.1259,47.6686],[9.121,47.6758],[9.1207,47.6723],[9.1259,47.6686]]],[[[9.2011,47.7059],[9.1953,47.7083],[9.1878,47.7056],[9.189,47.7036],[9.1986,47.7024],[9.2018,47.7036],[9.2011,47.7059]]],[[[8.7013,47.7152],[8.6646,47.7134],[8.6765,47.6979],[8.6595,47.6894],[8.7177,47.6907],[8.7013,47.7152]]],[[[8.6821,49.6189],[8.6841,49.6202],[8.6801,49.6203],[8.6801,49.6187],[8.6821,49.6189]]],[[[9.6021,47.5843],[9.6433,47.5898],[9.636,47.6025],[9.6577,47.6117],[9.7063,47.6018],[9.7457,47.6173],[9.7477,47.6037],[9.8422,47.6777],[9.9595,47.6523],[10.0286,47.687],[10.0593,47.6806],[10.0773,47.6393],[10.0892,47.673],[10.1301,47.6773],[10.1394,47.7033],[10.1164,47.7193],[10.119,47.7596],[10.0647,47.7859],[10.138,47.8096],[10.1072,47.8529],[10.0916,47.8456],[10.1046,47.8646],[10.0768,47.8678],[10.1057,47.879],[10.111,47.9349],[10.0849,47.9613],[10.115,47.9763],[10.1343,48.0176],[10.1404,48.0989],[10.1071,48.1321],[10.0607,48.2401],[10.0658,48.2818],[9.9996,48.3632],[9.9673,48.3744],[10.0424,48.4297],[10.034,48.4578],[10.105,48.4775],[10.1339,48.4549],[10.1718,48.4578],[10.1801,48.4755],[10.2414,48.492],[10.2308,48.5105],[10.312,48.5229],[10.313,48.5671],[10.2931,48.5898],[10.3231,48.6091],[10.2595,48.6549],[10.2687,48.7035],[10.3374,48.689],[10.3611,48.6528],[10.4089,48.6988],[10.4374,48.6931],[10.4106,48.661],[10.4957,48.6884],[10.4715,48.7028],[10.4834,48.7081],[10.4643,48.7351],[10.4162,48.7481],[10.4282,48.7559],[10.4131,48.7721],[10.4343,48.7762],[10.4211,48.7994],[10.4486,48.812],[10.4274,48.843],[10.4541,48.8603],[10.4502,48.8931],[10.4213,48.9058],[10.457,48.9171],[10.4378,48.9332],[10.4514,48.9387],[10.3522,49.006],[10.3503,49.0284],[10.2519,49.0392],[10.2646,49.0614],[10.2342,49.0764],[10.2506,49.0928],[10.205,49.0981],[10.2569,49.1291],[10.248,49.1493],[10.1968,49.1558],[10.1812,49.1824],[10.1249,49.1997],[10.1401,49.2089],[10.1198,49.2474],[10.1332,49.2531],[10.1099,49.2583],[10.1566,49.2808],[10.1323,49.3003],[10.1401,49.3256],[10.1048,49.3384],[10.1246,49.3561],[10.1073,49.3788],[10.1617,49.3955],[10.1386,49.4031],[10.1517,49.4123],[10.1337,49.4371],[10.0947,49.4479],[10.1223,49.4639],[10.1,49.4917],[10.1213,49.511],[10.0841,49.5118],[10.0855,49.5422],[10.0614,49.5451],[10.04,49.529],[10.0561,49.5149],[10.0203,49.4866],[9.9266,49.4848],[9.9137,49.4933],[9.925,49.5601],[9.898,49.5641],[9.9124,49.5859],[9.8757,49.5786],[9.8593,49.546],[9.8102,49.5573],[9.8728,49.6101],[9.8301,49.6517],[9.8234,49.6732],[9.8412,49.6834],[9.8,49.7309],[9.7394,49.6882],[9.7097,49.7271],[9.6772,49.7162],[9.6761,49.6933],[9.6325,49.6932],[9.6487,49.7915],[9.5618,49.7806],[9.5634,49.7446],[9.5465,49.7664],[9.5145,49.7638],[9.5015,49.7888],[9.4583,49.7695],[9.4251,49.7896],[9.3915,49.7701],[9.318,49.7689],[9.3231,49.7438],[9.2963,49.7389],[9.3742,49.728],[9.344,49.7186],[9.3574,49.7043],[9.3825,49.7075],[9.3856,49.7309],[9.4187,49.7119],[9.3979,49.6707],[9.4195,49.6589],[9.406,49.6453],[9.3041,49.6549],[9.2707,49.634],[9.285,49.6148],[9.2489,49.5845],[9.1083,49.5793],[9.0989,49.5606],[9.0731,49.5749],[9.0844,49.543],[9.1264,49.5169],[9.065,49.5296],[9.0408,49.4991],[8.9518,49.5056],[8.9546,49.482],[8.9319,49.4706],[8.9503,49.455],[8.9009,49.4434],[8.8503,49.3954],[8.8035,49.4036],[8.8365,49.4302],[8.8235,49.4627],[8.8519,49.4836],[8.8765,49.4667],[8.8996,49.5037],[8.8339,49.4907],[8.8219,49.5246],[8.7277,49.5183],[8.681,49.5755],[8.698,49.5998],[8.6721,49.6112],[8.6923,49.6237],[8.5939,49.6109],[8.6213,49.545],[8.5814,49.5198],[8.5526,49.5205],[8.4643,49.5895],[8.4224,49.5834],[8.4147,49.5539],[8.4638,49.4704],[8.4427,49.4502],[8.5082,49.4345],[8.4962,49.4021],[8.4635,49.3844],[8.4732,49.3734],[8.5004,49.389],[8.4968,49.3642],[8.4505,49.3231],[8.4891,49.2931],[8.3908,49.2361],[8.3848,49.2196],[8.4053,49.2206],[8.3684,49.1681],[8.3581,49.0978],[8.3117,49.0543],[8.2876,48.9984],[8.1964,48.9565],[8.087,48.802],[8.0303,48.7874],[8.0143,48.761],[7.972,48.7581],[7.9633,48.7215],[7.8397,48.6413],[7.8048,48.5926],[7.8039,48.5112],[7.7682,48.4897],[7.7332,48.3972],[7.7446,48.3278],[7.6936,48.3017],[7.6657,48.2205],[7.577,48.1191],[7.5685,48.0352],[7.622,47.9728],[7.5563,47.8775],[7.5629,47.8427],[7.5298,47.7813],[7.5476,47.7298],[7.5145,47.7027],[7.5211,47.6638],[7.6045,47.5778],[7.6936,47.6005],[7.6717,47.5874],[7.6859,47.5656],[7.6341,47.5611],[7.6802,47.5327],[7.7955,47.5574],[7.8231,47.588],[7.8914,47.5876],[7.9115,47.5513],[7.9432,47.5438],[7.9591,47.5583],[8.0897,47.5578],[8.2041,47.6209],[8.2266,47.6051],[8.2877,47.6106],[8.3308,47.5707],[8.4337,47.5666],[8.4945,47.5812],[8.4566,47.6023],[8.5177,47.6343],[8.5825,47.5961],[8.6048,47.6133],[8.5957,47.6431],[8.6288,47.6497],[8.598,47.6728],[8.4735,47.6383],[8.4654,47.6571],[8.4056,47.6745],[8.4206,47.6839],[8.4044,47.6981],[8.455,47.7223],[8.4737,47.7645],[8.5773,47.7817],[8.5679,47.8085],[8.6186,47.7983],[8.6277,47.7593],[8.653,47.7734],[8.657,47.8003],[8.6894,47.7579],[8.7271,47.7623],[8.7414,47.7482],[8.7113,47.7301],[8.7363,47.7162],[8.728,47.6927],[8.7959,47.6753],[8.8101,47.6933],[8.7699,47.7184],[8.8064,47.7383],[8.8188,47.7129],[8.8727,47.7042],[8.8506,47.6812],[8.8754,47.6562],[8.9379,47.6591],[8.9986,47.6873],[8.9992,47.7034],[8.9398,47.7281],[9.0149,47.72],[8.9899,47.7435],[9.1079,47.691],[9.0407,47.7083],[9.0538,47.6897],[9.1131,47.685],[9.1758,47.6539],[9.2177,47.6661],[9.1733,47.7344],[9.0697,47.7776],[9.031,47.8047],[9.0395,47.8175],[9.2237,47.7409],[9.2386,47.7106],[9.2886,47.6832],[9.3497,47.6608],[9.4953,47.6501],[9.5503,47.5877],[9.6021,47.5843]],[[8.676,49.616],[8.6719,49.6159],[8.6751,49.6211],[8.678,49.6198],[8.6806,49.6225],[8.6859,49.6217],[8.686,49.6184],[8.676,49.616]]]]},"properties":{"iso3":"DEU","shapeId":"10402087B60055985875400","regionId":"DEU.1_1","name":"Baden-Württemberg"}},{"type":"Feature","geometry":{"type":"Polygon","coordinates":[[[9.6021,47.5843],[9.7298,47.5337],[9.7778,47.5953],[9.8237,47.5872],[9.8157,47.5476],[9.874,47.5287],[9.881,47.5481],[9.9216,47.5297],[9.9709,47.5457],[9.9652,47.5212],[9.9953,47.4863],[10.0447,47.4876],[10.0704,47.456],[10.0915,47.4591],[10.1054,47.4287],[10.0692,47.4098],[10.0998,47.3547],[10.1193,47.3757],[10.1659,47.3688],[10.1817,47.3923],[10.2362,47.3819],[10.1995,47.3266],[10.2159,47.311],[10.1787,47.2957],[10.174,47.2703],[10.2323,47.2705],[10.33,47.3047],[10.3949,47.3757],[10.4365,47.3806],[10.4362,47.411],[10.4759,47.4321],[10.468,47.4769],[10.4313,47.5037],[10.4545,47.5557],[10.5694,47.5336],[10.598,47.5697],[10.6912,47.5584],[10.7776,47.5139],[10.8902,47.5372],[10.9179,47.5136],[10.8705,47.4994],[10.87,47.4832],[10.9371,47.4815],[10.9281,47.4719],[10.9836,47.43],[10.9703,47.4],[11.1155,47.3956],[11.2069,47.4338],[11.2534,47.4282],[11.225,47.3953],[11.2729,47.3979],[11.3381,47.4497],[11.4215,47.4447],[11.3838,47.4722],[11.4371,47.5159],[11.5725,47.5145],[11.6056,47.5808],[11.6371,47.5943],[11.8439,47.5812],[11.8549,47.6023],[12.0085,47.6251],[12.0223,47.6111],[12.2039,47.6068],[12.1626,47.7011],[12.257,47.743],[12.2412,47.6941],[12.2552,47.6793],[12.4401,47.6952],[12.4407,47.6739],[12.4992,47.625],[12.575,47.6323],[12.6074,47.6737],[12.7811,47.6741],[12.759,47.6509],[12.8246,47.6121],[12.7792,47.5793],[12.7945,47.5566],[13.0062,47.464],[13.0475,47.4921],[13.031,47.5331],[13.0573,47.5621],[13.0436,47.5834],[13.0719,47.5884],[13.063,47.6021],[13.0987,47.6354],[13.0808,47.687],[13.0175,47.7229],[12.9735,47.7071],[12.905,47.7236],[13.0033,47.8503],[12.9378,47.9437],[12.8733,47.9642],[12.8514,48.0148],[12.7597,48.0751],[12.7583,48.1263],[12.7869,48.1236],[12.8686,48.2008],[12.9571,48.2096],[13.0224,48.258],[13.1792,48.2947],[13.2552,48.2934],[13.3297,48.3235],[13.4176,48.3838],[13.44,48.433],[13.4274,48.4581],[13.458,48.5119],[13.4381,48.5577],[13.4754,48.5561],[13.509,48.5906],[13.7274,48.513],[13.7541,48.5638],[13.7704,48.5536],[13.8005,48.5734],[13.8257,48.6185],[13.8137,48.6919],[13.8376,48.7007],[13.7949,48.7149],[13.8395,48.7716],[13.8039,48.7811],[13.8153,48.7969],[13.7931,48.8302],[13.7647,48.8342],[13.7379,48.8858],[13.6762,48.8787],[13.6552,48.8935],[13.6276,48.9495],[13.6085,48.9405],[13.5855,48.9685],[13.5292,48.9741],[13.4956,48.9413],[13.4029,48.9873],[13.3971,49.051],[13.2892,49.1186],[13.2364,49.1136],[13.1828,49.1345],[13.1709,49.1736],[13.11,49.2032],[13.0808,49.2474],[13.0339,49.2639],[13.0291,49.3043],[12.943,49.3442],[12.8802,49.3505],[12.8869,49.3323],[12.7863,49.3454],[12.7576,49.3948],[12.6559,49.4345],[12.6338,49.4762],[12.6443,49.523],[12.5885,49.5385],[12.5607,49.6196],[12.5282,49.6182],[12.5216,49.6868],[12.4429,49.7037],[12.4007,49.7538],[12.4727,49.7859],[12.4729,49.8336],[12.498,49.8376],[12.5477,49.9203],[12.4755,49.9379],[12.4995,49.972],[12.4899,49.9818],[12.4315,49.9844],[12.4312,50.0026],[12.3254,50.033],[12.3173,50.0534],[12.2609,50.0584],[12.2754,50.0765],[12.1996,50.1117],[12.1952,50.143],[12.216,50.1682],[12.1975,50.1988],[12.1595,50.2112],[12.1513,50.2357],[12.0908,50.2524],[12.1399,50.2777],[12.1256,50.3076],[12.0913,50.3326],[12.0469,50.325],[11.9772,50.3515],[11.9839,50.3887],[11.9494,50.3948],[11.9347,50.4237],[11.8243,50.3898],[11.8255,50.4044],[11.7803,50.4188],[11.6246,50.3869],[11.5732,50.4001],[11.5199,50.3743],[11.5189,50.3957],[11.4787,50.4012],[11.4816,50.4316],[11.4434,50.4208],[11.4513,50.431],[11.4206,50.4434],[11.4188,50.4935],[11.4409,50.5],[11.4293,50.5122],[11.3466,50.5215],[11.291,50.4753],[11.2471,50.4773],[11.268,50.4322],[11.2581,50.4],[11.2843,50.3603],[11.2624,50.3524],[11.2771,50.336],[11.2613,50.3379],[11.2703,50.3067],[11.252,50.2993],[11.2523,50.269],[11.1978,50.2919],[11.1871,50.2696],[11.1459,50.285],[11.1318,50.3081],[11.1592,50.3304],[11.1391,50.3535],[11.1168,50.3493],[11.1153,50.367],[11.043,50.3447],[10.9935,50.3655],[10.9858,50.3473],[10.9376,50.3919],[10.8304,50.3926],[10.7545,50.3582],[10.7153,50.3636],[10.7143,50.3463],[10.7289,50.3479],[10.7144,50.3255],[10.8464,50.2751],[10.852,50.2516],[10.824,50.2375],[10.7322,50.2518],[10.7166,50.2048],[10.6867,50.2259],[10.612,50.2241],[10.5971,50.2462],[10.6113,50.2491],[10.6073,50.2713],[10.591,50.2718],[10.6006,50.3337],[10.5618,50.3371],[10.5444,50.3645],[10.4924,50.3551],[10.4495,50.403],[10.3945,50.3937],[10.3839,50.4086],[10.4038,50.4248],[10.3707,50.4318],[10.3813,50.4389],[10.3362,50.4659],[10.3306,50.4943],[10.2308,50.5118],[10.2039,50.5547],[10.1404,50.5429],[10.1071,50.5637],[9.9578,50.4232],[9.86,50.3975],[9.7621,50.4259],[9.7329,50.3561],[9.7459,50.3104],[9.6524,50.2697],[9.6368,50.2514],[9.6636,50.2337],[9.5829,50.2215],[9.5012,50.2435],[9.5162,50.1996],[9.4981,50.1755],[9.5312,50.1608],[9.5076,50.1456],[9.5125,50.0944],[9.4131,50.0841],[9.3736,50.131],[9.2219,50.1494],[9.1833,50.1379],[9.1916,50.1275],[9.1492,50.0906],[9.1536,50.1179],[9.1215,50.1261],[9.0183,50.1116],[8.9766,50.0522],[9.0313,50.0396],[9.0488,49.9923],[9.0157,49.989],[9.0234,49.9101],[9.0505,49.8676],[9.0333,49.8665],[9.0377,49.8426],[9.0595,49.847],[9.064,49.8318],[9.0847,49.8475],[9.0909,49.7907],[9.1317,49.7949],[9.1069,49.7587],[9.1508,49.7429],[9.1261,49.7],[9.0896,49.6933],[9.102,49.6422],[9.0664,49.6024],[9.1139,49.5747],[9.1944,49.574],[9.2489,49.5845],[9.285,49.6148],[9.2707,49.634],[9.3041,49.6549],[9.406,49.6453],[9.4195,49.6589],[9.3979,49.6707],[9.4223,49.6961],[9.4,49.7288],[9.3574,49.7043],[9.344,49.7186],[9.3742,49.728],[9.2957,49.7405],[9.3231,49.7438],[9.318,49.7689],[9.3915,49.7701],[9.4251,49.7896],[9.4583,49.7695],[9.5015,49.7888],[9.5145,49.7638],[9.5465,49.7664],[9.5634,49.7446],[9.5618,49.7806],[9.6487,49.7915],[9.6254,49.7037],[9.6535,49.6871],[9.7097,49.7271],[9.7394,49.6882],[9.8,49.7309],[9.8412,49.6834],[9.8234,49.6732],[9.8301,49.6517],[9.8728,49.6101],[9.8115,49.5557],[9.8593,49.546],[9.8757,49.5786],[9.9124,49.5859],[9.898,49.5641],[9.925,49.5601],[9.9137,49.4933],[9.9519,49.4804],[10.0203,49.4866],[10.0561,49.5149],[10.04,49.529],[10.0614,49.5451],[10.0855,49.5422],[10.0841,49.5118],[10.1213,49.511],[10.1,49.4917],[10.1223,49.4639],[10.0947,49.4479],[10.1337,49.4371],[10.1517,49.4123],[10.1386,49.4031],[10.1617,49.3955],[10.1073,49.3788],[10.1246,49.3561],[10.1048,49.3384],[10.1401,49.3256],[10.1323,49.3003],[10.1566,49.2808],[10.1099,49.2583],[10.1332,49.2531],[10.1198,49.2474],[10.1401,49.2089],[10.1249,49.1997],[10.1812,49.1824],[10.1968,49.1558],[10.248,49.1493],[10.2569,49.1291],[10.205,49.0981],[10.2506,49.0928],[10.2342,49.0764],[10.2646,49.0614],[10.2519,49.0392],[10.3503,49.0284],[10.3522,49.006],[10.4118,48.979],[10.4037,48.9668],[10.4571,48.9205],[10.4213,48.9058],[10.4502,48.8931],[10.4541,48.8603],[10.4274,48.843],[10.4486,48.812],[10.4211,48.7994],[10.4343,48.7762],[10.4131,48.7721],[10.4282,48.7559],[10.4162,48.7481],[10.4643,48.7351],[10.4951,48.6872],[10.4106,48.661],[10.4374,48.6931],[10.4089,48.6988],[10.3611,48.6528],[10.3374,48.689],[10.2687,48.7035],[10.2595,48.6549],[10.3231,48.6091],[10.2931,48.5898],[10.313,48.5671],[10.312,48.5229],[10.2308,48.5105],[10.2414,48.492],[10.1801,48.4755],[10.1718,48.4578],[10.1339,48.4549],[10.105,48.4775],[10.034,48.4578],[10.0424,48.4297],[9.9673,48.3744],[9.9996,48.3632],[10.0658,48.2818],[10.0607,48.2401],[10.1071,48.1321],[10.1404,48.0989],[10.1343,48.0176],[10.115,47.9763],[10.0849,47.9613],[10.111,47.9349],[10.1057,47.879],[10.0768,47.8678],[10.1046,47.8646],[10.0916,47.8456],[10.1072,47.8529],[10.138,47.8096],[10.0647,47.7859],[10.119,47.7596],[10.1164,47.7193],[10.1394,47.7033],[10.1301,47.6773],[10.0892,47.673],[10.0773,47.6393],[10.0593,47.6806],[10.0286,47.687],[9.9595,47.6523],[9.8422,47.6777],[9.7477,47.6037],[9.7457,47.6173],[9.7063,47.6018],[9.6577,47.6117],[9.636,47.6025],[9.6433,47.5898],[9.6021,47.5843]],[[10.4545,47.5557],[10.4329,47.5815],[10.4818,47.5845],[10.4545,47.5557]]]},"properties":{"iso3":"DEU","shapeId":"10402087B60477050509260","regionId":"DEU.2_1","name":"Bayern"}},{"type":"Feature","geometry":{"type":"Polygon","coordinates":[[[13.4801,52.6746],[13.4508,52.6627],[13.47,52.6521],[13.4244,52.6356],[13.3967,52.6483],[13.3573,52.6232],[13.3024,52.6276],[13.31,52.6574],[13.2829,52.6608],[13.2643,52.6269],[13.2207,52.6282],[13.2016,52.6064],[13.2173,52.5875],[13.129,52.5874],[13.153,52.5728],[13.1174,52.517],[13.1665,52.5101],[13.1178,52.479],[13.1092,52.4506],[13.1232,52.4394],[13.0906,52.4118],[13.1336,52.3869],[13.2223,52.4204],[13.2498,52.405],[13.2961,52.4165],[13.3119,52.3992],[13.3432,52.4116],[13.421,52.3762],[13.4188,52.4099],[13.4623,52.4206],[13.4799,52.396],[13.6434,52.3774],[13.6363,52.347],[13.6517,52.3395],[13.7,52.3751],[13.6867,52.3858],[13.7345,52.402],[13.738,52.4341],[13.759,52.4426],[13.6482,52.4788],[13.6115,52.4706],[13.6569,52.5299],[13.5082,52.5922],[13.4968,52.6051],[13.5231,52.6454],[13.4801,52.6746]]]},"properties":{"iso3":"DEU","shapeId":"10402087B20892132820961","regionId":"DEU.3_1","name":"Berlin"}},{"type":"Feature","geometry":{"type":"MultiPolygon","coordinates":[[[[13.051,51.6477],[13.0863,51.6081],[13.121,51.6189],[13.155,51.6002],[13.1432,51.5675],[13.1856,51.5581],[13.208,51.5244],[13.2013,51.4917],[13.1823,51.492],[13.2031,51.451],[13.1743,51.4283],[13.1998,51.4332],[13.2173,51.3951],[13.2685,51.3848],[13.26,51.4004],[13.2864,51.3993],[13.3283,51.4266],[13.3203,51.4375],[13.3766,51.4246],[13.4011,51.4542],[13.4214,51.4215],[13.4459,51.4314],[13.5212,51.4021],[13.5426,51.3693],[13.57,51.3857],[13.5941,51.3694],[13.7577,51.3715],[13.7633,51.359],[13.9562,51.3971],[14.0007,51.3726],[14.0036,51.3956],[14.0281,51.3959],[14.0159,51.4051],[14.0628,51.4455],[14.033,51.4751],[14.0873,51.4774],[14.0738,51.4927],[14.1078,51.5218],[14.1424,51.5228],[14.1396,51.544],[14.274,51.5321],[14.3324,51.505],[14.3872,51.5418],[14.5155,51.5542],[14.5696,51.5812],[14.6099,51.5501],[14.674,51.5506],[14.7065,51.5765],[14.6966,51.5967],[14.7299,51.5818],[14.7649,51.607],[14.7468,51.6762],[14.6681,51.7258],[14.6451,51.7958],[14.5901,51.821],[14.6116,51.8574],[14.6943,51.902],[14.7212,51.9512],[14.7047,51.9766],[14.714,52.0037],[14.7591,52.0657],[14.6816,52.1167],[14.6796,52.1449],[14.7054,52.1696],[14.6852,52.1941],[14.7157,52.2359],[14.576,52.2884],[14.5849,52.3065],[14.5344,52.395],[14.5495,52.4336],[14.6345,52.4923],[14.6039,52.5313],[14.6391,52.573],[14.5962,52.6107],[14.4651,52.6613],[14.351,52.7515],[14.2175,52.8169],[14.1229,52.8377],[14.1616,52.8881],[14.1437,52.9614],[14.2916,53.02],[14.3662,53.0794],[14.3877,53.143],[14.3663,53.172],[14.3773,53.2017],[14.4503,53.2606],[14.4212,53.2761],[14.4124,53.3296],[14.3166,53.3123],[14.3019,53.2862],[14.2622,53.2766],[14.266,53.2596],[14.0988,53.2617],[14.2234,53.3586],[14.2431,53.3923],[14.2377,53.4273],[14.1218,53.4417],[14.0822,53.4109],[14.0012,53.435],[13.9164,53.4223],[13.9029,53.432],[13.9182,53.456],[13.8756,53.4735],[13.8793,53.5041],[13.8217,53.5181],[13.7913,53.5586],[13.7777,53.5137],[13.8271,53.4987],[13.8121,53.4839],[13.7154,53.4823],[13.6405,53.4472],[13.6252,53.4093],[13.5501,53.3991],[13.5564,53.3761],[13.5169,53.3521],[13.5235,53.3201],[13.5028,53.3273],[13.4831,53.2912],[13.4382,53.2997],[13.4052,53.2464],[13.3865,53.2441],[13.3605,53.278],[13.2978,53.2809],[13.2527,53.2623],[13.2294,53.2166],[13.1522,53.2511],[12.9805,53.1625],[12.942,53.1743],[12.9794,53.1906],[12.9642,53.2004],[12.8801,53.1797],[12.846,53.2014],[12.7644,53.1889],[12.7395,53.1996],[12.7574,53.2244],[12.6712,53.2295],[12.6606,53.2544],[12.606,53.2444],[12.5298,53.2648],[12.4453,53.2499],[12.3918,53.2851],[12.3942,53.3018],[12.2602,53.3239],[12.2294,53.3582],[12.1686,53.3391],[12.152,53.3615],[12.0921,53.3449],[12.0616,53.3714],[12.0453,53.371],[12.0573,53.3493],[12.0146,53.3344],[12.0185,53.2996],[11.9739,53.2992],[11.9481,53.2718],[11.8926,53.279],[11.8617,53.2482],[11.7961,53.2533],[11.8289,53.2287],[11.7293,53.2172],[11.7,53.244],[11.6292,53.2422],[11.5516,53.2084],[11.5694,53.1661],[11.5346,53.1253],[11.4218,53.1409],[11.3956,53.14],[11.3938,53.1103],[11.2657,53.122],[11.2732,53.0972],[11.3389,53.0551],[11.4484,53.0784],[11.5059,53.049],[11.6394,53.0387],[11.6263,53.0126],[11.6772,53.0081],[11.6921,52.9784],[11.7438,52.9885],[11.8442,52.9527],[11.8231,52.9233],[11.834,52.9104],[11.9816,52.876],[12.0226,52.8904],[12.1126,52.8757],[12.1246,52.8936],[12.1237,52.8538],[12.1969,52.878],[12.2341,52.8594],[12.2575,52.8049],[12.2202,52.7901],[12.206,52.7609],[12.2232,52.7397],[12.1975,52.7184],[12.2329,52.689],[12.2369,52.6289],[12.172,52.6259],[12.1811,52.5752],[12.1418,52.5284],[12.1887,52.5324],[12.1673,52.515],[12.1847,52.4958],[12.2217,52.5007],[12.2361,52.5237],[12.2714,52.4875],[12.3299,52.4969],[12.3083,52.4803],[12.3308,52.4786],[12.2745,52.4161],[12.3023,52.405],[12.2918,52.3861],[12.306,52.3774],[12.2838,52.3643],[12.3081,52.3447],[12.2446,52.2484],[12.2973,52.2275],[12.2489,52.2117],[12.2483,52.1842],[12.2168,52.1701],[12.2767,52.104],[12.4302,52.0183],[12.4806,52.0333],[12.5394,51.9849],[12.603,51.9811],[12.6692,52.0129],[12.7776,51.9646],[12.8442,51.9677],[12.8527,51.935],[12.9606,51.9349],[12.9727,51.9009],[13.0454,51.9005],[13.0392,51.8709],[13.139,51.8795],[13.1509,51.8596],[13.1235,51.8546],[13.1701,51.787],[13.1475,51.7666],[13.154,51.7442],[13.1871,51.7156],[13.051,51.6477]],[[13.4801,52.6746],[13.5231,52.6454],[13.4968,52.6051],[13.5082,52.5922],[13.6569,52.5299],[13.6115,52.4706],[13.6482,52.4788],[13.759,52.4426],[13.738,52.4341],[13.7345,52.402],[13.6867,52.3858],[13.7,52.3751],[13.6517,52.3395],[13.6363,52.347],[13.6434,52.3774],[13.4799,52.396],[13.4623,52.4206],[13.4188,52.4099],[13.421,52.3762],[13.3432,52.4116],[13.3119,52.3992],[13.2961,52.4165],[13.2498,52.405],[13.2223,52.4204],[13.1336,52.3869],[13.0906,52.4118],[13.1232,52.4394],[13.1092,52.4506],[13.1178,52.479],[13.1665,52.5101],[13.1174,52.517],[13.153,52.5728],[13.129,52.5874],[13.2173,52.5875],[13.2016,52.6064],[13.2207,52.6282],[13.2643,52.6269],[13.2829,52.6608],[13.31,52.6574],[13.3024,52.6276],[13.3573,52.6232],[13.3967,52.6483],[13.4244,52.6356],[13.47,52.6521],[13.4508,52.6627],[13.4801,52.6746]]],[[[12.2672,52.2313],[12.2644,52.2317],[12.2658,52.2299],[12.2737,52.2288],[12.2752,52.2311],[12.2672,52.2313]]],[[[12.2863,52.2275],[12.2791,52.2294],[12.2765,52.2283],[12.2863,52.2275]]],[[[12.2191,52.8609],[12.2223,52.8625],[12.2213,52.8638],[12.2171,52.862],[12.2176,52.8601],[12.2191,52.8609]]]]},"properties":{"iso3":"DEU","shapeId":"10402087B40185768535592","regionId":"DEU.4_1","name":"Brandenburg"}},{"type":"Feature","geometry":{"type":"MultiPolygon","coordinates":[[[[8.6164,53.197],[8.613,53.1986],[8.6119,53.1974],[8.6152,53.1959],[8.6164,53.197]]],[[[8.5046,53.2289],[8.4817,53.2264],[8.5047,53.2008],[8.6195,53.1675],[8.6665,53.0916],[8.7092,53.0759],[8.7098,53.046],[8.7315,53.0349],[8.7707,53.0534],[8.822,53.0213],[8.8668,53.0221],[8.867,53.0408],[8.9158,53.011],[8.9803,53.0467],[8.9614,53.0852],[8.9909,53.0967],[8.947,53.1161],[8.9842,53.1261],[8.9451,53.152],[8.864,53.1317],[8.8292,53.1644],[8.6638,53.1762],[8.628,53.1984],[8.5933,53.1836],[8.5811,53.1987],[8.599,53.2125],[8.5537,53.2078],[8.5046,53.2289]]],[[[8.5549,53.5251],[8.4927,53.4724],[8.6059,53.4842],[8.6506,53.5108],[8.6464,53.5555],[8.6168,53.5744],[8.6506,53.6026],[8.4832,53.6005],[8.5549,53.5251]]],[[[8.6472,53.61],[8.6426,53.6092],[8.6451,53.6081],[8.6438,53.6055],[8.6577,53.603],[8.6609,53.6071],[8.6541,53.6084],[8.6535,53.6101],[8.6472,53.61]]]]},"properties":{"iso3":"DEU","shapeId":"10402087B44391416804171","regionId":"DEU.5_1","name":"Bremen"}},{"type":"Feature","geometry":{"type":"MultiPolygon","coordinates":[[[[10.308,53.4332],[10.326,53.4496],[10.3016,53.4432],[10.2106,53.52],[10.1646,53.5199],[10.1526,53.5398],[10.1526,53.5779],[10.2014,53.5841],[10.189,53.613],[10.2218,53.6337],[10.1412,53.6782],[10.1916,53.7229],[10.1682,53.7382],[10.1211,53.7134],[10.0818,53.7204],[10.0693,53.6795],[9.9987,53.6815],[9.9856,53.6472],[9.9054,53.6522],[9.8897,53.6223],[9.8288,53.5853],[9.7637,53.6275],[9.7301,53.5576],[9.7744,53.5543],[9.7638,53.5081],[9.8024,53.4933],[9.7998,53.4696],[9.8624,53.4299],[9.9044,53.4568],[9.9215,53.4366],[9.9066,53.4158],[9.9492,53.4309],[9.9844,53.4154],[10.0518,53.4639],[10.1757,53.3966],[10.2366,53.3958],[10.308,53.4332]]],[[[8.5026,53.9281],[8.487,53.9139],[8.5147,53.9176],[8.5026,53.9281]]],[[[8.4582,53.9571],[8.46,53.9596],[8.443,53.9643],[8.4365,53.9636],[8.4344,53.9617],[8.4376,53.9589],[8.4378,53.9536],[8.4299,53.9518],[8.423,53.9522],[8.4199,53.9487],[8.4206,53.9467],[8.4242,53.9448],[8.4313,53.9445],[8.4419,53.9504],[8.4454,53.9544],[8.4522,53.9569],[8.4582,53.9571]]]]},"properties":{"iso3":"DEU","shapeId":"10402087B45896528657515","regionId":"DEU.6_1","name":"Hamburg"}},{"type":"Feature","geometry":{"type":"MultiPolygon","coordinates":[[[[9.103,49.5775],[9.0651,49.6173],[9.102,49.6422],[9.0896,49.6933],[9.1261,49.7],[9.1508,49.7429],[9.1069,49.7587],[9.1317,49.7949],[9.0909,49.7907],[9.0847,49.8475],[9.064,49.8318],[9.0595,49.847],[9.0377,49.8426],[9.0333,49.8665],[9.0505,49.8676],[9.0234,49.9101],[9.0157,49.989],[9.0488,49.9923],[9.0313,50.0396],[8.9765,50.0472],[8.9974,50.0916],[9.0183,50.1116],[9.1175,50.1266],[9.1536,50.1179],[9.1492,50.0906],[9.1916,50.1275],[9.1833,50.1379],[9.2219,50.1494],[9.3736,50.131],[9.4131,50.0841],[9.5125,50.0944],[9.5076,50.1456],[9.5312,50.1608],[9.4981,50.1755],[9.5162,50.1996],[9.5012,50.2435],[9.5829,50.2215],[9.6636,50.2337],[9.6368,50.2514],[9.6524,50.2697],[9.7459,50.3104],[9.7329,50.3561],[9.7621,50.4259],[9.8831,50.3989],[10.0183,50.4665],[10.0618,50.5567],[10.0372,50.6129],[10.081,50.62],[10.07,50.6559],[10.002,50.6766],[9.9476,50.6623],[9.9607,50.6295],[9.8773,50.6387],[9.8813,50.6734],[9.924,50.6951],[9.9089,50.7045],[9.9414,50.7418],[9.9201,50.7596],[9.9284,50.7766],[9.9521,50.7733],[9.9523,50.8214],[10.0231,50.8316],[10.0386,50.8531],[10.0219,50.8479],[10.0219,50.8645],[10.0598,50.8854],[10.0156,50.9206],[9.9715,50.9074],[9.992,50.9345],[9.9571,50.9226],[9.9501,50.9423],[10.0623,50.9438],[10.0195,50.9807],[10.0364,51.0124],[10.1782,50.996],[10.2152,51.0264],[10.1406,51.0585],[10.1746,51.1169],[10.1183,51.1396],[10.1687,51.1533],[10.2,51.113],[10.2073,51.1649],[10.2358,51.1867],[10.0687,51.2266],[10.079,51.2428],[10.047,51.2534],[10.0599,51.2759],[9.972,51.2849],[9.9394,51.3074],[9.9311,51.3927],[9.906,51.4211],[9.8783,51.4045],[9.8507,51.4144],[9.8653,51.3716],[9.8401,51.3836],[9.8406,51.4026],[9.8035,51.4104],[9.8015,51.3869],[9.7021,51.3646],[9.7382,51.3194],[9.7725,51.3363],[9.7682,51.3067],[9.7323,51.2952],[9.6694,51.3177],[9.6285,51.3119],[9.6334,51.3259],[9.5588,51.3477],[9.5484,51.359],[9.577,51.3696],[9.5596,51.3807],[9.5793,51.4018],[9.6436,51.4183],[9.6276,51.4442],[9.6438,51.4692],[9.5863,51.5193],[9.6188,51.5301],[9.6093,51.5569],[9.6478,51.5525],[9.6268,51.582],[9.6909,51.5763],[9.6378,51.6088],[9.626,51.6369],[9.5071,51.6272],[9.4946,51.6574],[9.3371,51.6147],[9.3735,51.591],[9.317,51.5524],[9.3083,51.5126],[9.2421,51.4977],[9.2165,51.4596],[9.1851,51.4663],[9.1584,51.4431],[9.0943,51.4446],[9.0772,51.4649],[9.0923,51.4944],[9.021,51.5186],[8.9133,51.4916],[8.8904,51.4819],[8.9188,51.4303],[8.9481,51.4282],[8.9395,51.3895],[8.6938,51.3768],[8.605,51.3237],[8.5563,51.2775],[8.5936,51.2475],[8.722,51.2737],[8.7417,51.2184],[8.7682,51.2089],[8.7495,51.1977],[8.7582,51.1772],[8.6922,51.1328],[8.7197,51.1103],[8.5281,51.097],[8.5017,51.0795],[8.5276,51.0629],[8.5051,51.0414],[8.5388,51.0194],[8.4597,50.9667],[8.4564,50.9165],[8.4334,50.9182],[8.3586,50.8607],[8.2697,50.8819],[8.1255,50.7884],[8.1668,50.7357],[8.1102,50.6709],[8.1409,50.6302],[8.126,50.6101],[8.1516,50.5994],[8.1379,50.5509],[8.1034,50.5326],[8.0284,50.5506],[7.9789,50.4954],[8.0108,50.4527],[7.9642,50.4122],[8.0598,50.3753],[8.0719,50.3318],[8.1027,50.327],[8.1219,50.2772],[8.1031,50.2598],[8.0359,50.2712],[8.0217,50.2583],[8.0589,50.2344],[8.0354,50.2157],[7.9902,50.2387],[7.8828,50.1813],[7.9329,50.1439],[7.9301,50.1037],[7.854,50.1283],[7.8372,50.0841],[7.774,50.0665],[7.8873,49.9718],[8.1809,50.0352],[8.2724,50.0103],[8.341,49.9511],[8.3547,49.9132],[8.344,49.8801],[8.3836,49.8557],[8.3784,49.8248],[8.4163,49.7739],[8.4792,49.7642],[8.436,49.721],[8.3573,49.6921],[8.382,49.6273],[8.4224,49.5834],[8.4758,49.5845],[8.56,49.5175],[8.6213,49.545],[8.5939,49.6109],[8.6923,49.6237],[8.6721,49.6112],[8.698,49.5998],[8.681,49.5755],[8.7277,49.5183],[8.8219,49.5246],[8.8339,49.4907],[8.8996,49.5037],[8.8765,49.4667],[8.8519,49.4836],[8.8266,49.4693],[8.8365,49.4302],[8.8066,49.4192],[8.8146,49.3969],[8.8546,49.3966],[8.9009,49.4434],[8.9503,49.455],[8.9319,49.4706],[8.9546,49.482],[8.9518,49.5056],[9.0408,49.4991],[9.065,49.5296],[9.1195,49.5122],[9.0722,49.5652],[9.0989,49.5606],[9.103,49.5775]]],[[[8.676,49.616],[8.686,49.6184],[8.6859,49.6217],[8.6806,49.6225],[8.678,49.6198],[8.6751,49.6211],[8.6719,49.6159],[8.676,49.616]],[[8.6821,49.6189],[8.6801,49.6187],[8.6801,49.6203],[8.6841,49.6202],[8.6821,49.6189]]]]},"properties":{"iso3":"DEU","shapeId":"10402087B85226028911536","regionId":"DEU.7_1","name":"Hessen"}},{"type":"Feature","geometry":{"type":"MultiPolygon","coordinates":[[[[11.4278,53.9422],[11.4284,53.9434],[11.4232,53.9422],[11.4268,53.938],[11.4278,53.9422]]],[[[11.477,53.964],[11.4748,53.9639],[11.4771,53.9616],[11.477,53.964]]],[[[11.4672,53.9638],[11.4706,53.9685],[11.4673,53.9676],[11.4657,53.9645],[11.4672,53.9638]]],[[[13.9586,53.941],[13.9608,53.942],[13.959,53.9437],[13.9586,53.941]]],[[[11.473,54.0244],[11.3769,53.9964],[11.3766,53.9787],[11.4318,53.9616],[11.4279,53.9858],[11.4462,53.9973],[11.4415,53.9646],[11.456,53.9575],[11.4953,54.0111],[11.473,54.0244]]],[[[14.0328,53.9441],[14.0334,53.9465],[14.0311,53.9448],[14.0328,53.9441]]],[[[14.0288,53.9474],[14.0273,53.9511],[14.0242,53.9515],[14.0288,53.9474]]],[[[11.4963,54.0313],[11.4864,54.0255],[11.488,54.0241],[11.4909,54.0255],[11.4948,54.0242],[11.4962,54.0291],[11.499,54.0299],[11.4963,54.0313]]],[[[11.5151,54.038],[11.517,54.0484],[11.5152,54.0545],[11.523,54.0685],[11.5119,54.054],[11.5123,54.0399],[11.5151,54.038]]],[[[13.932,54.0247],[13.9342,54.0276],[13.932,54.0306],[13.9263,54.0303],[13.9175,54.0251],[13.9176,54.0193],[13.926,54.016],[13.9244,54.0232],[13.932,54.0247]]],[[[13.7852,54.0529],[13.7823,54.0594],[13.7803,54.0558],[13.7852,54.0529]]],[[[13.8044,54.0844],[13.8018,54.0816],[13.8039,54.0791],[13.8038,54.0833],[13.8064,54.0842],[13.8044,54.0844]]],[[[13.7976,54.174],[13.7493,54.1585],[13.7748,54.1201],[13.8138,54.1078],[13.7699,54.0192],[13.8589,54.0481],[13.8797,54.0403],[13.8532,54.0137],[13.8616,53.9998],[13.9241,54.0358],[13.9073,54.0431],[13.9112,54.064],[13.9733,54.064],[14.0044,54.0107],[14.0327,54.0171],[14.0476,53.9974],[14.0402,53.9407],[14.0118,53.9493],[14.0233,53.9622],[13.9837,53.9621],[13.9635,53.957],[13.9596,53.934],[13.965,53.9898],[13.906,53.9895],[13.8951,53.9665],[13.9227,53.9506],[13.938,53.909],[13.8934,53.8772],[13.8341,53.871],[13.8262,53.8497],[13.8982,53.8399],[13.9315,53.8704],[13.9551,53.8603],[13.9233,53.8521],[13.939,53.8434],[14.0409,53.8745],[14.2131,53.8665],[14.2123,53.9003],[14.1853,53.9141],[14.2263,53.9286],[14.0162,54.0539],[13.8747,54.1003],[13.7976,54.174]]],[[[13.8129,54.1703],[13.8123,54.1734],[13.8066,54.174],[13.8093,54.1699],[13.8129,54.1703]]],[[[13.8112,54.178],[13.8041,54.1782],[13.8033,54.1769],[13.8104,54.1757],[13.8112,54.178]]],[[[13.7744,54.2063],[13.7736,54.2085],[13.7689,54.2089],[13.7689,54.2008],[13.7707,54.2007],[13.7744,54.2063]]],[[[13.9204,54.2515],[13.9176,54.2512],[13.916,54.2481],[13.9086,54.2441],[13.91,54.2426],[13.907,54.2402],[13.9138,54.2419],[13.9174,54.2452],[13.9268,54.2487],[13.9204,54.2515]]],[[[12.5295,54.3464],[12.5296,54.3501],[12.5269,54.3522],[12.528,54.3462],[12.53,54.3455],[12.5295,54.3464]]],[[[12.5315,54.3581],[12.5292,54.3587],[12.5279,54.3541],[12.531,54.3499],[12.5293,54.3547],[12.5355,54.356],[12.5315,54.3581]]],[[[12.5279,54.3578],[12.5279,54.3617],[12.5251,54.3594],[12.5279,54.3578]]],[[[13.5439,54.323],[13.5471,54.3262],[13.5416,54.3305],[13.5422,54.3324],[13.5303,54.3265],[13.5304,54.3225],[13.524,54.3166],[13.5214,54.3152],[13.5185,54.3163],[13.5191,54.3119],[13.5248,54.3094],[13.5241,54.3148],[13.5281,54.3185],[13.5374,54.3226],[13.5439,54.323]]],[[[12.5264,54.3627],[12.5282,54.3667],[12.5249,54.3654],[12.5264,54.3627]]],[[[12.5285,54.3685],[12.5229,54.3681],[12.527,54.3672],[12.5285,54.3685]]],[[[12.5221,54.3721],[12.5225,54.3739],[12.5186,54.3722],[12.5207,54.3704],[12.5241,54.3703],[12.5221,54.3721]]],[[[12.5845,54.3753],[12.5849,54.3807],[12.5804,54.3771],[12.5845,54.3753]]],[[[12.6656,54.4068],[12.6587,54.4083],[12.6563,54.4066],[12.662,54.4067],[12.6624,54.4048],[12.6656,54.4068]]],[[[12.7366,54.4123],[12.7244,54.4124],[12.7181,54.4053],[12.7298,54.4049],[12.7362,54.408],[12.7366,54.4123]]],[[[13.2111,54.397],[13.2172,54.3977],[13.2203,54.4005],[13.2193,54.4022],[13.2142,54.4026],[13.2092,54.4011],[13.2074,54.3977],[13.2111,54.397]]],[[[12.6711,54.4162],[12.6704,54.421],[12.6686,54.4185],[12.6711,54.4162]]],[[[12.6437,54.4197],[12.638,54.4235],[12.6354,54.4221],[12.6373,54.4161],[12.6402,54.4194],[12.6423,54.4179],[12.6408,54.4168],[12.645,54.4156],[12.6437,54.4197]]],[[[12.7255,54.4272],[12.7236,54.4296],[12.7231,54.4279],[12.7255,54.4272]]],[[[12.6957,54.431],[12.6773,54.416],[12.7309,54.4164],[12.6957,54.431]]],[[[12.9293,54.4273],[12.9297,54.4302],[12.9232,54.433],[12.9293,54.4273]]],[[[13.1231,54.4275],[13.123,54.4289],[13.1166,54.4308],[13.1179,54.4267],[13.1253,54.4272],[13.1231,54.4275]]],[[[12.9701,54.4364],[12.9715,54.4405],[12.9678,54.4385],[12.9701,54.4364]]],[[[12.9483,54.4427],[12.9239,54.4348],[12.9606,54.4372],[12.9483,54.4427]]],[[[12.9817,54.4422],[12.9736,54.4414],[12.982,54.4375],[12.9842,54.4406],[12.9817,54.4422]]],[[[12.9885,54.4437],[12.9892,54.4451],[12.987,54.444],[12.9885,54.4437]]],[[[13.0507,54.4602],[12.9732,54.4346],[13.0416,54.4424],[13.0507,54.4602]]],[[[13.2097,54.4635],[13.2032,54.4637],[13.1992,54.4617],[13.1987,54.4573],[13.2006,54.4572],[13.2002,54.4595],[13.2031,54.4616],[13.2097,54.4635]]],[[[13.2115,54.4653],[13.2091,54.4644],[13.2103,54.4636],[13.2115,54.4653]]],[[[13.2073,54.4654],[13.2063,54.4667],[13.2038,54.4659],[13.2073,54.4654]]],[[[13.2248,54.4697],[13.2188,54.467],[13.2132,54.4671],[13.2137,54.4645],[13.2228,54.465],[13.227,54.4697],[13.2248,54.4697]]],[[[13.0807,54.4745],[13.0828,54.4769],[13.0799,54.4757],[13.0807,54.4745]]],[[[13.1836,54.494],[13.1435,54.478],[13.1204,54.4444],[13.2255,54.4707],[13.2248,54.4866],[13.1836,54.494]]],[[[13.1601,54.5129],[13.1567,54.5124],[13.1552,54.5067],[13.1649,54.5021],[13.1631,54.5038],[13.1688,54.5052],[13.169,54.5066],[13.166,54.5113],[13.1601,54.5129]]],[[[13.3013,54.5406],[13.2986,54.5391],[13.3028,54.5375],[13.3013,54.5406]]],[[[13.1247,54.5436],[13.1256,54.5464],[13.1229,54.5498],[13.117,54.5469],[13.1186,54.5389],[13.1211,54.5431],[13.1247,54.5436]]],[[[13.137,54.6048],[13.098,54.5906],[13.065,54.4577],[13.0846,54.5192],[13.1167,54.5377],[13.1114,54.5847],[13.1414,54.5988],[13.158,54.5737],[13.137,54.6048]]],[[[14.4124,53.3296],[14.3903,53.3537],[14.3713,53.4564],[14.3026,53.5534],[14.3169,53.6181],[14.2838,53.6344],[14.2709,53.6653],[14.2837,53.6825],[14.2668,53.6987],[14.2669,53.7535],[14.2836,53.7723],[14.2704,53.7899],[13.9869,53.8122],[13.8225,53.8477],[13.8262,53.8776],[13.9141,53.9219],[13.7436,54.0287],[13.7826,54.0475],[13.7738,54.0598],[13.8088,54.1005],[13.7491,54.1398],[13.6974,54.1489],[13.7183,54.1632],[13.7063,54.1712],[13.6235,54.1397],[13.486,54.1228],[13.5019,54.0871],[13.4894,54.0838],[13.4588,54.0907],[13.4067,54.147],[13.4193,54.1728],[13.3164,54.1601],[13.3713,54.1818],[13.3266,54.1838],[13.2912,54.234],[13.2157,54.2412],[13.1853,54.2663],[13.1428,54.2537],[13.1784,54.2693],[13.1329,54.2794],[13.1389,54.3193],[13.1855,54.3],[13.1541,54.3046],[13.1417,54.2809],[13.193,54.2971],[13.1995,54.2699],[13.2178,54.2793],[13.2682,54.2537],[13.3215,54.2581],[13.3097,54.2657],[13.3367,54.2786],[13.3217,54.2457],[13.2908,54.2513],[13.3936,54.221],[13.4247,54.2385],[13.4174,54.2558],[13.3645,54.2641],[13.358,54.2467],[13.3508,54.2698],[13.3908,54.2795],[13.3867,54.2666],[13.4196,54.3028],[13.4619,54.3164],[13.4546,54.3361],[13.5753,54.353],[13.6142,54.3302],[13.6821,54.3499],[13.6098,54.3166],[13.7036,54.3263],[13.6454,54.2976],[13.7022,54.2956],[13.7095,54.2799],[13.687,54.2799],[13.7242,54.2739],[13.7193,54.3115],[13.7669,54.3418],[13.6729,54.4012],[13.6134,54.4034],[13.5701,54.4599],[13.578,54.4796],[13.6694,54.5211],[13.6798,54.5625],[13.6349,54.5855],[13.4187,54.5809],[13.3772,54.6356],[13.4285,54.6601],[13.4291,54.6849],[13.2506,54.6605],[13.2199,54.6408],[13.2148,54.5956],[13.1609,54.5591],[13.2284,54.5874],[13.2271,54.6252],[13.2824,54.6457],[13.2875,54.6253],[13.2455,54.5578],[13.3324,54.5819],[13.3681,54.6147],[13.3853,54.5807],[13.4461,54.5516],[13.5111,54.5661],[13.4913,54.5588],[13.5142,54.5269],[13.5033,54.4793],[13.5481,54.4749],[13.524,54.448],[13.5574,54.44],[13.5201,54.4339],[13.5422,54.4277],[13.5347,54.4165],[13.4763,54.4246],[13.4835,54.4429],[13.514,54.4432],[13.4708,54.454],[13.5008,54.4823],[13.4484,54.4744],[13.4126,54.4938],[13.4146,54.5199],[13.3762,54.5598],[13.3544,54.5474],[13.3877,54.5313],[13.3445,54.5214],[13.3614,54.5434],[13.3361,54.5485],[13.3707,54.5771],[13.355,54.581],[13.2972,54.5524],[13.3049,54.5141],[13.2894,54.5416],[13.2437,54.5556],[13.1442,54.547],[13.1707,54.5078],[13.2314,54.5109],[13.2286,54.4854],[13.2701,54.4799],[13.2,54.448],[13.1706,54.4537],[13.1494,54.4281],[13.2119,54.4299],[13.2324,54.4038],[13.2548,54.4057],[13.2302,54.3974],[13.2603,54.3805],[13.1299,54.3721],[13.1137,54.3348],[13.1291,54.3211],[13.0798,54.3529],[13.0938,54.3658],[13.0826,54.3794],[13.0257,54.3965],[13.0343,54.4317],[13.0158,54.4394],[12.8977,54.4017],[12.8781,54.365],[12.8097,54.3436],[12.7865,54.3964],[12.7559,54.3706],[12.7441,54.3841],[12.7195,54.3731],[12.7151,54.3987],[12.7001,54.3985],[12.6764,54.3706],[12.7075,54.4119],[12.6591,54.4045],[12.6714,54.3909],[12.5858,54.3562],[12.5538,54.3796],[12.5343,54.3652],[12.5533,54.3561],[12.5357,54.3384],[12.4731,54.3296],[12.4787,54.3039],[12.4294,54.2936],[12.4361,54.3791],[12.5923,54.3836],[12.5779,54.4043],[12.6381,54.4255],[12.6664,54.4086],[12.6932,54.4323],[12.8018,54.4087],[12.927,54.428],[12.921,54.4451],[12.5609,54.4547],[12.5221,54.4866],[12.3409,54.3005],[12.1929,54.241],[12.1275,54.1861],[12.0937,54.1854],[12.101,54.1693],[12.0869,54.1859],[11.8498,54.145],[11.6829,54.1533],[11.5525,54.0927],[11.5251,54.0709],[11.5318,54.0492],[11.6048,54.1028],[11.6262,54.0902],[11.5826,54.0637],[11.5688,54.0309],[11.5185,54.0303],[11.534,54.0196],[11.4702,53.9654],[11.483,53.9681],[11.4817,53.9274],[11.4447,53.9149],[11.4604,53.8955],[11.3345,53.959],[11.2887,53.9316],[11.2539,53.9371],[11.2415,53.9541],[11.2597,53.9835],[11.2072,53.9884],[11.18,54.0152],[11.0422,54.0066],[10.9037,53.9568],[10.8951,53.9245],[10.9671,53.9072],[10.911,53.898],[10.9113,53.9152],[10.8826,53.9245],[10.7711,53.8732],[10.7479,53.8334],[10.7733,53.7924],[10.758,53.7475],[10.8059,53.7392],[10.8509,53.7001],[10.9053,53.7033],[10.9418,53.6845],[10.9549,53.6567],[10.9296,53.6287],[10.9238,53.5842],[10.8637,53.5646],[10.8233,53.5752],[10.8243,53.5137],[10.7017,53.4783],[10.693,53.4551],[10.6323,53.4548],[10.6169,53.3846],[10.5937,53.3679],[10.7007,53.37],[10.8358,53.305],[10.9194,53.3484],[10.988,53.3334],[11.0095,53.2815],[11.0801,53.2205],[11.1941,53.1812],[11.1719,53.1566],[11.1846,53.1364],[11.2264,53.1433],[11.2904,53.1169],[11.3938,53.1103],[11.3956,53.14],[11.5022,53.1214],[11.5485,53.1308],[11.5694,53.1661],[11.5516,53.2084],[11.6292,53.2422],[11.7,53.244],[11.7293,53.2172],[11.8289,53.2287],[11.7961,53.2533],[11.8617,53.2482],[11.8926,53.279],[11.9542,53.2738],[11.9739,53.2992],[12.0236,53.3041],[12.0146,53.3344],[12.0573,53.3493],[12.0453,53.371],[12.0775,53.3694],[12.0921,53.3449],[12.152,53.3615],[12.1686,53.3391],[12.2294,53.3582],[12.2602,53.3239],[12.3942,53.3018],[12.3918,53.2851],[12.4453,53.2499],[12.5298,53.2648],[12.606,53.2444],[12.6606,53.2544],[12.6712,53.2295],[12.7574,53.2244],[12.7395,53.1996],[12.7644,53.1889],[12.846,53.2014],[12.8801,53.1797],[12.9642,53.2004],[12.9794,53.1906],[12.942,53.1743],[13.0062,53.1673],[13.1522,53.2511],[13.2294,53.2166],[13.2527,53.2623],[13.2978,53.2809],[13.3605,53.278],[13.3865,53.2441],[13.4052,53.2464],[13.4382,53.2997],[13.4831,53.2912],[13.5028,53.3273],[13.5235,53.3201],[13.5169,53.3521],[13.5564,53.3761],[13.5501,53.3991],[13.6252,53.4093],[13.6405,53.4472],[13.7154,53.4823],[13.8121,53.4839],[13.8271,53.4987],[13.7777,53.5137],[13.7913,53.5586],[13.8217,53.5181],[13.8793,53.5041],[13.8756,53.4735],[13.9182,53.456],[13.9029,53.432],[13.9164,53.4223],[14.0012,53.435],[14.0822,53.4109],[14.1218,53.4417],[14.2377,53.4273],[14.2431,53.3923],[14.2234,53.3586],[14.0988,53.2617],[14.266,53.2596],[14.2622,53.2766],[14.3019,53.2862],[14.3166,53.3123],[14.4124,53.3296]]]]},"properties":{"iso3":"DEU","shapeId":"10402087B60782008682549","regionId":"DEU.8_1","name":"Mecklenburg-Vorpommern"}},{"type":"Feature","geometry":{"type":"MultiPolygon","coordinates":[[[[6.865,53.5911],[6.8652,53.5928],[6.8625,53.5917],[6.8636,53.5889],[6.8689,53.5919],[6.865,53.5911]]],[[[6.7904,53.6109],[6.6565,53.6079],[6.6393,53.5934],[6.7474,53.5574],[6.7573,53.568],[6.7176,53.5835],[6.8132,53.6023],[6.7904,53.6109]]],[[[6.9001,53.6478],[6.8655,53.6393],[6.8979,53.6272],[6.9001,53.6478]]],[[[7.0758,53.687],[6.8536,53.6633],[7.0998,53.6809],[7.0758,53.687]]],[[[7.347,53.7242],[7.1373,53.707],[7.2702,53.7037],[7.347,53.7242]]],[[[7.43,53.7242],[7.4354,53.7285],[7.4339,53.7314],[7.3939,53.7361],[7.3826,53.7349],[7.3595,53.7269],[7.3637,53.7246],[7.3625,53.7208],[7.3643,53.7203],[7.3659,53.7225],[7.373,53.7225],[7.3901,53.7202],[7.4003,53.7212],[7.4266,53.7203],[7.4299,53.7213],[7.43,53.7242]]],[[[7.5743,53.7592],[7.4798,53.7544],[7.4605,53.7248],[7.6427,53.7536],[7.5743,53.7592]]],[[[7.7266,53.7818],[7.6654,53.76],[7.8153,53.777],[7.7266,53.7818]]],[[[7.8854,53.7946],[7.8464,53.788],[7.8648,53.7731],[7.8756,53.7886],[7.9776,53.7766],[7.8854,53.7946]]],[[[11.2657,53.122],[11.2264,53.1433],[11.1846,53.1364],[11.1719,53.1566],[11.1941,53.1812],[11.0801,53.2205],[11.0095,53.2815],[10.988,53.3334],[10.9282,53.3481],[10.8358,53.305],[10.7007,53.37],[10.5769,53.3599],[10.365,53.4263],[10.308,53.4332],[10.2366,53.3958],[10.1757,53.3966],[10.0518,53.4639],[9.9844,53.4154],[9.9492,53.4309],[9.9066,53.4158],[9.9215,53.4366],[9.8992,53.4576],[9.8624,53.4299],[9.7998,53.4696],[9.8024,53.4933],[9.7638,53.5081],[9.7744,53.5543],[9.6758,53.5647],[9.5506,53.616],[9.5022,53.6968],[9.4333,53.732],[9.3676,53.8086],[9.2897,53.8634],[9.1018,53.8635],[9.0185,53.8348],[8.8248,53.8311],[8.7749,53.8374],[8.6693,53.8917],[8.6149,53.8821],[8.5661,53.846],[8.4834,53.6948],[8.484,53.6559],[8.5204,53.6062],[8.6506,53.6026],[8.6168,53.5744],[8.6464,53.5555],[8.6506,53.5108],[8.6059,53.4842],[8.4927,53.4724],[8.5527,53.5162],[8.5501,53.538],[8.2911,53.6129],[8.243,53.5824],[8.2269,53.5201],[8.3094,53.5228],[8.3146,53.4565],[8.2508,53.3986],[8.1898,53.4096],[8.147,53.4501],[8.0977,53.4461],[8.0756,53.4626],[8.0623,53.5057],[8.1543,53.5136],[8.171,53.5405],[8.1424,53.5797],[8.1489,53.6018],[8.1233,53.5986],[8.0867,53.6436],[8.0447,53.6414],[8.0221,53.6829],[8.0316,53.7057],[8.0087,53.7121],[7.7038,53.7035],[7.5271,53.6715],[7.3429,53.6855],[7.2431,53.6685],[7.1562,53.6302],[7.0873,53.5711],[7.13,53.5324],[7.0859,53.5214],[7.0341,53.5457],[7.0487,53.5081],[7.0241,53.4824],[6.998,53.3714],[7.0287,53.3363],[7.2658,53.3272],[7.1911,53.3176],[7.2169,53.2145],[7.208,53.1885],[7.2271,53.1805],[7.2037,53.1765],[7.1789,53.1381],[7.2028,53.1133],[7.2173,53.007],[7.1816,52.9413],[7.0873,52.8499],[7.0556,52.6434],[6.7526,52.6481],[6.7101,52.6273],[6.7271,52.6151],[6.7187,52.5887],[6.7666,52.5615],[6.6809,52.5533],[6.7054,52.5203],[6.6977,52.4863],[6.7531,52.4638],[6.9417,52.4355],[6.9918,52.4675],[7.0722,52.3734],[7.0263,52.2874],[7.0659,52.2413],[7.1532,52.2665],[7.2979,52.264],[7.5047,52.3608],[7.5821,52.3764],[7.6027,52.421],[7.5643,52.4323],[7.6042,52.4751],[7.6884,52.4537],[7.7138,52.401],[7.8071,52.3714],[7.8918,52.3805],[7.9367,52.365],[7.9486,52.3351],[7.9906,52.3095],[7.9318,52.3018],[7.9565,52.2725],[7.9256,52.2628],[7.9266,52.2265],[7.903,52.1989],[7.934,52.1769],[8.0252,52.1635],[7.9974,52.1545],[8.0078,52.1153],[7.8852,52.0835],[7.9169,52.0516],[7.9811,52.0355],[8.0327,52.0684],[8.0964,52.0571],[8.1925,52.0726],[8.2667,52.1323],[8.4049,52.1115],[8.4129,52.1376],[8.5174,52.185],[8.4424,52.2133],[8.4681,52.2471],[8.458,52.302],[8.4721,52.3154],[8.4426,52.359],[8.314,52.4057],[8.322,52.4262],[8.2972,52.4565],[8.4181,52.4444],[8.4543,52.461],[8.4589,52.4917],[8.5088,52.5147],[8.5569,52.4991],[8.6526,52.5314],[8.7021,52.5035],[8.7181,52.4294],[8.7075,52.3954],[8.8551,52.3892],[8.9371,52.4019],[9.0523,52.5001],[9.0994,52.4975],[9.1367,52.4755],[9.0945,52.4428],[9.1238,52.4215],[9.1216,52.4017],[9.0837,52.3548],[8.9983,52.3262],[8.9881,52.2876],[8.9635,52.279],[9.0764,52.2326],[9.0358,52.2245],[9.0453,52.1838],[8.9858,52.1946],[9.0216,52.172],[9.011,52.1358],[9.0716,52.1483],[9.1533,52.1291],[9.133,52.0966],[9.1933,52.0703],[9.1722,52.0474],[9.1974,52.0117],[9.1793,52.0027],[9.1968,51.9969],[9.1762,51.9804],[9.2089,51.9599],[9.2744,51.9736],[9.2863,51.9571],[9.2639,51.9481],[9.2721,51.9323],[9.3408,51.908],[9.3443,51.8802],[9.3233,51.8551],[9.4596,51.8628],[9.4273,51.8105],[9.4482,51.7948],[9.3754,51.7436],[9.4017,51.7017],[9.3747,51.6498],[9.4946,51.6574],[9.4919,51.6347],[9.515,51.6263],[9.626,51.6369],[9.6378,51.6088],[9.6798,51.588],[9.684,51.5665],[9.6268,51.582],[9.6478,51.5525],[9.6093,51.5569],[9.6188,51.5301],[9.5863,51.5193],[9.6438,51.4692],[9.6276,51.4442],[9.6436,51.4183],[9.5793,51.4018],[9.5596,51.3807],[9.577,51.3696],[9.5484,51.359],[9.6334,51.3259],[9.6285,51.3119],[9.6694,51.3177],[9.7323,51.2952],[9.7682,51.3067],[9.7725,51.3363],[9.7382,51.3194],[9.7021,51.3646],[9.8015,51.3869],[9.7941,51.4072],[9.8406,51.4026],[9.8401,51.3836],[9.8653,51.3716],[9.8507,51.4144],[9.8783,51.4045],[9.906,51.4211],[9.9283,51.3753],[10.0468,51.4367],[10.0691,51.4184],[10.0801,51.4346],[10.1529,51.4303],[10.14,51.4426],[10.1743,51.4463],[10.202,51.4865],[10.2359,51.4714],[10.3423,51.5195],[10.3786,51.5627],[10.37,51.5875],[10.4444,51.5897],[10.519,51.5538],[10.6043,51.5796],[10.6607,51.5608],[10.6663,51.5781],[10.6331,51.5985],[10.649,51.6065],[10.6382,51.6194],[10.7014,51.6422],[10.6705,51.6669],[10.6683,51.7099],[10.6261,51.759],[10.5912,51.769],[10.5742,51.8109],[10.5791,51.8483],[10.6493,51.8891],[10.6133,51.9395],[10.6513,51.9576],[10.6199,51.9577],[10.5612,52.0041],[10.626,52.0082],[10.6555,52.0247],[10.6479,52.0417],[10.6874,52.0481],[10.9644,52.0566],[10.9707,52.0863],[10.9422,52.1031],[11.0441,52.1337],[11.0603,52.1724],[11.0192,52.1781],[11.0136,52.1996],[11.0862,52.2286],[11.0138,52.2866],[11.036,52.3104],[10.9837,52.3417],[11.0575,52.3503],[11.0745,52.3744],[11.0152,52.3881],[10.9337,52.461],[10.95,52.4956],[11.0088,52.4967],[10.9376,52.5674],[10.977,52.6241],[10.9214,52.6104],[10.8297,52.7161],[10.7967,52.7143],[10.7917,52.7482],[10.7553,52.7848],[10.7647,52.8405],[10.9396,52.8533],[11.0021,52.9115],[11.3143,52.8782],[11.505,52.941],[11.4923,52.9597],[11.5125,53.0074],[11.5564,52.9987],[11.5978,53.0359],[11.5059,53.049],[11.4484,53.0784],[11.3389,53.0551],[11.2732,53.0972],[11.2657,53.122]],[[8.6164,53.197],[8.6152,53.1959],[8.6119,53.1974],[8.613,53.1986],[8.6164,53.197]],[[8.5046,53.2289],[8.5537,53.2078],[8.599,53.2125],[8.5811,53.1987],[8.5933,53.1836],[8.628,53.1984],[8.6638,53.1762],[8.8292,53.1644],[8.864,53.1317],[8.9451,53.152],[8.9842,53.1261],[8.947,53.1161],[8.9909,53.0967],[8.9614,53.0852],[8.9803,53.0467],[8.9158,53.011],[8.867,53.0408],[8.8668,53.0221],[8.822,53.0213],[8.7707,53.0534],[8.7315,53.0349],[8.7098,53.046],[8.7092,53.0759],[8.6665,53.0916],[8.6195,53.1675],[8.5047,53.2008],[8.4817,53.2264],[8.5046,53.2289]],[[8.6472,53.61],[8.6535,53.6101],[8.6541,53.6084],[8.6609,53.6071],[8.6577,53.603],[8.6438,53.6055],[8.6451,53.6081],[8.6426,53.6092],[8.6472,53.61]]]]},"properties":{"iso3":"DEU","shapeId":"10402087B38053019909436","regionId":"DEU.9_1","name":"Niedersachsen"}},{"type":"Feature","geometry":{"type":"MultiPolygon","coordinates":[[[[6.2051,50.522],[6.2037,50.5248],[6.198,50.5265],[6.1953,50.531],[6.1921,50.5309],[6.1873,50.5271],[6.1922,50.5211],[6.2053,50.521],[6.2051,50.522]]],[[[9.4405,51.6504],[9.3747,51.6498],[9.4017,51.7017],[9.3754,51.7436],[9.4482,51.7948],[9.4273,51.8105],[9.4596,51.8628],[9.3233,51.8551],[9.3443,51.8802],[9.3408,51.908],[9.2721,51.9323],[9.2639,51.9481],[9.2863,51.9571],[9.2744,51.9736],[9.2089,51.9599],[9.1762,51.9804],[9.1968,51.9969],[9.1793,52.0027],[9.1974,52.0117],[9.1722,52.0474],[9.1933,52.0703],[9.133,52.0966],[9.1533,52.1291],[9.0716,52.1483],[9.0178,52.1324],[9.0216,52.172],[8.9858,52.1946],[9.0453,52.1838],[9.0358,52.2245],[9.0764,52.2326],[8.9635,52.279],[8.9881,52.2876],[8.9983,52.3262],[9.0274,52.3456],[9.0579,52.3396],[9.0988,52.3729],[9.1253,52.412],[9.0945,52.4428],[9.132,52.484],[9.0523,52.5001],[8.9371,52.4019],[8.8551,52.3892],[8.7075,52.3954],[8.7181,52.4294],[8.7021,52.5035],[8.6526,52.5314],[8.5569,52.4991],[8.5088,52.5147],[8.4589,52.4917],[8.4543,52.461],[8.4181,52.4444],[8.3034,52.459],[8.314,52.4057],[8.4426,52.359],[8.4721,52.3154],[8.458,52.302],[8.4681,52.2471],[8.4424,52.2133],[8.5174,52.185],[8.4129,52.1376],[8.4049,52.1115],[8.2667,52.1323],[8.1925,52.0726],[8.0964,52.0571],[8.0327,52.0684],[7.9811,52.0355],[7.9169,52.0516],[7.8852,52.0835],[8.0078,52.1153],[7.9974,52.1545],[8.023,52.1602],[8.017,52.1721],[7.934,52.1769],[7.8998,52.2068],[7.9266,52.2265],[7.9256,52.2628],[7.9565,52.2725],[7.9318,52.3018],[7.9906,52.3095],[7.9486,52.3351],[7.9367,52.365],[7.8918,52.3805],[7.8071,52.3714],[7.7138,52.401],[7.6884,52.4537],[7.6042,52.4751],[7.5643,52.4323],[7.6027,52.421],[7.5821,52.3764],[7.5047,52.3608],[7.2979,52.264],[7.1532,52.2665],[6.9851,52.2253],[6.9513,52.181],[6.9068,52.1752],[6.8554,52.1204],[6.7606,52.1187],[6.7512,52.0855],[6.6947,52.0698],[6.6877,52.0399],[6.7526,52.0286],[6.8266,51.9935],[6.8329,51.9718],[6.7326,51.8987],[6.6842,51.9176],[6.4726,51.8538],[6.3908,51.8739],[6.4092,51.8523],[6.4018,51.8273],[6.3066,51.8492],[6.2795,51.8741],[6.2154,51.8678],[6.1696,51.9013],[6.118,51.9017],[6.1033,51.8926],[6.1374,51.8856],[6.1664,51.8408],[6.0634,51.8654],[5.945,51.8237],[5.9905,51.7832],[5.9551,51.7381],[6.0291,51.7257],[6.045,51.717],[6.0264,51.7093],[6.0307,51.6771],[6.1182,51.6561],[6.0912,51.6059],[6.2121,51.5134],[6.2232,51.4689],[6.2052,51.3995],[6.2264,51.3997],[6.2261,51.3605],[6.1686,51.3329],[6.1245,51.2746],[6.0727,51.2426],[6.0823,51.1716],[6.165,51.1944],[6.1807,51.1864],[6.1388,51.1733],[6.1754,51.1585],[5.9978,51.0843],[5.9579,51.0347],[5.9132,51.0667],[5.8671,51.0467],[5.9055,51.0022],[5.8972,50.9748],[6.0264,50.9833],[6.0053,50.9568],[6.0182,50.9344],[6.0939,50.9213],[6.074,50.8468],[6.0189,50.8463],[6.0251,50.8142],[5.9749,50.798],[6.0278,50.7737],[6.039,50.7184],[6.1153,50.7221],[6.1653,50.6628],[6.1955,50.6629],[6.1877,50.6411],[6.2669,50.6415],[6.2368,50.5663],[6.197,50.531],[6.2266,50.4944],[6.2699,50.5045],[6.3513,50.4883],[6.3402,50.4626],[6.3776,50.4394],[6.3422,50.38],[6.3983,50.3457],[6.405,50.3233],[6.4241,50.3338],[6.385,50.3842],[6.413,50.3895],[6.4209,50.3689],[6.4612,50.359],[6.4516,50.3364],[6.6031,50.3882],[6.6274,50.3719],[6.6236,50.3516],[6.65,50.3482],[6.6674,50.372],[6.6992,50.3361],[6.8007,50.3618],[6.7693,50.3927],[6.7851,50.4206],[6.7455,50.4359],[6.7666,50.4586],[6.7446,50.4726],[6.8009,50.4913],[6.8586,50.4533],[6.9015,50.4691],[6.9071,50.5026],[6.8821,50.5269],[6.9293,50.5331],[6.931,50.5605],[6.9981,50.565],[7.0561,50.6062],[7.0874,50.586],[7.1151,50.6118],[7.1479,50.6003],[7.2038,50.6497],[7.2124,50.6234],[7.3335,50.6384],[7.359,50.6495],[7.3721,50.6821],[7.3571,50.6979],[7.374,50.7182],[7.4432,50.7112],[7.5519,50.7463],[7.5924,50.7405],[7.601,50.7663],[7.6555,50.7679],[7.6822,50.7954],[7.661,50.8204],[7.7293,50.8505],[7.7622,50.8451],[7.7483,50.8672],[7.7604,50.9004],[7.7355,50.9178],[7.7928,50.9423],[7.8515,50.9258],[7.8293,50.8824],[7.9783,50.8333],[7.9642,50.7838],[8.0403,50.7257],[8.0397,50.6974],[8.0992,50.7036],[8.1258,50.6858],[8.1668,50.7357],[8.1255,50.7884],[8.2697,50.8819],[8.3586,50.8607],[8.4334,50.9182],[8.4564,50.9165],[8.4597,50.9667],[8.5388,51.0194],[8.5051,51.0414],[8.5276,51.0629],[8.508,51.0854],[8.551,51.1028],[8.6566,51.0949],[8.7197,51.1103],[8.6922,51.1328],[8.7582,51.1772],[8.7495,51.1977],[8.7682,51.2089],[8.7417,51.2184],[8.722,51.2737],[8.6092,51.2467],[8.5563,51.2775],[8.6211,51.3365],[8.6537,51.3398],[8.6938,51.3768],[8.9395,51.3895],[8.9481,51.4282],[8.9188,51.4303],[8.8904,51.4819],[9.0176,51.5182],[9.0923,51.4944],[9.0772,51.4649],[9.0943,51.4446],[9.2165,51.4596],[9.2252,51.4898],[9.3083,51.5126],[9.317,51.5524],[9.3735,51.591],[9.3371,51.6147],[9.4267,51.6308],[9.4405,51.6504]]],[[[6.2379,50.5779],[6.2252,50.5905],[6.1744,50.5575],[6.178,50.5416],[6.1967,50.5362],[6.2379,50.5779]]],[[[6.2518,50.627],[6.2709,50.629],[6.2315,50.648],[6.1666,50.6437],[6.1818,50.6238],[6.2518,50.627]]],[[[6.1926,50.6626],[6.167,50.661],[6.1839,50.6489],[6.1926,50.6626]]]]},"properties":{"iso3":"DEU","shapeId":"10402087B86022102756745","regionId":"DEU.10_1","name":"Nordrhein-Westfalen"}},{"type":"Feature","geometry":{"type":"Polygon","coordinates":[[[8.4224,49.5834],[8.382,49.6273],[8.3573,49.6921],[8.436,49.721],[8.4792,49.7642],[8.4163,49.7739],[8.3784,49.8248],[8.3836,49.8557],[8.344,49.8801],[8.3547,49.9132],[8.341,49.9511],[8.2724,50.0103],[8.1809,50.0352],[7.8873,49.9718],[7.7725,50.0585],[7.8035,50.0846],[7.8372,50.0841],[7.854,50.1283],[7.9301,50.1037],[7.9329,50.1439],[7.884,50.1696],[7.9111,50.2037],[7.9902,50.2387],[8.0354,50.2157],[8.0589,50.2344],[8.0217,50.2583],[8.0359,50.2712],[8.1031,50.2598],[8.1219,50.2772],[8.1027,50.327],[8.0719,50.3318],[8.0598,50.3753],[7.9642,50.4122],[8.0108,50.4527],[7.9792,50.4846],[7.9929,50.5221],[8.0416,50.557],[8.1177,50.5345],[8.1522,50.5937],[8.126,50.6101],[8.1409,50.6302],[8.1101,50.6573],[8.1258,50.6858],[8.0992,50.7036],[8.0397,50.6974],[8.0403,50.7257],[7.9642,50.7838],[7.9783,50.8333],[7.8293,50.8824],[7.8515,50.9258],[7.8133,50.94],[7.7355,50.9178],[7.7604,50.9004],[7.7483,50.8672],[7.7622,50.8451],[7.7293,50.8505],[7.661,50.8204],[7.6822,50.7954],[7.6555,50.7679],[7.601,50.7663],[7.5924,50.7405],[7.5519,50.7463],[7.4432,50.7112],[7.374,50.7182],[7.3571,50.6979],[7.3721,50.6821],[7.359,50.6495],[7.3335,50.6384],[7.2124,50.6234],[7.2038,50.6497],[7.1479,50.6003],[7.1151,50.6118],[7.0874,50.586],[7.0561,50.6062],[6.9981,50.565],[6.931,50.5605],[6.9293,50.5331],[6.8821,50.5269],[6.9071,50.5026],[6.9015,50.4691],[6.8586,50.4533],[6.8009,50.4913],[6.7446,50.4726],[6.7666,50.4586],[6.7455,50.4359],[6.7851,50.4206],[6.7693,50.3927],[6.7956,50.3595],[6.6992,50.3361],[6.6674,50.372],[6.6362,50.3454],[6.6031,50.3882],[6.4516,50.3364],[6.4486,50.3713],[6.385,50.3842],[6.4253,50.323],[6.3633,50.3054],[6.3065,50.3201],[6.2779,50.2664],[6.1757,50.2354],[6.1664,50.22],[6.1928,50.1819],[6.1469,50.1778],[6.1325,50.1555],[6.1547,50.1419],[6.1296,50.1216],[6.1161,50.0743],[6.1293,50.0735],[6.1124,50.0605],[6.1778,49.954],[6.191,49.9688],[6.1976,49.9484],[6.2239,49.9499],[6.2336,49.9004],[6.311,49.8699],[6.3283,49.8361],[6.3642,49.8508],[6.4291,49.8109],[6.4709,49.8226],[6.5293,49.8094],[6.506,49.7901],[6.5186,49.7624],[6.5005,49.7521],[6.5172,49.7236],[6.496,49.726],[6.507,49.7126],[6.4282,49.6669],[6.4408,49.6559],[6.4214,49.62],[6.3579,49.5738],[6.3801,49.5511],[6.5174,49.5275],[6.564,49.5406],[6.6047,49.5173],[6.6528,49.5509],[6.6904,49.5352],[6.8134,49.592],[6.8354,49.5829],[6.8664,49.6087],[6.9296,49.6124],[6.9409,49.6349],[6.9915,49.6355],[6.986,49.6207],[7.028,49.6394],[7.0877,49.5996],[7.1737,49.5991],[7.2134,49.5658],[7.2687,49.5841],[7.2761,49.5374],[7.3099,49.5232],[7.2857,49.5169],[7.2781,49.4843],[7.3048,49.4724],[7.2502,49.4352],[7.2901,49.4147],[7.2893,49.3888],[7.3558,49.3798],[7.3664,49.3634],[7.3998,49.3717],[7.3899,49.3498],[7.4038,49.3461],[7.3777,49.3204],[7.3944,49.3147],[7.3717,49.2809],[7.3345,49.2783],[7.3246,49.2481],[7.3065,49.2561],[7.2891,49.2378],[7.2958,49.2053],[7.3627,49.1584],[7.3666,49.1723],[7.4456,49.1842],[7.4345,49.1648],[7.494,49.1694],[7.506,49.1505],[7.4896,49.1365],[7.5287,49.0971],[7.6293,49.0736],[7.6312,49.0549],[7.7611,49.0455],[7.7944,49.0657],[7.8668,49.0329],[7.9328,49.0581],[7.9748,49.0268],[8.1399,48.9785],[8.2326,48.9666],[8.2773,48.9899],[8.3581,49.0978],[8.3684,49.1681],[8.4053,49.2206],[8.3848,49.2196],[8.3908,49.2361],[8.4891,49.2931],[8.4505,49.3231],[8.4968,49.3642],[8.5004,49.389],[8.4732,49.3734],[8.4635,49.3844],[8.4962,49.4021],[8.5082,49.4345],[8.4427,49.4502],[8.4638,49.4704],[8.4147,49.5539],[8.4224,49.5834]]]},"properties":{"iso3":"DEU","shapeId":"10402087B42728698084544","regionId":"DEU.11_1","name":"Rheinland-Pfalz"}},{"type":"Feature","geometry":{"type":"Polygon","coordinates":[[[6.3801,49.5511],[6.357,49.5313],[6.3671,49.4695],[6.4291,49.4762],[6.5508,49.4254],[6.5408,49.4013],[6.6022,49.3671],[6.5657,49.3477],[6.6151,49.3013],[6.6702,49.2803],[6.6614,49.2581],[6.69,49.2496],[6.6958,49.2153],[6.7235,49.2188],[6.7314,49.206],[6.7112,49.1883],[6.7386,49.1637],[6.8341,49.1511],[6.8618,49.1788],[6.838,49.2135],[6.9251,49.2233],[7.035,49.1914],[7.0277,49.1701],[7.055,49.1121],[7.0991,49.1556],[7.1132,49.152],[7.1041,49.1384],[7.1594,49.1205],[7.1855,49.1312],[7.198,49.1152],[7.2451,49.1301],[7.2932,49.1149],[7.3214,49.1414],[7.3627,49.1431],[7.3688,49.1615],[7.2958,49.2053],[7.2891,49.2378],[7.3065,49.2561],[7.3246,49.2481],[7.3345,49.2783],[7.3854,49.2941],[7.3945,49.3164],[7.3777,49.3204],[7.4005,49.3377],[7.4021,49.3677],[7.2893,49.3888],[7.2901,49.4147],[7.2502,49.4352],[7.3048,49.4724],[7.2781,49.4843],[7.2857,49.5169],[7.3099,49.5232],[7.2761,49.5374],[7.2687,49.5841],[7.2134,49.5658],[7.1737,49.5991],[7.0877,49.5996],[7.028,49.6394],[6.986,49.6207],[6.9915,49.6355],[6.9409,49.6349],[6.9296,49.6124],[6.8664,49.6087],[6.8354,49.5829],[6.8134,49.592],[6.6904,49.5352],[6.6528,49.5509],[6.6047,49.5173],[6.564,49.5406],[6.5174,49.5275],[6.3801,49.5511]]]},"properties":{"iso3":"DEU","shapeId":"10402087B83775792336645","regionId":"DEU.12_1","name":"Saarland"}},{"type":"Feature","geometry":{"type":"Polygon","coordinates":[[[12.1009,50.318],[12.1845,50.3223],[12.2015,50.2728],[12.2537,50.2711],[12.266,50.2502],[12.2396,50.2462],[12.2939,50.2213],[12.2747,50.1967],[12.2898,50.1769],[12.3346,50.1717],[12.3311,50.2427],[12.3593,50.2423],[12.3521,50.2617],[12.4006,50.2952],[12.398,50.3212],[12.4893,50.3498],[12.512,50.3973],[12.6731,50.4169],[12.7071,50.3973],[12.7346,50.4322],[12.7949,50.4494],[12.8106,50.4311],[12.8194,50.4598],[12.948,50.4043],[13.0199,50.4467],[13.0317,50.5097],[13.0853,50.5003],[13.1327,50.5183],[13.1953,50.5033],[13.2484,50.5921],[13.3237,50.5816],[13.3247,50.608],[13.3777,50.6277],[13.371,50.6505],[13.4648,50.6019],[13.5242,50.6393],[13.5128,50.6537],[13.5444,50.6774],[13.5268,50.705],[13.6643,50.7319],[13.7065,50.7169],[13.7583,50.7358],[13.8552,50.7271],[13.8618,50.7429],[13.8982,50.7445],[13.8875,50.7705],[13.9011,50.7934],[13.9392,50.79],[13.9903,50.82],[14.0307,50.8042],[14.0784,50.8124],[14.2233,50.8592],[14.2332,50.8875],[14.2675,50.8953],[14.3048,50.884],[14.3876,50.8991],[14.3967,50.9365],[14.3117,50.9538],[14.3026,50.9653],[14.3236,50.9854],[14.2586,50.9875],[14.2863,51.027],[14.2738,51.0398],[14.3019,51.055],[14.4084,51.0188],[14.4538,51.0359],[14.4927,51.0234],[14.4912,51.0435],[14.5082,51.0432],[14.4986,51.0221],[14.5992,50.9871],[14.5648,50.9184],[14.6502,50.9315],[14.6529,50.9055],[14.6189,50.8577],[14.7087,50.8409],[14.7223,50.8221],[14.7969,50.8211],[14.8196,50.8851],[14.8966,50.9406],[14.9793,51.0771],[14.9933,51.1628],[15.0418,51.274],[14.9652,51.3611],[14.9837,51.3735],[14.9583,51.3953],[14.9742,51.4417],[14.9525,51.4684],[14.7358,51.526],[14.7112,51.5627],[14.7299,51.5818],[14.7076,51.5973],[14.674,51.5506],[14.6099,51.5501],[14.5696,51.5812],[14.5155,51.5542],[14.3872,51.5418],[14.3324,51.505],[14.274,51.5321],[14.1396,51.544],[14.1424,51.5228],[14.1078,51.5218],[14.0738,51.4927],[14.0873,51.4774],[14.033,51.4751],[14.0628,51.4455],[14.0159,51.4051],[14.0281,51.3959],[14.0036,51.3956],[14.0007,51.3726],[13.9562,51.3971],[13.7633,51.359],[13.7577,51.3715],[13.5941,51.3694],[13.57,51.3857],[13.5426,51.3693],[13.5212,51.4021],[13.4459,51.4314],[13.4214,51.4215],[13.4011,51.4542],[13.3766,51.4246],[13.3203,51.4375],[13.3283,51.4266],[13.2864,51.3993],[13.26,51.4004],[13.2685,51.3848],[13.2173,51.3951],[13.1998,51.4332],[13.1743,51.4283],[13.2031,51.451],[13.1823,51.492],[13.2013,51.4917],[13.208,51.5244],[13.1856,51.5581],[13.1432,51.5675],[13.1618,51.5921],[13.121,51.6189],[13.0863,51.6081],[13.051,51.6477],[13.0235,51.6373],[12.9963,51.6692],[12.9422,51.638],[12.8975,51.6474],[12.8892,51.6669],[12.8658,51.655],[12.8439,51.685],[12.7727,51.6475],[12.6867,51.662],[12.6491,51.6204],[12.6083,51.6106],[12.6292,51.6252],[12.483,51.5932],[12.4448,51.61],[12.4254,51.5821],[12.337,51.5862],[12.2932,51.5606],[12.245,51.567],[12.1928,51.5313],[12.2031,51.4851],[12.1489,51.4631],[12.1572,51.4327],[12.1898,51.4209],[12.1721,51.3842],[12.19,51.3795],[12.1943,51.3306],[12.1477,51.32],[12.1723,51.2857],[12.1661,51.2661],[12.1995,51.2384],[12.2047,51.2142],[12.1737,51.1901],[12.2131,51.1835],[12.1962,51.1419],[12.2416,51.1307],[12.2212,51.1099],[12.2531,51.0973],[12.3316,51.1038],[12.361,51.0798],[12.4584,51.0846],[12.4629,51.0669],[12.4964,51.0662],[12.5074,51.0173],[12.5389,51.0243],[12.5283,50.9983],[12.5838,50.9818],[12.6075,50.9967],[12.6244,50.9397],[12.6541,50.9191],[12.6401,50.9031],[12.5079,50.9037],[12.4593,50.8804],[12.4375,50.8424],[12.3741,50.8532],[12.3476,50.8236],[12.2505,50.8185],[12.2532,50.7888],[12.2902,50.7834],[12.2639,50.7605],[12.2407,50.7672],[12.227,50.7382],[12.2648,50.7375],[12.2628,50.6953],[12.3189,50.684],[12.3177,50.6634],[12.2655,50.6308],[12.1982,50.6413],[12.1828,50.6121],[12.1499,50.6288],[12.1472,50.6061],[12.1102,50.5887],[12.156,50.5735],[12.0836,50.5786],[12.0727,50.5551],[12.0303,50.5494],[12.0175,50.5678],[12.0361,50.5939],[12.0048,50.6138],[12.0214,50.6272],[12.0039,50.6348],[11.9793,50.6214],[11.9888,50.6107],[11.9236,50.5857],[11.926,50.5568],[11.8715,50.5398],[11.8882,50.5167],[11.9253,50.5263],[11.9642,50.487],[11.9377,50.4717],[11.9508,50.4541],[11.9319,50.4642],[11.8885,50.4436],[11.9839,50.3887],[11.976,50.3523],[12.1009,50.318]]]},"properties":{"iso3":"DEU","shapeId":"10402087B89016843004490","regionId":null,"name":"Sachsen"}},{"type":"Feature","geometry":{"type":"MultiPolygon","coordinates":[[[[11.5978,53.0359],[11.5564,52.9987],[11.5125,53.0074],[11.4923,52.9597],[11.505,52.941],[11.3143,52.8782],[11.0021,52.9115],[10.9396,52.8533],[10.7647,52.8405],[10.7553,52.7848],[10.7917,52.7482],[10.7967,52.7143],[10.8297,52.7161],[10.9214,52.6104],[10.977,52.6241],[10.9376,52.5674],[11.0088,52.4967],[10.95,52.4956],[10.9337,52.461],[11.0152,52.3881],[11.0745,52.3744],[11.0575,52.3503],[10.9837,52.3417],[11.036,52.3104],[11.0138,52.2866],[11.0862,52.2286],[11.0136,52.1996],[11.0192,52.1781],[11.0603,52.1724],[11.0441,52.1337],[10.9422,52.1031],[10.9707,52.0863],[10.9644,52.0566],[10.6874,52.0481],[10.6479,52.0417],[10.6555,52.0247],[10.626,52.0082],[10.5612,52.0041],[10.6199,51.9577],[10.6513,51.9576],[10.6133,51.9395],[10.6493,51.8891],[10.5791,51.8483],[10.5804,51.7827],[10.6683,51.7099],[10.6705,51.6669],[10.696,51.643],[10.7645,51.649],[10.8182,51.639],[10.8226,51.6235],[10.922,51.6184],[10.9305,51.5917],[10.8945,51.6018],[10.8821,51.5805],[10.9005,51.5507],[10.948,51.5376],[10.9273,51.5209],[10.9729,51.482],[10.9667,51.4324],[11.0107,51.4253],[10.992,51.4179],[11.0614,51.4298],[11.1418,51.4026],[11.2239,51.4132],[11.2485,51.3951],[11.3213,51.4104],[11.3308,51.3903],[11.3969,51.3813],[11.3994,51.3448],[11.4288,51.3428],[11.4136,51.3331],[11.4752,51.2981],[11.3648,51.2214],[11.4686,51.1927],[11.4855,51.168],[11.451,51.1467],[11.4634,51.1128],[11.5456,51.1025],[11.5717,51.1194],[11.6202,51.0974],[11.667,51.1108],[11.6924,51.0999],[11.7008,51.0694],[11.7323,51.0684],[11.7597,51.0429],[11.8888,51.0558],[11.9119,51.0282],[11.9771,51.0165],[11.9699,50.9943],[12.0066,50.991],[12.0141,50.9687],[12.0922,50.9765],[12.1635,50.9586],[12.1825,50.9759],[12.2138,50.9584],[12.2146,50.938],[12.2939,51.0313],[12.2503,51.0379],[12.2883,51.0882],[12.2212,51.1099],[12.2416,51.1307],[12.1962,51.1419],[12.2131,51.1835],[12.1748,51.1813],[12.2047,51.2142],[12.1477,51.32],[12.1943,51.3306],[12.1958,51.3597],[12.1721,51.3842],[12.1898,51.4209],[12.1572,51.4327],[12.1487,51.4595],[12.2031,51.4851],[12.1928,51.5313],[12.245,51.567],[12.2932,51.5606],[12.337,51.5862],[12.4254,51.5821],[12.4448,51.61],[12.483,51.5932],[12.6292,51.6252],[12.6083,51.6106],[12.6491,51.6204],[12.6867,51.662],[12.7727,51.6475],[12.8439,51.685],[12.8658,51.655],[12.8892,51.6669],[12.8975,51.6474],[12.9422,51.638],[12.9963,51.6692],[13.0235,51.6373],[13.1871,51.7156],[13.154,51.7442],[13.1475,51.7666],[13.1701,51.787],[13.1235,51.8546],[13.1496,51.8723],[13.0392,51.8709],[13.0454,51.9005],[12.9727,51.9009],[12.9606,51.9349],[12.8527,51.935],[12.8442,51.9677],[12.7776,51.9646],[12.6692,52.0129],[12.6152,51.9823],[12.5394,51.9849],[12.4806,52.0333],[12.4302,52.0183],[12.2767,52.104],[12.2168,52.1701],[12.2483,52.1842],[12.2489,52.2117],[12.2973,52.2275],[12.2446,52.2484],[12.3081,52.3447],[12.2838,52.3643],[12.306,52.3774],[12.2918,52.3861],[12.3023,52.405],[12.2745,52.4161],[12.3251,52.4642],[12.3308,52.4786],[12.3083,52.4803],[12.3299,52.4969],[12.2714,52.4875],[12.2361,52.5237],[12.2217,52.5007],[12.1847,52.4958],[12.1673,52.515],[12.1887,52.5324],[12.1418,52.5284],[12.1811,52.5752],[12.172,52.6259],[12.2369,52.6289],[12.2329,52.689],[12.1975,52.7184],[12.2232,52.7397],[12.206,52.7609],[12.2202,52.7901],[12.2575,52.8049],[12.2341,52.8594],[12.1969,52.878],[12.1237,52.8538],[12.1246,52.8936],[12.1126,52.8757],[12.0226,52.8904],[11.9816,52.876],[11.834,52.9104],[11.8231,52.9233],[11.8442,52.9527],[11.7438,52.9885],[11.6921,52.9784],[11.6772,53.0081],[11.6263,53.0126],[11.6394,53.0387],[11.5978,53.0359]],[[12.2672,52.2313],[12.2752,52.2311],[12.2737,52.2288],[12.2658,52.2299],[12.2644,52.2317],[12.2672,52.2313]],[[12.2863,52.2275],[12.2765,52.2283],[12.2791,52.2294],[12.2863,52.2275]],[[12.2191,52.8609],[12.2176,52.8601],[12.2171,52.862],[12.2213,52.8638],[12.2223,52.8625],[12.2191,52.8609]]],[[[11.4468,51.1945],[11.4466,51.1989],[11.4394,51.1998],[11.4397,51.1977],[11.4439,51.1974],[11.4454,51.194],[11.4468,51.1945]]]]},"properties":{"iso3":"DEU","shapeId":"10402087B23625801106445","regionId":"DEU.13_1","name":"Sachsen-Anhalt"}},{"type":"Feature","geometry":{"type":"MultiPolygon","coordinates":[[[[8.6926,54.0604],[8.6822,54.0488],[8.7023,54.0482],[8.6926,54.0604]]],[[[7.8995,54.1892],[7.8691,54.1878],[7.9077,54.1689],[7.9198,54.1887],[7.8995,54.1892]]],[[[11.0825,54.4389],[11.0886,54.4359],[11.0913,54.4381],[11.0825,54.4389]]],[[[8.7359,54.4676],[8.7185,54.4664],[8.7272,54.4623],[8.7359,54.4676]]],[[[8.5528,54.4597],[8.5593,54.4619],[8.562,54.4648],[8.5477,54.4686],[8.545,54.4654],[8.5495,54.4606],[8.5528,54.4597]]],[[[8.5104,54.5273],[8.5167,54.529],[8.5128,54.5295],[8.5072,54.5276],[8.5104,54.5273]]],[[[11.0862,54.5306],[11.0312,54.5118],[11.0089,54.4417],[11.0471,54.4283],[11.0229,54.4439],[11.0951,54.4455],[11.0951,54.4095],[11.121,54.4021],[11.3127,54.4023],[11.2327,54.5069],[11.0862,54.5306]]],[[[8.8166,54.5525],[8.7894,54.5519],[8.8278,54.5458],[8.8166,54.5525]]],[[[8.705,54.5576],[8.5906,54.5317],[8.5922,54.5087],[8.6265,54.4889],[8.7032,54.5013],[8.687,54.5209],[8.705,54.5576]]],[[[8.56,54.576],[8.5085,54.5767],[8.5756,54.5605],[8.56,54.576]]],[[[8.825,54.6043],[8.824,54.6052],[8.8147,54.6019],[8.8085,54.6045],[8.8132,54.5971],[8.8181,54.595],[8.8203,54.5951],[8.8241,54.6004],[8.8332,54.6034],[8.8319,54.6045],[8.825,54.6043]]],[[[8.7715,54.637],[8.7664,54.6378],[8.7612,54.6357],[8.7715,54.637]]],[[[8.7363,54.6439],[8.7138,54.6392],[8.7103,54.6316],[8.7191,54.6273],[8.7287,54.6289],[8.74,54.6363],[8.7403,54.6436],[8.7363,54.6439]]],[[[8.6568,54.6437],[8.6519,54.6576],[8.5289,54.6273],[8.6568,54.6437]]],[[[8.699,54.6809],[8.6812,54.6758],[8.7131,54.6801],[8.699,54.6809]]],[[[8.3424,54.6936],[8.3605,54.7104],[8.2941,54.6662],[8.3655,54.6093],[8.3972,54.6141],[8.3424,54.6936]]],[[[8.5659,54.7519],[8.4273,54.7462],[8.3965,54.7042],[8.5665,54.68],[8.597,54.7191],[8.5659,54.7519]]],[[[8.3643,54.868],[8.3603,54.8696],[8.3621,54.8673],[8.3671,54.8685],[8.3643,54.868]]],[[[10.308,53.4332],[10.5844,53.3604],[10.6169,53.3846],[10.6323,53.4548],[10.693,53.4551],[10.7017,53.4783],[10.8243,53.5137],[10.8233,53.5752],[10.8637,53.5646],[10.9238,53.5842],[10.9296,53.6287],[10.9549,53.6567],[10.9418,53.6845],[10.9053,53.7033],[10.8509,53.7001],[10.8059,53.7392],[10.758,53.7475],[10.7733,53.7924],[10.7477,53.8515],[10.8826,53.9245],[10.9113,53.9152],[10.911,53.898],[10.9676,53.9106],[10.8951,53.9245],[10.9095,53.9463],[10.8828,53.9588],[10.8788,53.9859],[10.7872,53.9974],[10.7525,54.0489],[10.8028,54.0911],[10.8775,54.088],[10.9551,54.1411],[11.0919,54.1973],[11.0719,54.3422],[11.1279,54.3905],[11.0237,54.3677],[11.0221,54.3804],[10.9312,54.3819],[10.7895,54.3121],[10.707,54.305],[10.5996,54.3637],[10.3219,54.4357],[10.2261,54.4139],[10.1742,54.3457],[10.1521,54.3633],[10.1923,54.3902],[10.1689,54.4341],[10.1994,54.4556],[10.134,54.4843],[9.8554,54.4563],[9.9849,54.5125],[10.0273,54.5531],[10.036,54.6884],[9.989,54.7183],[9.9572,54.7799],[9.9095,54.7999],[9.9054,54.7633],[9.8456,54.756],[9.7467,54.8241],[9.6046,54.8546],[9.628,54.8797],[9.5919,54.887],[9.463,54.8316],[9.3827,54.8392],[9.3436,54.8002],[9.2501,54.8097],[9.2401,54.85],[9.0482,54.8719],[8.9479,54.9026],[8.728,54.8927],[8.638,54.9113],[8.6103,54.8884],[8.4274,54.8774],[8.3669,54.9032],[8.3528,54.9679],[8.3799,54.9968],[8.44,55.0159],[8.4367,55.0394],[8.3962,55.0462],[8.4642,55.0457],[8.41,55.0577],[8.3831,55.0373],[8.2979,54.9107],[8.2794,54.7514],[8.2979,54.7402],[8.2961,54.8424],[8.3406,54.8806],[8.4144,54.8472],[8.5102,54.8814],[8.6034,54.8857],[8.6078,54.8411],[8.7017,54.7737],[8.7155,54.7377],[8.6862,54.7303],[8.7411,54.7164],[8.7528,54.6813],[8.8319,54.6526],[8.893,54.5968],[8.8686,54.5618],[8.8715,54.5283],[8.8064,54.4983],[8.8192,54.4865],[8.807,54.4702],[8.8934,54.4606],[8.9455,54.5124],[8.9836,54.524],[9.0156,54.4843],[8.8712,54.4048],[8.6726,54.3996],[8.6491,54.3798],[8.691,54.3731],[8.6915,54.3556],[8.6014,54.3391],[8.6083,54.3088],[8.6744,54.2788],[8.741,54.2936],[8.8418,54.2785],[8.8089,54.171],[8.8579,54.1192],[8.9253,54.1325],[8.9766,54.0712],[8.9587,54.0634],[8.9851,54.061],[8.9586,54.034],[8.8814,54.0461],[8.8048,54.0234],[8.8326,54.0239],[8.878,53.9836],[8.9149,53.9249],[9.0224,53.8795],[9.1998,53.8801],[9.3195,53.8508],[9.4226,53.7407],[9.5022,53.6968],[9.5506,53.616],[9.7028,53.5593],[9.7301,53.5576],[9.7637,53.6275],[9.8288,53.5853],[9.8897,53.6223],[9.9054,53.6522],[9.9856,53.6472],[9.9987,53.6815],[10.0693,53.6795],[10.0818,53.7204],[10.1937,53.731],[10.1403,53.6801],[10.2218,53.6337],[10.189,53.613],[10.2014,53.5841],[10.1526,53.5779],[10.1526,53.5398],[10.1646,53.5199],[10.2106,53.52],[10.3016,53.4432],[10.326,53.4496],[10.308,53.4332]]]]},"properties":{"iso3":"DEU","shapeId":"10402087B46069870964378","regionId":"DEU.15_1","name":"Schleswig-Holstein"}},{"type":"Feature","geometry":{"type":"Polygon","coordinates":[[[11.9193,50.4247],[11.8885,50.4436],[11.9319,50.4642],[11.9508,50.4541],[11.9377,50.4717],[11.9642,50.487],[11.9253,50.5263],[11.8882,50.5167],[11.8715,50.5398],[11.926,50.5568],[11.9236,50.5857],[12.0104,50.6355],[12.0214,50.6272],[12.0048,50.6138],[12.0361,50.5939],[12.0175,50.5678],[12.0521,50.551],[12.0836,50.5786],[12.156,50.5735],[12.1102,50.5887],[12.1472,50.6061],[12.1536,50.6305],[12.1828,50.6121],[12.1982,50.6413],[12.2655,50.6308],[12.322,50.6814],[12.2748,50.6861],[12.2534,50.7157],[12.2734,50.7296],[12.227,50.7382],[12.2407,50.7672],[12.2639,50.7605],[12.2902,50.7834],[12.2532,50.7888],[12.2505,50.8185],[12.3476,50.8236],[12.3741,50.8532],[12.4425,50.844],[12.4593,50.8804],[12.5213,50.9076],[12.6401,50.9031],[12.6529,50.9237],[12.6244,50.9397],[12.6075,50.9967],[12.5838,50.9818],[12.5283,50.9983],[12.5389,51.0243],[12.5074,51.0173],[12.5045,51.0608],[12.4629,51.0669],[12.4584,51.0846],[12.3724,51.0775],[12.3316,51.1038],[12.2656,51.077],[12.2503,51.0379],[12.287,51.0376],[12.2917,51.0187],[12.2146,50.938],[12.2138,50.9584],[12.1825,50.9759],[12.1635,50.9586],[12.0922,50.9765],[12.0141,50.9687],[12.0066,50.991],[11.9699,50.9943],[11.9771,51.0165],[11.9119,51.0282],[11.8888,51.0558],[11.7597,51.0429],[11.7323,51.0684],[11.7008,51.0694],[11.6924,51.0999],[11.667,51.1108],[11.6202,51.0974],[11.5717,51.1194],[11.4852,51.1025],[11.451,51.1467],[11.4853,51.1656],[11.4686,51.1927],[11.3648,51.2214],[11.4752,51.2981],[11.4136,51.3331],[11.4288,51.3428],[11.3994,51.3448],[11.3969,51.3813],[11.3308,51.3903],[11.3213,51.4104],[11.2485,51.3951],[11.2239,51.4132],[11.1418,51.4026],[11.0614,51.4298],[10.992,51.4179],[11.0107,51.4253],[10.9667,51.4324],[10.9729,51.482],[10.9273,51.5209],[10.948,51.5376],[10.9005,51.5507],[10.8821,51.5805],[10.8945,51.6018],[10.9371,51.6035],[10.7645,51.649],[10.6382,51.6194],[10.6387,51.5841],[10.6663,51.5781],[10.6568,51.5583],[10.6043,51.5796],[10.519,51.5538],[10.4444,51.5897],[10.37,51.5875],[10.3677,51.543],[10.2997,51.4939],[10.2332,51.4708],[10.202,51.4865],[10.1743,51.4463],[10.14,51.4426],[10.1529,51.4303],[10.0801,51.4346],[10.0691,51.4184],[10.0468,51.4367],[9.9233,51.368],[9.9492,51.3182],[9.9394,51.3074],[9.972,51.2849],[10.0599,51.2759],[10.047,51.2534],[10.079,51.2428],[10.0687,51.2266],[10.2358,51.1867],[10.2073,51.1649],[10.2,51.113],[10.1687,51.1533],[10.1183,51.1396],[10.1746,51.1169],[10.1406,51.0585],[10.1988,51.0401],[10.2152,51.0264],[10.1926,51.0185],[10.2029,51.0081],[10.1469,50.9938],[10.1208,51.0117],[10.0364,51.0124],[10.0195,50.9807],[10.0623,50.9438],[9.9501,50.9423],[9.9571,50.9226],[9.992,50.9345],[9.9715,50.9074],[10.0156,50.9206],[10.0598,50.8854],[10.0219,50.8645],[10.0219,50.8479],[10.0386,50.8531],[10.0231,50.8316],[9.9523,50.8214],[9.9521,50.7733],[9.9284,50.7766],[9.9201,50.7596],[9.9415,50.7391],[9.9089,50.7045],[9.924,50.6951],[9.8813,50.6734],[9.8786,50.6348],[9.9607,50.6295],[9.9515,50.6659],[10.054,50.6712],[10.083,50.6337],[10.0372,50.6129],[10.0618,50.5567],[10.0413,50.5165],[10.1194,50.5642],[10.1404,50.5429],[10.2039,50.5547],[10.2308,50.5118],[10.3306,50.4943],[10.3362,50.4659],[10.3813,50.4389],[10.3707,50.4318],[10.4038,50.4248],[10.3839,50.4086],[10.3945,50.3937],[10.4495,50.403],[10.4924,50.3551],[10.5444,50.3645],[10.5618,50.3371],[10.6006,50.3337],[10.591,50.2718],[10.6073,50.2713],[10.6113,50.2491],[10.5971,50.2462],[10.612,50.2241],[10.6867,50.2259],[10.7166,50.2048],[10.7322,50.2518],[10.8447,50.2432],[10.8464,50.2751],[10.7154,50.3212],[10.7289,50.3479],[10.7125,50.3546],[10.8727,50.3968],[10.8931,50.3803],[10.9376,50.3919],[10.9858,50.3473],[10.9935,50.3655],[11.043,50.3447],[11.1153,50.367],[11.1168,50.3493],[11.1391,50.3535],[11.1592,50.3304],[11.1318,50.3081],[11.1459,50.285],[11.1871,50.2696],[11.1978,50.2919],[11.2523,50.269],[11.252,50.2993],[11.2703,50.3067],[11.2613,50.3379],[11.2771,50.336],[11.2624,50.3524],[11.2843,50.3603],[11.2581,50.4],[11.268,50.4322],[11.2471,50.4773],[11.291,50.4753],[11.3466,50.5215],[11.4293,50.5122],[11.4409,50.5],[11.4188,50.4935],[11.4206,50.4434],[11.4513,50.431],[11.4434,50.4208],[11.4816,50.4316],[11.4787,50.4012],[11.5189,50.3957],[11.5199,50.3743],[11.5732,50.4001],[11.6246,50.3869],[11.7803,50.4188],[11.8255,50.4044],[11.8243,50.3898],[11.9193,50.4247]],[[11.4468,51.1945],[11.4454,51.194],[11.4439,51.1974],[11.4397,51.1977],[11.4394,51.1998],[11.4466,51.1989],[11.4468,51.1945]]]},"properties":{"iso3":"DEU","shapeId":"10402087B67217417145666","regionId":"DEU.16_1","name":"Thüringen"}}]}