{"type":"FeatureCollection","features":[{"type":"Feature","geometry":{"type":"MultiPolygon","coordinates":[[[[10.1944,56.6357],[10.162,56.6611],[10.1175,56.6627],[10.086,56.633],[10.0538,56.6399],[9.9504,56.5911],[9.8034,56.5834],[9.9358,56.5996],[10.1339,56.6717],[10.1847,56.661],[10.2246,56.6819],[10.3365,56.6893],[10.2918,56.7468],[10.271,56.8251],[10.2768,56.9149],[10.316,56.9813],[10.1915,56.9635],[10.0258,57.0484],[9.9451,57.0129],[9.8856,57.0222],[9.8388,57.0032],[9.7004,56.999],[9.621,56.9224],[9.5806,56.9138],[9.5709,56.8805],[9.5429,56.9113],[9.5736,56.9122],[9.5853,56.9434],[9.5267,56.9693],[9.4241,56.9786],[9.3029,56.9613],[9.1872,56.8869],[9.1731,56.8543],[9.218,56.8195],[9.175,56.7718],[9.1898,56.729],[9.2417,56.7181],[9.2479,56.6992],[9.1649,56.6427],[9.1758,56.6267],[9.2987,56.6532],[9.3211,56.6236],[9.3957,56.6165],[9.4219,56.5889],[9.4548,56.5856],[9.4802,56.6232],[9.5141,56.6306],[9.5679,56.5797],[9.6709,56.5687],[9.6404,56.5254],[9.6986,56.5332],[9.7482,56.4989],[9.8744,56.4987],[9.9569,56.5403],[10.0472,56.5489],[10.1944,56.6357]]],[[[10.2229,56.6719],[10.2292,56.6676],[10.2383,56.6698],[10.2371,56.6717],[10.2276,56.6733],[10.2229,56.6719]]],[[[10.2749,56.6738],[10.2745,56.6727],[10.2788,56.6719],[10.2843,56.673],[10.2749,56.6738]]],[[[9.0764,56.8636],[9.1076,56.8585],[9.0923,56.8741],[9.0764,56.8636]]],[[[9.5555,56.9689],[9.565,56.9604],[9.5699,56.9598],[9.574,56.9615],[9.5731,56.967],[9.568,56.9691],[9.5636,56.9703],[9.5555,56.9689]]],[[[9.5956,56.94],[9.5968,56.938],[9.6059,56.9357],[9.6064,56.9378],[9.5956,56.94]]],[[[9.7921,57.0391],[9.7857,57.0355],[9.787,57.0337],[9.7954,57.0352],[9.7967,57.0367],[9.7921,57.0391]]],[[[9.8776,57.0262],[9.8165,57.0314],[9.8476,57.014],[9.8776,57.0262]]],[[[8.5498,56.7095],[8.5899,56.6968],[8.5784,56.7139],[8.5498,56.7095]]],[[[8.9308,56.9547],[8.907,56.9325],[8.8704,56.9376],[8.8241,56.8874],[8.6415,56.8761],[8.6549,56.8478],[8.6365,56.8293],[8.6515,56.8269],[8.615,56.8144],[8.669,56.793],[8.5444,56.7821],[8.56,56.7508],[8.5091,56.7394],[8.5045,56.7178],[8.5457,56.732],[8.6563,56.6989],[8.6143,56.7002],[8.6451,56.6568],[8.7723,56.6722],[8.8475,56.7285],[8.8422,56.7434],[8.8707,56.7605],[8.8603,56.7689],[8.8846,56.7636],[8.8353,56.8504],[8.8645,56.8683],[8.8995,56.844],[8.9297,56.8964],[8.918,56.9267],[8.9308,56.9547]]],[[[11.1902,57.3246],[10.9392,57.3188],[10.8769,57.2797],[11.0092,57.2367],[11.0825,57.2657],[11.0781,57.3017],[11.1753,57.3139],[11.1882,57.2898],[11.1902,57.3246]]],[[[10.9317,57.3785],[10.9265,57.3793],[10.9217,57.3775],[10.9209,57.3751],[10.9311,57.3758],[10.9317,57.3785]]],[[[10.9676,57.235],[10.9591,57.2376],[10.9618,57.2426],[10.9535,57.2428],[10.951,57.241],[10.9569,57.2379],[10.9537,57.2343],[10.9564,57.232],[10.9651,57.2299],[10.9676,57.235]]],[[[10.9874,57.2279],[10.9844,57.2238],[10.9915,57.2218],[10.9974,57.2172],[11.0007,57.2174],[11.0058,57.2213],[11.0117,57.2195],[11.0191,57.2214],[11.0293,57.2213],[11.0378,57.2248],[11.0358,57.2284],[11.0288,57.2322],[11.0207,57.2321],[11.0193,57.2303],[11.0127,57.2298],[10.9979,57.2306],[10.9927,57.2281],[10.9874,57.2279]]],[[[10.6043,57.5155],[10.6086,57.5092],[10.6193,57.5095],[10.6193,57.5118],[10.6159,57.5136],[10.6043,57.5155]]],[[[8.4015,56.671],[8.4497,56.6926],[8.5109,56.6722],[8.546,56.6867],[8.4607,56.7087],[8.499,56.7514],[8.4678,56.7776],[8.614,56.8332],[8.6781,56.9439],[8.7779,56.9343],[8.8553,56.9568],[8.8196,56.9929],[8.9117,56.9553],[8.9527,56.9867],[9.0314,57.0],[9.0517,56.9834],[9.1398,57.0117],[9.2584,56.9574],[9.4309,56.9995],[9.5844,57.0006],[9.6735,57.0573],[9.6909,57.055],[9.6566,57.0317],[9.7443,57.0245],[9.7918,57.0696],[9.9371,57.0174],[9.9877,57.0545],[10.0299,57.0573],[10.2394,56.9693],[10.3231,56.9979],[10.3654,57.0333],[10.4533,57.2057],[10.5631,57.2741],[10.5279,57.4174],[10.5413,57.455],[10.5709,57.4652],[10.4508,57.5555],[10.4385,57.6123],[10.544,57.7018],[10.6443,57.7398],[10.5591,57.7416],[10.3253,57.6397],[10.1839,57.5992],[9.9669,57.592],[9.7997,57.46],[9.7236,57.3575],[9.5614,57.2038],[9.4072,57.1326],[9.174,57.1136],[8.9801,57.1402],[8.874,57.1033],[8.7544,57.0909],[8.601,57.1221],[8.5171,57.0507],[8.4806,57.0457],[8.3625,56.9622],[8.2278,56.8085],[8.2151,56.7321],[8.2338,56.7028],[8.2549,56.7807],[8.2941,56.7607],[8.3047,56.7224],[8.3495,56.6764],[8.4015,56.671]]],[[[9.2684,56.9579],[9.2596,56.9563],[9.2549,56.9534],[9.2577,56.9489],[9.268,56.9524],[9.2703,56.9564],[9.2684,56.9579]]]]},"properties":{"iso3":"DNK","shapeId":"84455774B84842167963849","regionId":"DNK.3_1","name":"Nordjylland"}},{"type":"Feature","geometry":{"type":"MultiPolygon","coordinates":[[[[10.253,55.7287],[10.2383,55.7168],[10.3149,55.7128],[10.328,55.7384],[10.3117,55.7598],[10.2953,55.7303],[10.253,55.7287]]],[[[10.4052,55.9292],[10.4143,55.9203],[10.4298,55.9165],[10.4424,55.9175],[10.4547,55.9219],[10.4494,55.9268],[10.4432,55.9288],[10.4292,55.9288],[10.4065,55.932],[10.4052,55.9292]]],[[[10.5601,55.9786],[10.5232,55.955],[10.522,55.9348],[10.6035,55.888],[10.5844,55.8464],[10.5307,55.8282],[10.529,55.7713],[10.5553,55.7484],[10.619,55.7468],[10.6435,55.779],[10.6459,55.8286],[10.6794,55.8667],[10.6397,55.8574],[10.6179,55.8734],[10.6145,55.8924],[10.6515,55.8993],[10.5906,55.9169],[10.5601,55.9786]]],[[[10.6384,55.8763],[10.6327,55.8732],[10.6411,55.8692],[10.646,55.8714],[10.646,55.8749],[10.6384,55.8763]]],[[[10.6439,55.881],[10.6485,55.8803],[10.6567,55.8831],[10.6582,55.8867],[10.6531,55.887],[10.6439,55.881]]],[[[10.6669,55.9162],[10.6773,55.9117],[10.6792,55.9162],[10.6767,55.9179],[10.668,55.918],[10.6669,55.9162]]],[[[10.6792,55.9099],[10.6755,55.9086],[10.6731,55.9045],[10.6734,55.8999],[10.6783,55.898],[10.6907,55.8823],[10.69,55.8877],[10.6824,55.8954],[10.6792,55.9099]]],[[[10.7542,55.9346],[10.7529,55.933],[10.7647,55.9298],[10.7695,55.932],[10.7654,55.9341],[10.7542,55.9346]]],[[[11.5049,56.7209],[11.5355,56.6905],[11.5653,56.6909],[11.6474,56.7364],[11.5049,56.7209]]],[[[10.7929,56.1218],[10.8072,56.1209],[10.8109,56.1221],[10.8131,56.1251],[10.8061,56.128],[10.7929,56.1218]]],[[[8.2888,55.9846],[8.2859,55.974],[8.2876,55.9711],[8.2986,55.9804],[8.2972,55.9853],[8.2906,55.9865],[8.2888,55.9846]]],[[[9.3211,56.6236],[9.2874,56.5155],[9.3695,56.5173],[9.3667,56.4847],[9.3398,56.4925],[9.3041,56.4734],[9.2486,56.5289],[9.2902,56.5572],[9.2856,56.5766],[9.1732,56.5809],[9.1552,56.6144],[9.1177,56.5838],[9.1524,56.5685],[9.0988,56.5652],[9.0961,56.5308],[9.062,56.5181],[9.0466,56.5575],[9.0587,56.591],[9.1815,56.67],[9.1368,56.7047],[9.1113,56.7543],[8.9636,56.7747],[8.868,56.7418],[8.8296,56.6852],[8.8893,56.6884],[8.9184,56.6695],[8.8186,56.6719],[8.7301,56.6036],[8.7038,56.5923],[8.7045,56.6081],[8.6791,56.6067],[8.7013,56.5686],[8.7649,56.531],[8.7376,56.5103],[8.7386,56.4585],[8.6592,56.447],[8.6252,56.456],[8.6108,56.482],[8.5276,56.4721],[8.6289,56.5008],[8.6447,56.5654],[8.6133,56.5403],[8.6232,56.5001],[8.5759,56.5278],[8.5641,56.5644],[8.5192,56.5293],[8.3885,56.5727],[8.3103,56.5739],[8.2981,56.5491],[8.2778,56.5856],[8.3007,56.5922],[8.2275,56.6044],[8.2187,56.6306],[8.1817,56.639],[8.2204,56.6862],[8.213,56.7094],[8.1924,56.7039],[8.1126,56.5383],[8.1212,56.3714],[8.1276,56.4323],[8.1625,56.4337],[8.1885,56.375],[8.2959,56.3081],[8.2464,56.2825],[8.2381,56.3141],[8.1322,56.3289],[8.1386,56.362],[8.1221,56.3688],[8.1392,56.2233],[8.1076,56.0372],[8.1257,55.9931],[8.1458,55.9961],[8.1306,56.0332],[8.1442,56.111],[8.2361,56.0903],[8.3078,56.0493],[8.3176,55.9947],[8.3816,55.9374],[8.3883,55.8939],[8.2847,55.8335],[8.2384,55.8259],[8.234,55.8481],[8.266,55.8474],[8.2718,55.8657],[8.2424,55.8649],[8.2323,55.8788],[8.2459,55.8884],[8.22,55.8882],[8.2206,55.8555],[8.1866,55.8183],[8.1995,55.8523],[8.1775,55.9065],[8.1835,55.9426],[8.1344,55.9879],[8.1782,55.8043],[8.2207,55.8174],[8.2837,55.7849],[8.3617,55.8035],[8.4668,55.7543],[8.5097,55.7629],[8.5147,55.789],[8.5475,55.8016],[8.5346,55.8166],[8.5581,55.8265],[8.5959,55.8127],[8.6762,55.823],[8.7454,55.7785],[8.8209,55.7884],[8.7946,55.8103],[8.8772,55.8639],[8.9578,55.853],[8.9564,55.8107],[9.0067,55.7963],[9.1463,55.8452],[9.2151,55.9107],[9.2466,55.9113],[9.3792,55.8811],[9.4531,55.8177],[9.441,55.7932],[9.4955,55.7829],[9.5337,55.7323],[9.5798,55.7387],[9.5921,55.7098],[9.6695,55.7095],[9.6633,55.6707],[9.7433,55.6407],[9.8351,55.6308],[10.0174,55.6622],[9.9963,55.6903],[10.0766,55.7087],[10.014,55.7259],[10.0613,55.7688],[10.048,55.7836],[9.8646,55.8068],[10.0822,55.8438],[10.1349,55.8405],[10.1544,55.81],[10.1935,55.8026],[10.1945,55.8489],[10.2558,55.8772],[10.2512,55.9552],[10.2781,55.9849],[10.2096,56.0927],[10.2334,56.1026],[10.2208,56.1288],[10.3362,56.1987],[10.3884,56.2603],[10.4571,56.2676],[10.4695,56.2467],[10.486,56.258],[10.5113,56.2416],[10.4489,56.1996],[10.4709,56.2013],[10.477,56.178],[10.4424,56.1719],[10.4265,56.1805],[10.4415,56.1908],[10.4215,56.191],[10.3458,56.1596],[10.3967,56.1304],[10.4432,56.1519],[10.5254,56.1474],[10.5175,56.1216],[10.4825,56.112],[10.5177,56.0709],[10.5579,56.0903],[10.5341,56.1463],[10.5828,56.1955],[10.6698,56.2091],[10.667,56.1719],[10.6378,56.1618],[10.6844,56.1284],[10.7164,56.1289],[10.7507,56.2191],[10.814,56.2502],[10.918,56.3457],[10.9294,56.4314],[10.9641,56.4494],[10.8405,56.5384],[10.7815,56.5447],[10.4973,56.4983],[10.3999,56.5126],[10.3423,56.567],[10.3083,56.5743],[10.2297,56.5024],[10.2219,56.4374],[10.2744,56.4326],[10.2174,56.433],[10.2207,56.5117],[10.3623,56.6128],[10.3465,56.6782],[10.2004,56.6421],[10.1242,56.5992],[10.1145,56.575],[10.0472,56.5489],[9.9569,56.5403],[9.8335,56.4943],[9.7482,56.4989],[9.6986,56.5332],[9.6453,56.5232],[9.643,56.5486],[9.6709,56.5687],[9.5679,56.5797],[9.5141,56.6306],[9.4802,56.6232],[9.4548,56.5856],[9.4219,56.5889],[9.3957,56.6165],[9.3211,56.6236]]],[[[9.992,55.8273],[9.9909,55.8246],[9.9936,55.8233],[10.002,55.8231],[10.0073,55.8245],[10.0079,55.8276],[9.992,55.8273]]],[[[10.031,55.8064],[10.1152,55.8254],[10.0584,55.8278],[10.031,55.8064]]],[[[10.0542,55.7903],[10.0596,55.7843],[10.0762,55.7814],[10.0793,55.7788],[10.0892,55.7805],[10.0956,55.7833],[10.0976,55.7861],[10.0936,55.7908],[10.0809,55.7954],[10.0768,55.7934],[10.0717,55.7954],[10.0667,55.7938],[10.0569,55.7937],[10.0542,55.7903]]],[[[8.1815,56.3355],[8.191,56.3348],[8.1895,56.337],[8.185,56.338],[8.1815,56.3355]]],[[[8.4013,56.6665],[8.4848,56.6249],[8.542,56.5655],[8.5564,56.5674],[8.5306,56.5835],[8.59,56.5883],[8.5968,56.6231],[8.6328,56.6086],[8.6438,56.6419],[8.5947,56.6508],[8.6014,56.6259],[8.5876,56.6289],[8.5723,56.6433],[8.584,56.676],[8.5023,56.6585],[8.4725,56.6785],[8.4013,56.6665]]],[[[8.9583,56.8073],[9.0106,56.7717],[9.0806,56.7932],[9.0646,56.8047],[9.0789,56.8132],[9.046,56.8175],[8.9583,56.8073]]]]},"properties":{"iso3":"DNK","shapeId":"84455774B58555105451238","regionId":"DNK.2_1","name":"Midtjylland"}},{"type":"Feature","geometry":{"type":"MultiPolygon","coordinates":[[[[10.964,54.8289],[10.9642,54.8349],[10.968,54.84],[10.9735,54.8399],[10.9747,54.8421],[10.9683,54.8472],[10.9702,54.85],[10.964,54.8503],[10.9589,54.8452],[10.964,54.8289]]],[[[11.0245,54.8466],[11.0294,54.8539],[11.0295,54.8625],[11.0251,54.8657],[11.0204,54.8639],[11.0185,54.859],[11.0227,54.8466],[11.0245,54.8466]]],[[[11.0592,54.8567],[11.0593,54.8539],[11.0634,54.852],[11.0706,54.8536],[11.0655,54.8563],[11.0592,54.8567]]],[[[11.0561,54.8629],[11.0602,54.8629],[11.0643,54.8654],[11.0647,54.868],[11.059,54.873],[11.0561,54.8715],[11.0578,54.8674],[11.0561,54.8629]]],[[[11.2943,54.9879],[11.295,54.9855],[11.2992,54.9841],[11.3037,54.9858],[11.2991,54.9894],[11.2943,54.9879]]],[[[11.3081,54.9857],[11.311,54.9783],[11.3158,54.977],[11.3204,54.98],[11.3196,54.9857],[11.3153,54.9872],[11.3081,54.9857]]],[[[11.3498,55.0377],[11.3782,55.0486],[11.3808,55.05],[11.3801,55.0527],[11.3672,55.0532],[11.3478,55.0439],[11.3498,55.0377]]],[[[11.3537,54.9814],[11.3589,54.9777],[11.3613,54.9721],[11.3739,54.9745],[11.3728,54.9803],[11.3642,54.9845],[11.358,54.9845],[11.3537,54.9814]]],[[[11.3687,54.9656],[11.4123,54.9397],[11.4767,54.9648],[11.4176,54.9848],[11.4146,54.9642],[11.3687,54.9656]]],[[[11.4771,54.9325],[11.4781,54.9283],[11.488,54.9234],[11.4993,54.9295],[11.5119,54.9307],[11.512,54.9319],[11.5035,54.9355],[11.496,54.9346],[11.4837,54.9305],[11.4771,54.9325]]],[[[11.4871,54.918],[11.484,54.9049],[11.5267,54.9095],[11.4871,54.918]]],[[[11.5426,54.9685],[11.5713,54.989],[11.5601,55.0024],[11.505,55.0012],[11.5426,54.9685]]],[[[11.3003,55.7694],[11.305,55.7704],[11.3043,55.778],[11.2916,55.7867],[11.2983,55.7919],[11.2921,55.7962],[11.2825,55.797],[11.2761,55.7909],[11.3003,55.7694]]],[[[11.2101,55.8588],[11.0804,55.9134],[11.1455,55.8727],[11.2101,55.8588]]],[[[11.775,55.787],[11.8117,55.7551],[11.8457,55.7893],[11.8206,55.8138],[11.8153,55.7882],[11.775,55.787]]],[[[11.8109,55.7507],[11.8095,55.7435],[11.8113,55.7422],[11.816,55.7423],[11.8191,55.7445],[11.8174,55.7481],[11.8109,55.7507]]],[[[11.7613,55.7365],[11.766,55.7341],[11.7716,55.7367],[11.7661,55.7385],[11.7613,55.7365]]],[[[12.2232,55.054],[12.24,55.0784],[12.1849,55.0647],[12.2232,55.054]]],[[[12.2371,55.0631],[12.2879,55.0363],[12.2815,55.0055],[12.2141,54.9897],[12.1725,55.0077],[12.1873,54.9915],[12.126,54.9795],[12.1436,54.9632],[12.1116,54.9255],[12.1864,54.9025],[12.3629,54.9875],[12.5003,54.9658],[12.5575,54.9819],[12.5266,55.0284],[12.322,55.0488],[12.2692,55.0789],[12.2371,55.0631]]],[[[12.1222,55.0096],[12.1061,54.9892],[12.1378,55.0091],[12.1222,55.0096]]],[[[12.1082,54.9828],[12.0949,54.9833],[12.0846,54.9786],[12.0689,54.9766],[12.07,54.9736],[12.0805,54.9701],[12.0919,54.9728],[12.1068,54.978],[12.1082,54.9828]]],[[[12.0875,54.9312],[12.069,54.9617],[12.017,54.9562],[11.9885,54.9755],[12.0089,54.9439],[12.0875,54.9312]]],[[[11.6797,55.2032],[11.6838,55.1994],[11.6906,55.2018],[11.6876,55.2053],[11.6797,55.2032]]],[[[11.6641,55.0895],[11.6751,55.0878],[11.6725,55.0936],[11.6373,55.0994],[11.6286,55.0994],[11.6294,55.096],[11.6641,55.0895]]],[[[11.891,55.0166],[11.8825,55.0161],[11.8819,55.012],[11.892,55.0024],[11.8976,54.9984],[11.9013,54.9978],[11.905,54.9986],[11.9054,55.0008],[11.891,55.0166]]],[[[11.979,54.5943],[11.9691,54.7106],[12.0839,54.813],[12.162,54.8521],[12.1608,54.8734],[12.121,54.9111],[11.9998,54.9217],[11.9694,54.9623],[11.9058,54.9393],[11.8288,54.9883],[11.812,54.9574],[11.7746,54.9811],[11.7378,54.9739],[11.744,54.9629],[11.7111,54.9528],[11.7617,54.9374],[11.7444,54.9212],[11.7608,54.8792],[11.8089,54.8687],[11.8202,54.8522],[11.8006,54.8331],[11.8898,54.7789],[11.8771,54.7556],[11.9167,54.7464],[11.8752,54.6847],[11.9214,54.637],[11.9249,54.6054],[11.979,54.5943]]],[[[11.8641,54.7547],[11.8625,54.7502],[11.8732,54.7485],[11.873,54.7523],[11.8641,54.7547]]],[[[11.2161,55.1902],[11.1838,55.241],[11.1976,55.2513],[11.1711,55.2565],[11.1756,55.2088],[11.2161,55.1902]]],[[[11.156,55.1508],[11.1832,55.1796],[11.1423,55.1693],[11.156,55.1508]]],[[[11.7198,55.1865],[11.7339,55.2093],[11.7061,55.2152],[11.6897,55.1865],[11.7198,55.1865]]],[[[11.872,55.7402],[11.8374,55.6923],[11.7725,55.6644],[11.8076,55.6965],[11.7834,55.7294],[11.6547,55.7324],[11.7683,55.7503],[11.7428,55.7663],[11.7594,55.7694],[11.7436,55.7948],[11.6094,55.7851],[11.6583,55.8195],[11.7323,55.8246],[11.7078,55.8661],[11.67,55.8835],[11.6736,55.9163],[11.7498,55.9077],[11.7542,55.9441],[11.7887,55.9541],[11.7786,55.9779],[11.6372,55.9417],[11.5893,55.9659],[11.5232,55.9545],[11.3853,55.9702],[11.2792,56.0105],[11.2936,55.9777],[11.5234,55.9321],[11.5278,55.8902],[11.4921,55.8497],[11.4012,55.8343],[11.3545,55.8463],[11.3758,55.8322],[11.3754,55.7777],[11.2684,55.7312],[11.2215,55.7472],[11.1947,55.7343],[11.1803,55.7542],[11.0554,55.7282],[10.9845,55.7427],[10.8761,55.7336],[10.9881,55.721],[11.098,55.6758],[11.1038,55.659],[10.935,55.6645],[11.0283,55.6501],[11.14,55.6036],[11.1521,55.5423],[11.0923,55.5349],[11.0839,55.5173],[11.1068,55.5109],[11.1251,55.5294],[11.1747,55.4998],[11.2065,55.4476],[11.1966,55.4213],[11.2193,55.4026],[11.0975,55.3541],[11.2349,55.2962],[11.2472,55.2545],[11.2941,55.2581],[11.2833,55.2432],[11.2371,55.2506],[11.2514,55.213],[11.3335,55.2022],[11.324,55.2195],[11.3748,55.2084],[11.4433,55.2295],[11.4986,55.2123],[11.4754,55.2046],[11.5993,55.2038],[11.679,55.174],[11.6858,55.1923],[11.6659,55.1875],[11.6627,55.203],[11.7221,55.2201],[11.7449,55.196],[11.7233,55.1709],[11.7984,55.169],[11.8209,55.1522],[11.7305,55.143],[11.7241,55.1275],[11.8355,55.0633],[11.6895,55.0845],[12.0276,54.9832],[12.1726,55.0155],[12.1064,55.1065],[12.156,55.0941],[12.1898,55.1328],[12.0692,55.1544],[12.0376,55.1394],[12.0392,55.1583],[12.016,55.1655],[12.0927,55.1918],[12.081,55.1576],[12.0993,55.15],[12.1111,55.1928],[12.1545,55.2259],[12.2659,55.2564],[12.3568,55.25],[12.4553,55.3003],[12.4555,55.3432],[12.4339,55.3695],[12.3671,55.4072],[12.2256,55.4343],[12.1953,55.4595],[12.2146,55.5131],[12.1966,55.4999],[12.2378,55.5513],[12.3594,55.601],[12.276,55.6286],[12.1589,55.6206],[12.1508,55.6762],[12.2472,55.7121],[12.2073,55.7335],[12.2236,55.7429],[12.2113,55.7544],[12.157,55.7534],[12.0853,55.7845],[12.0925,55.7487],[12.1166,55.7317],[12.0992,55.723],[12.1068,55.7063],[12.0819,55.7],[12.0961,55.6921],[12.0744,55.694],[12.0896,55.6751],[12.072,55.6579],[11.994,55.6909],[11.9527,55.6827],[11.9306,55.6546],[11.9824,55.7324],[11.9323,55.7512],[11.872,55.7402]]],[[[11.3939,55.2025],[11.4675,55.2003],[11.4325,55.2171],[11.3939,55.2025]]],[[[12.04,55.6859],[12.0478,55.6856],[12.0501,55.6874],[12.0489,55.6895],[12.0405,55.6916],[12.0415,55.6955],[12.0366,55.6985],[12.0125,55.7005],[12.0017,55.6988],[11.9987,55.7001],[12.0001,55.7067],[11.995,55.7084],[11.9865,55.7017],[11.9823,55.7005],[11.982,55.6983],[11.9917,55.6948],[11.9941,55.692],[11.9986,55.6947],[12.0031,55.6946],[12.0237,55.6871],[12.0294,55.6863],[12.0373,55.688],[12.04,55.6859]]],[[[11.6008,54.6756],[11.6049,54.6723],[11.6085,54.6717],[11.6099,54.6728],[11.6059,54.6762],[11.6007,54.677],[11.6008,54.6756]]],[[[11.0229,54.9016],[11.1159,54.8459],[11.0753,54.8345],[11.0747,54.8166],[10.9895,54.8346],[11.0205,54.825],[10.9774,54.8115],[11.009,54.7795],[11.2603,54.7284],[11.5022,54.6249],[11.5189,54.6224],[11.4711,54.6376],[11.5713,54.6853],[11.6713,54.6948],[11.7222,54.6807],[11.7317,54.6933],[11.8064,54.6742],[11.8387,54.681],[11.8654,54.7185],[11.8135,54.7379],[11.8271,54.7608],[11.8699,54.7627],[11.8637,54.797],[11.79,54.8311],[11.7954,54.8544],[11.7547,54.8662],[11.7507,54.8969],[11.6612,54.923],[11.6423,54.9235],[11.6534,54.8812],[11.5679,54.8703],[11.6216,54.8357],[11.4733,54.8615],[11.473,54.8813],[11.3867,54.9032],[11.3631,54.9347],[11.2698,54.9714],[11.0864,54.9552],[11.0229,54.9016]]],[[[11.7209,55.1397],[11.7309,55.1514],[11.724,55.1606],[11.7204,55.1611],[11.716,55.1429],[11.7209,55.1397]]],[[[11.6869,55.1736],[11.6922,55.1671],[11.6988,55.1629],[11.7119,55.1561],[11.7161,55.1564],[11.7172,55.1604],[11.7144,55.1643],[11.6996,55.1695],[11.6938,55.1742],[11.6881,55.1747],[11.6869,55.1736]]]]},"properties":{"iso3":"DNK","shapeId":"84455774B92412385890269","regionId":"DNK.4_1","name":"Sjælland"}},{"type":"Feature","geometry":{"type":"MultiPolygon","coordinates":[[[[14.7709,55.2964],[14.7063,55.2181],[14.7045,55.1339],[14.6853,55.104],[14.7766,55.0586],[14.9637,55.0103],[15.068,54.9947],[15.1196,55.0187],[15.1087,55.0428],[15.1537,55.0815],[15.1465,55.138],[15.0159,55.1789],[14.972,55.2136],[14.8283,55.2493],[14.7709,55.2964]]],[[[15.1791,55.3133],[15.188,55.3109],[15.1906,55.3138],[15.1898,55.3155],[15.1833,55.316],[15.1794,55.3158],[15.1791,55.3133]]],[[[12.7726,55.5942],[12.7692,55.5969],[12.7595,55.5987],[12.7402,55.6112],[12.7255,55.6156],[12.726,55.6124],[12.7303,55.6091],[12.7443,55.6044],[12.7539,55.5963],[12.7677,55.5926],[12.7729,55.5923],[12.7726,55.5942]]],[[[12.7298,55.6382],[12.7583,55.6117],[12.788,55.6128],[12.7668,55.6728],[12.7394,55.6668],[12.7298,55.6382]]],[[[12.6779,55.5935],[12.6764,55.6346],[12.6436,55.6482],[12.6167,55.7004],[12.5058,55.611],[12.5153,55.5882],[12.5928,55.5606],[12.6779,55.5935]]],[[[12.3594,55.601],[12.4068,55.6202],[12.49,55.6069],[12.502,55.6379],[12.5402,55.6424],[12.6098,55.713],[12.5808,55.72],[12.5908,55.7881],[12.5107,55.9262],[12.5532,55.9884],[12.6165,56.0354],[12.5191,56.0799],[12.2836,56.1272],[12.1805,56.11],[11.8415,55.9704],[11.8643,55.9452],[11.9707,55.9701],[12.0139,55.9595],[12.0633,55.8797],[12.0417,55.8546],[12.0751,55.7882],[12.157,55.7534],[12.2196,55.7496],[12.2073,55.7335],[12.2472,55.7121],[12.1508,55.6762],[12.1589,55.6206],[12.276,55.6286],[12.3594,55.601]]],[[[12.0736,55.7311],[12.0844,55.7354],[12.0798,55.7474],[12.076,55.7477],[12.0689,55.7394],[12.0707,55.733],[12.0736,55.7311]]],[[[11.9757,55.7359],[12.0614,55.741],[12.0289,55.8537],[11.9947,55.8696],[12.0222,55.9077],[11.9036,55.9399],[11.8976,55.9233],[11.955,55.8554],[11.939,55.8259],[11.8788,55.8194],[11.8536,55.7451],[11.9757,55.7359]]],[[[11.6913,56.1996],[11.6992,56.1947],[11.7073,56.1935],[11.7124,56.1959],[11.7126,56.1996],[11.7054,56.2031],[11.6924,56.2027],[11.6901,56.201],[11.6913,56.1996]]]]},"properties":{"iso3":"DNK","shapeId":"84455774B63592985071065","regionId":"DNK.1_1","name":"Hovedstaden"}},{"type":"Feature","geometry":{"type":"MultiPolygon","coordinates":[[[[10.694,54.7355],[10.7409,54.7576],[10.8429,54.9505],[10.899,55.0006],[10.9582,55.1606],[10.9359,55.165],[10.9059,55.1404],[10.8134,55.0008],[10.6794,54.9167],[10.7113,54.9119],[10.7297,54.8859],[10.6766,54.8888],[10.6525,54.84],[10.6027,54.8421],[10.6555,54.8163],[10.694,54.7355]]],[[[10.6707,54.9644],[10.6952,54.9546],[10.7056,54.955],[10.7061,54.9589],[10.7028,54.9615],[10.6946,54.9637],[10.6707,54.9644]]],[[[10.6232,54.9195],[10.5938,54.9121],[10.6127,54.8964],[10.6232,54.9195]]],[[[10.5754,54.9047],[10.5747,54.9025],[10.5817,54.9001],[10.5854,54.9021],[10.5827,54.9049],[10.5754,54.9047]]],[[[10.5415,54.9118],[10.541,54.9095],[10.544,54.9075],[10.5506,54.9094],[10.5506,54.9107],[10.5415,54.9118]]],[[[10.5017,54.9372],[10.4982,54.9368],[10.4974,54.9341],[10.5003,54.9317],[10.5083,54.9285],[10.5115,54.9294],[10.5113,54.934],[10.5017,54.9372]]],[[[10.484,54.9247],[10.4782,54.9219],[10.4786,54.919],[10.4812,54.9179],[10.488,54.9194],[10.484,54.9247]]],[[[10.4948,54.9725],[10.4971,54.9716],[10.4968,54.9674],[10.4889,54.9645],[10.4811,54.964],[10.4783,54.9629],[10.4801,54.9614],[10.4865,54.96],[10.4954,54.9641],[10.5022,54.9712],[10.4996,54.9743],[10.4948,54.9725]]],[[[10.4543,55.0045],[10.4536,55.0002],[10.4582,54.9963],[10.463,54.9957],[10.4728,55.0017],[10.484,55.0029],[10.4847,55.0043],[10.4705,55.0084],[10.4653,55.012],[10.4543,55.0045]]],[[[10.4237,54.9748],[10.3641,54.9724],[10.441,54.9703],[10.4237,54.9748]]],[[[10.3236,55.0089],[10.2395,55.0271],[10.2515,55.011],[10.3411,55.0029],[10.3236,55.0089]]],[[[10.1713,55.0374],[10.14,55.0529],[10.1228,55.0393],[10.1421,55.0206],[10.1713,55.0374]]],[[[10.3252,55.0334],[10.3242,55.0308],[10.3265,55.0305],[10.3338,55.0318],[10.3346,55.0337],[10.3252,55.0334]]],[[[10.2368,55.0619],[10.2336,55.0614],[10.2374,55.0552],[10.25,55.0479],[10.2572,55.0462],[10.2614,55.0469],[10.2588,55.0527],[10.2368,55.0619]]],[[[9.9803,55.1596],[9.9729,55.1144],[10.0355,55.112],[9.9803,55.1596]]],[[[9.9822,55.1788],[9.9783,55.1737],[9.9795,55.1703],[9.9828,55.1678],[9.9946,55.1666],[9.9971,55.1691],[9.9966,55.173],[9.9822,55.1788]]],[[[10.0676,55.1175],[10.0657,55.1163],[10.0714,55.1151],[10.104,55.1175],[10.1009,55.1202],[10.0951,55.1204],[10.0861,55.1185],[10.0676,55.1175]]],[[[10.9691,55.3284],[10.983,55.3404],[10.949,55.3248],[10.9691,55.3284]]],[[[10.785,55.5072],[10.7829,55.5069],[10.7826,55.5042],[10.7866,55.4995],[10.8044,55.5029],[10.8026,55.5055],[10.7918,55.5083],[10.785,55.5072]]],[[[10.427,54.8195],[10.5272,54.8608],[10.4568,54.8926],[10.4867,54.869],[10.4451,54.8659],[10.3952,54.9127],[10.4053,54.8996],[10.3761,54.8839],[10.2018,54.9643],[10.2741,54.8945],[10.427,54.8195]]],[[[10.1685,55.5722],[10.1687,55.57],[10.1705,55.5703],[10.1739,55.5716],[10.1757,55.576],[10.1806,55.5755],[10.1844,55.5775],[10.1807,55.5834],[10.1761,55.5839],[10.1745,55.5761],[10.1685,55.5722]]],[[[10.1735,55.5998],[10.1887,55.6098],[10.1587,55.6135],[10.1735,55.5998]]],[[[10.6562,55.0395],[10.7198,55.037],[10.7115,55.0564],[10.6557,55.0539],[10.6562,55.0395]]],[[[10.5161,55.0063],[10.5613,54.946],[10.6894,54.9776],[10.6958,54.9967],[10.6292,54.9879],[10.6637,55.0259],[10.6319,55.0545],[10.5161,55.0063]]],[[[10.4815,55.4459],[10.4809,55.4409],[10.4856,55.4385],[10.487,55.4401],[10.4846,55.4447],[10.4815,55.4459]]],[[[10.4584,55.4489],[10.4577,55.4473],[10.4609,55.4466],[10.4606,55.4491],[10.4584,55.4489]]],[[[10.4569,55.4532],[10.4658,55.4523],[10.4685,55.4499],[10.4737,55.449],[10.4735,55.4532],[10.4687,55.4536],[10.468,55.4551],[10.4715,55.4608],[10.4652,55.4607],[10.4544,55.4542],[10.4569,55.4532]]],[[[9.785,55.2947],[9.7904,55.2703],[9.822,55.2776],[9.8174,55.2968],[9.785,55.2947]]],[[[9.7576,55.2392],[9.7163,55.2431],[9.7372,55.2242],[9.7686,55.2504],[9.7576,55.2392]]],[[[9.6791,55.3289],[9.6798,55.3267],[9.6906,55.3224],[9.7001,55.3233],[9.7119,55.3275],[9.7076,55.3339],[9.702,55.3348],[9.6898,55.334],[9.6791,55.3289]]],[[[9.6735,55.4653],[9.6803,55.4438],[9.7028,55.4439],[9.6735,55.4653]]],[[[9.8927,54.8858],[9.864,54.8677],[9.9831,54.8513],[9.8927,54.8858]]],[[[9.7455,54.9646],[9.7628,54.9083],[9.7903,54.889],[9.9003,54.8981],[9.9966,54.8566],[10.0632,54.8713],[10.0297,54.9339],[9.9518,54.9978],[9.8904,55.0062],[9.7595,55.0649],[9.691,55.0615],[9.6292,55.0312],[9.6936,55.0278],[9.7014,55.0166],[9.6497,55.0123],[9.6859,54.9923],[9.7879,54.995],[9.7735,54.973],[9.8445,54.9577],[9.8275,54.9473],[9.8438,54.9306],[9.8738,54.9335],[9.8251,54.9219],[9.7455,54.9646]]],[[[8.4906,55.2641],[8.4357,55.2292],[8.4759,55.2142],[8.523,55.2419],[8.4906,55.2641]]],[[[8.5021,55.2845],[8.5308,55.2527],[8.5768,55.2764],[8.5344,55.2805],[8.5335,55.2945],[8.5021,55.2845]]],[[[8.4529,55.3077],[8.4519,55.3055],[8.4553,55.3052],[8.4884,55.3105],[8.49,55.3161],[8.4801,55.3184],[8.475,55.3178],[8.4611,55.3132],[8.4529,55.3077]]],[[[8.4111,55.3179],[8.4083,55.3001],[8.4296,55.2985],[8.4111,55.3179]]],[[[8.5232,55.339],[8.4632,55.3432],[8.4375,55.3805],[8.4568,55.3956],[8.4428,55.4207],[8.4068,55.4161],[8.3991,55.4518],[8.3454,55.446],[8.424,55.3363],[8.4973,55.3238],[8.5232,55.339]]],[[[8.2998,55.5059],[8.3007,55.5025],[8.3101,55.4969],[8.3219,55.4931],[8.3242,55.4951],[8.3066,55.5079],[8.3003,55.5085],[8.2998,55.5059]]],[[[9.6699,55.4785],[9.8161,55.4085],[9.7118,55.4378],[9.7377,55.403],[9.8223,55.3915],[9.7837,55.3806],[9.8298,55.3529],[9.7787,55.3372],[9.8924,55.312],[9.8716,55.3102],[9.8847,55.2868],[9.8741,55.2424],[9.8926,55.2254],[9.868,55.2221],[9.9669,55.1972],[10.014,55.1647],[10.109,55.1728],[10.17,55.1157],[10.0798,55.0891],[10.0675,55.0713],[10.0846,55.0631],[10.1296,55.0788],[10.2109,55.0503],[10.227,55.0699],[10.2098,55.0841],[10.2282,55.0884],[10.3181,55.0477],[10.373,55.0569],[10.4169,55.0341],[10.514,55.0257],[10.6198,55.0581],[10.7118,55.0597],[10.7755,55.1033],[10.8096,55.1812],[10.8171,55.2307],[10.7951,55.2834],[10.7654,55.2913],[10.8554,55.2891],[10.7687,55.3799],[10.6667,55.4401],[10.7509,55.4732],[10.6257,55.6001],[10.5888,55.5998],[10.6304,55.5746],[10.6316,55.5459],[10.6015,55.5626],[10.6323,55.5077],[10.5684,55.5094],[10.629,55.4753],[10.4871,55.4544],[10.4979,55.4366],[10.4731,55.4213],[10.4257,55.4205],[10.4433,55.4589],[10.504,55.4816],[10.4707,55.5108],[10.5001,55.5273],[10.5574,55.5056],[10.3059,55.5963],[10.2893,55.5916],[10.3092,55.559],[10.2833,55.5572],[10.2759,55.5802],[10.1853,55.5667],[10.1854,55.5506],[10.0388,55.5259],[9.9329,55.4788],[9.8564,55.4808],[9.8461,55.5136],[9.8225,55.5197],[9.7517,55.5072],[9.7605,55.4908],[9.7422,55.4722],[9.6699,55.4785]]],[[[8.186,55.8069],[8.1587,55.6848],[8.0783,55.5556],[8.2936,55.468],[8.3032,55.4807],[8.2567,55.5112],[8.269,55.5242],[8.2494,55.5263],[8.2376,55.558],[8.2665,55.583],[8.3121,55.5732],[8.2928,55.553],[8.4287,55.4451],[8.5402,55.4369],[8.6092,55.4087],[8.6562,55.3118],[8.6294,55.2561],[8.6669,55.1475],[8.5459,55.1436],[8.5753,55.1796],[8.4897,55.197],[8.4475,55.0983],[8.5088,55.0571],[8.5066,55.0702],[8.5516,55.0809],[8.5333,55.0944],[8.5391,55.1405],[8.6671,55.1336],[8.619,55.0541],[8.6397,54.9782],[8.6192,54.9089],[8.7034,54.8896],[8.9281,54.8952],[9.0272,54.8651],[9.1305,54.8646],[9.2234,54.8417],[9.232,54.8086],[9.2773,54.798],[9.328,54.7975],[9.3673,54.8309],[9.4211,54.8253],[9.5485,54.8684],[9.6108,54.9238],[9.6641,54.9041],[9.5918,54.8987],[9.6452,54.8715],[9.6299,54.8506],[9.7208,54.8302],[9.7523,54.8442],[9.6932,54.8858],[9.7709,54.8989],[9.7302,54.9715],[9.5704,55.0265],[9.4809,55.0012],[9.4071,55.0118],[9.5403,55.0586],[9.4911,55.0979],[9.4515,55.0976],[9.5058,55.1061],[9.487,55.1327],[9.57,55.1655],[9.6339,55.156],[9.6783,55.171],[9.7111,55.2267],[9.6215,55.2844],[9.6382,55.3125],[9.5907,55.331],[9.6136,55.3561],[9.5845,55.3899],[9.6469,55.4044],[9.6807,55.4325],[9.6178,55.4631],[9.5002,55.4505],[9.4925,55.4627],[9.5747,55.4645],[9.5508,55.4814],[9.5785,55.4823],[9.5608,55.4925],[9.6071,55.4745],[9.66,55.4913],[9.7353,55.4848],[9.7293,55.5209],[9.7622,55.5223],[9.7934,55.5588],[9.8526,55.5844],[9.7503,55.5865],[9.731,55.6194],[9.6663,55.651],[9.5508,55.6579],[9.6633,55.6707],[9.6695,55.7095],[9.5921,55.7098],[9.5798,55.7387],[9.5337,55.7323],[9.4955,55.7829],[9.441,55.7932],[9.4531,55.8177],[9.3792,55.8811],[9.2466,55.9113],[9.2151,55.9107],[9.1463,55.8452],[9.0067,55.7963],[8.9564,55.8107],[8.9578,55.853],[8.8772,55.8639],[8.7946,55.8103],[8.8209,55.7884],[8.7454,55.7785],[8.6762,55.823],[8.5959,55.8127],[8.5581,55.8265],[8.5346,55.8166],[8.5475,55.8016],[8.5147,55.789],[8.5097,55.7629],[8.4668,55.7543],[8.3617,55.8035],[8.2837,55.7849],[8.2207,55.8174],[8.186,55.8069]]],[[[9.5344,55.1028],[9.5427,55.0948],[9.5551,55.0915],[9.5617,55.0933],[9.5625,55.0994],[9.5509,55.1082],[9.5452,55.1102],[9.5342,55.1048],[9.5344,55.1028]]]]},"properties":{"iso3":"DNK","shapeId":"84455774B68755790009873","regionId":"DNK.5_1","name":"Syddanmark"}}]}