{"type":"FeatureCollection","features":[{"type":"Feature","geometry":{"type":"Polygon","coordinates":[[[-75.5793,-1.551],[-75.6,-1.5056],[-75.712,-1.4569],[-75.7452,-1.4083],[-75.7973,-1.4029],[-75.8854,-1.3384],[-75.9405,-1.3568],[-76.1096,-1.2738],[-76.1641,-1.2984],[-76.2187,-1.2922],[-76.2894,-1.3127],[-76.3961,-1.2608],[-76.454,-1.2638],[-76.525,-1.1958],[-76.5177,-1.056],[-76.6054,-1.0714],[-76.6339,-1.0574],[-76.6377,-1.0273],[-76.6917,-0.9971],[-76.7274,-1.0303],[-76.8748,-1.0603],[-76.9135,-1.1179],[-77.0391,-1.0966],[-77.0748,-1.0584],[-77.0701,-1.0118],[-77.1197,-1.0124],[-77.3347,-1.0678],[-77.3524,-1.1],[-77.4425,-1.0819],[-77.554,-1.152],[-77.5948,-1.1336],[-77.6898,-1.1436],[-77.7201,-1.1731],[-77.7473,-1.1665],[-77.8326,-1.2155],[-77.8768,-1.2003],[-77.8912,-1.2411],[-77.951,-1.2063],[-78.0447,-1.2422],[-78.1217,-1.2204],[-78.1214,-1.3545],[-78.1751,-1.4454],[-78.1158,-1.4642],[-78.0796,-1.508],[-78.017,-1.6717],[-77.9306,-1.658],[-77.887,-1.6959],[-77.8841,-1.7586],[-77.8181,-1.9235],[-77.7339,-1.9858],[-77.7112,-2.0241],[-77.6601,-2.0517],[-77.6182,-2.0429],[-77.4837,-2.103],[-77.4442,-2.098],[-77.4122,-2.1442],[-77.2926,-2.1951],[-77.2342,-2.2528],[-77.1039,-2.3266],[-77.0012,-2.4661],[-76.9921,-2.515],[-76.9663,-2.5177],[-76.9183,-2.5648],[-76.8275,-2.5396],[-76.8023,-2.5721],[-76.7377,-2.5624],[-76.6962,-2.6109],[-76.6408,-2.593],[-76.0517,-2.1574],[-75.5793,-1.551]]]},"properties":{"iso3":"ECU","shapeId":"780006B84481112392323","regionId":"ECU.18_1","name":"Pastaza"}},{"type":"Feature","geometry":{"type":"Polygon","coordinates":[[[-77.5589,0.6522],[-77.6916,0.7474],[-77.6684,0.822],[-77.7057,0.8495],[-77.7726,0.8438],[-77.8493,0.8014],[-77.9577,0.8305],[-78.0969,0.906],[-78.1222,0.9401],[-78.1588,0.9269],[-78.1954,0.9485],[-78.201,0.9939],[-78.2809,1.0498],[-78.2577,1.0816],[-78.3062,1.1914],[-78.4278,1.1527],[-78.429,1.1902],[-78.4622,1.182],[-78.4965,1.2024],[-78.511,1.1638],[-78.4948,1.0864],[-78.5438,1.0288],[-78.5352,0.9321],[-78.3956,0.8399],[-78.3275,0.8265],[-78.2207,0.7404],[-78.139,0.6202],[-78.132,0.546],[-78.0888,0.4878],[-78.0068,0.4766],[-77.8401,0.3629],[-77.798,0.3821],[-77.8084,0.4326],[-77.7243,0.5415],[-77.6696,0.5804],[-77.6589,0.6135],[-77.6872,0.6272],[-77.6795,0.6501],[-77.5589,0.6522]]]},"properties":{"iso3":"ECU","shapeId":"780006B30899548387252","regionId":"ECU.4_1","name":"Carchi"}},{"type":"Feature","geometry":{"type":"Polygon","coordinates":[[[-79.432,-4.7433],[-79.3338,-4.6155],[-79.3259,-4.5268],[-79.2967,-4.4906],[-79.2828,-4.4799],[-79.2076,-4.5087],[-79.1642,-4.4724],[-79.152,-4.4356],[-79.1135,-4.4153],[-79.1036,-4.1977],[-79.1526,-4.1554],[-79.1627,-4.109],[-79.1372,-4.0441],[-79.1474,-3.9243],[-79.1253,-3.8805],[-79.1948,-3.7355],[-79.1504,-3.6998],[-79.1567,-3.6697],[-79.1139,-3.653],[-79.0977,-3.6254],[-79.1333,-3.5927],[-79.1381,-3.5275],[-79.1808,-3.4464],[-79.2663,-3.4823],[-79.2974,-3.449],[-79.3076,-3.362],[-79.4542,-3.3358],[-79.4654,-3.3863],[-79.4283,-3.4586],[-79.4763,-3.515],[-79.4715,-3.5798],[-79.4959,-3.6178],[-79.4797,-3.6332],[-79.4212,-3.5798],[-79.4096,-3.6123],[-79.3637,-3.6457],[-79.3649,-3.6874],[-79.4077,-3.7315],[-79.4003,-3.7852],[-79.4406,-3.8121],[-79.5161,-3.7878],[-79.5591,-3.7993],[-79.6177,-3.7533],[-79.6741,-3.7784],[-79.7062,-3.828],[-79.7671,-3.8426],[-79.8528,-3.8231],[-79.9473,-3.8322],[-80.0146,-3.8741],[-80.1326,-3.8948],[-80.1326,-3.9163],[-80.2255,-3.9625],[-80.2788,-4.0186],[-80.3569,-3.9895],[-80.4327,-4.0022],[-80.4756,-4.0895],[-80.4383,-4.1269],[-80.444,-4.2126],[-80.4238,-4.203],[-80.3977,-4.223],[-80.3714,-4.2049],[-80.3506,-4.2188],[-80.3055,-4.2047],[-80.4449,-4.3865],[-80.4418,-4.449],[-80.3959,-4.4853],[-80.3353,-4.4717],[-80.2438,-4.4032],[-80.1689,-4.3031],[-80.0868,-4.3006],[-79.9927,-4.3773],[-79.8857,-4.4051],[-79.805,-4.4935],[-79.6365,-4.4388],[-79.5416,-4.5286],[-79.4972,-4.5205],[-79.4756,-4.5664],[-79.488,-4.6294],[-79.432,-4.7433]]]},"properties":{"iso3":"ECU","shapeId":"780006B83348252159319","regionId":"ECU.12_1","name":"Loja"}},{"type":"Feature","geometry":{"type":"Polygon","coordinates":[[[-79.432,-4.7433],[-79.4351,-4.7831],[-79.4133,-4.8228],[-79.3655,-4.8413],[-79.3516,-4.8782],[-79.3058,-4.9044],[-79.2599,-4.9727],[-79.0843,-4.9714],[-79.0212,-5.0115],[-78.9848,-4.9044],[-78.9001,-4.8876],[-78.9205,-4.8598],[-78.9027,-4.8101],[-78.9229,-4.7878],[-78.8907,-4.7171],[-78.828,-4.6437],[-78.7084,-4.6174],[-78.673,-4.59],[-78.6333,-4.4527],[-78.6028,-4.4199],[-78.6345,-4.4123],[-78.6549,-4.3488],[-78.6037,-4.2586],[-78.6075,-4.2152],[-78.5775,-4.1833],[-78.5878,-4.1361],[-78.5418,-4.0727],[-78.5672,-4.0416],[-78.5667,-3.9907],[-78.4916,-3.9245],[-78.4651,-3.8421],[-78.4141,-3.787],[-78.4254,-3.6962],[-78.3951,-3.6518],[-78.4005,-3.595],[-78.3703,-3.526],[-78.5186,-3.528],[-78.5704,-3.5473],[-78.6409,-3.5369],[-78.6869,-3.5865],[-78.8342,-3.543],[-78.866,-3.5011],[-78.8873,-3.4134],[-78.9437,-3.3436],[-79.0433,-3.4095],[-79.0557,-3.4341],[-79.0356,-3.4768],[-79.0645,-3.5134],[-79.0398,-3.5838],[-79.0634,-3.6194],[-79.1567,-3.6697],[-79.1504,-3.6998],[-79.1948,-3.7355],[-79.1253,-3.8805],[-79.1474,-3.9243],[-79.1372,-4.0441],[-79.1627,-4.109],[-79.1526,-4.1554],[-79.1036,-4.1977],[-79.1135,-4.4153],[-79.152,-4.4356],[-79.1642,-4.4724],[-79.2076,-4.5087],[-79.2828,-4.4799],[-79.2967,-4.4906],[-79.3259,-4.5268],[-79.3338,-4.6155],[-79.432,-4.7433]]]},"properties":{"iso3":"ECU","shapeId":"780006B32277993251715","regionId":"ECU.24_1","name":"Zamora Chinchipe"}},{"type":"Feature","geometry":{"type":"MultiPolygon","coordinates":[[[[-80.231,-3.3666],[-80.2385,-3.3287],[-80.2548,-3.3299],[-80.2619,-3.3666],[-80.2698,-3.3458],[-80.289,-3.3528],[-80.3032,-3.3921],[-80.2831,-3.4054],[-80.2881,-3.4309],[-80.2085,-3.4359],[-80.231,-3.3666]]],[[[-80.004,-3.3282],[-79.9907,-3.2848],[-80.0349,-3.2089],[-80.08,-3.307],[-80.1384,-3.3416],[-80.225,-3.346],[-80.1992,-3.4118],[-80.1613,-3.4217],[-80.057,-3.3983],[-80.004,-3.3282]]],[[[-79.461,-3.3378],[-79.5143,-3.3142],[-79.648,-3.3281],[-79.6253,-3.2461],[-79.5994,-3.2186],[-79.593,-3.1561],[-79.764,-3.0691],[-79.8604,-3.0482],[-79.8947,-3.0898],[-79.9157,-3.1806],[-79.974,-3.2099],[-79.9883,-3.3139],[-80.0339,-3.4061],[-80.2267,-3.4535],[-80.2399,-3.4747],[-80.2004,-3.5543],[-80.213,-3.5852],[-80.1895,-3.6019],[-80.181,-3.6673],[-80.1957,-3.6959],[-80.1759,-3.7355],[-80.1893,-3.7708],[-80.1598,-3.8072],[-80.1478,-3.8841],[-80.0507,-3.885],[-79.9473,-3.8322],[-79.8528,-3.8231],[-79.8112,-3.8447],[-79.7062,-3.828],[-79.6741,-3.7784],[-79.6177,-3.7533],[-79.5591,-3.7993],[-79.5161,-3.7878],[-79.4406,-3.8121],[-79.4003,-3.7852],[-79.4077,-3.7315],[-79.3649,-3.6874],[-79.3637,-3.6457],[-79.4096,-3.6123],[-79.4212,-3.5798],[-79.4797,-3.6332],[-79.4959,-3.6178],[-79.4715,-3.5798],[-79.4763,-3.515],[-79.4283,-3.4586],[-79.4654,-3.3863],[-79.461,-3.3378]]]]},"properties":{"iso3":"ECU","shapeId":"780006B8093408258889","regionId":"ECU.7_1","name":"El Oro"}},{"type":"Feature","geometry":{"type":"MultiPolygon","coordinates":[[[[-79.0033,1.2173],[-78.9727,1.2464],[-79.0062,1.279],[-79.0441,1.245],[-79.0033,1.2173]]],[[[-78.8418,1.3142],[-78.8379,1.3318],[-78.8693,1.3602],[-78.8702,1.3205],[-78.8418,1.3142]]],[[[-78.9344,1.2557],[-78.8839,1.2786],[-78.9045,1.3785],[-78.9757,1.2858],[-78.9344,1.2557]]],[[[-78.4965,1.2024],[-78.5329,1.2031],[-78.6444,1.2789],[-78.6927,1.3739],[-78.7448,1.3764],[-78.8102,1.4244],[-78.8342,1.4063],[-78.8449,1.3531],[-78.8276,1.3173],[-78.7854,1.3104],[-78.8537,1.3021],[-78.8859,1.2534],[-78.9896,1.2183],[-78.999,1.1684],[-79.0597,1.2158],[-79.1658,1.1027],[-79.2308,1.0817],[-79.412,1.0813],[-79.5477,1.0017],[-79.6432,1.0006],[-79.7329,0.9689],[-79.8059,0.9015],[-79.9591,0.8271],[-80.0584,0.8223],[-80.0963,0.7708],[-80.1051,0.6878],[-80.0069,0.6031],[-80.0069,0.5407],[-80.0627,0.4662],[-79.978,0.3746],[-79.9783,0.2878],[-79.9324,0.2584],[-79.8905,0.3241],[-79.832,0.3289],[-79.7906,0.298],[-79.7273,0.3236],[-79.7304,0.2813],[-79.6943,0.279],[-79.6752,0.257],[-79.7102,0.2092],[-79.7081,0.1829],[-79.667,0.1778],[-79.5893,0.122],[-79.5228,0.1132],[-79.5022,0.0873],[-79.4602,0.1049],[-79.4221,0.0754],[-79.3581,0.083],[-79.3391,0.1153],[-79.3132,0.1834],[-79.3619,0.2435],[-79.2823,0.2934],[-79.2697,0.3469],[-79.1632,0.3553],[-79.0732,0.3375],[-79.0378,0.3088],[-78.9589,0.3696],[-78.8489,0.3807],[-78.7846,0.4224],[-78.6887,0.3807],[-78.6495,0.3877],[-78.6076,0.4563],[-78.5652,0.4817],[-78.5513,0.521],[-78.4946,0.5508],[-78.4612,0.542],[-78.4289,0.5847],[-78.5304,0.7655],[-78.5165,0.7831],[-78.4677,0.7818],[-78.4431,0.8183],[-78.4526,0.887],[-78.497,0.8998],[-78.5445,0.9526],[-78.5402,1.044],[-78.4948,1.0864],[-78.511,1.1638],[-78.4965,1.2024]]],[[[-78.8466,1.3892],[-78.8244,1.4405],[-78.8763,1.3889],[-78.8466,1.3892]]],[[[-78.8767,1.3959],[-78.8473,1.4295],[-78.8633,1.4596],[-78.8818,1.4441],[-78.8767,1.3959]]]]},"properties":{"iso3":"ECU","shapeId":"780006B31400562589266","regionId":"ECU.8_1","name":"Esmeraldas"}},{"type":"Feature","geometry":{"type":"Polygon","coordinates":[[[-78.4526,0.887],[-78.4431,0.8183],[-78.4564,0.7903],[-78.5165,0.7831],[-78.5304,0.7655],[-78.4289,0.5847],[-78.4612,0.542],[-78.4946,0.5508],[-78.5513,0.521],[-78.5652,0.4817],[-78.6076,0.4563],[-78.6495,0.3877],[-78.6887,0.3807],[-78.7846,0.4224],[-78.8489,0.3807],[-78.9589,0.3696],[-79.0378,0.3088],[-79.0732,0.3375],[-79.1632,0.3553],[-79.2697,0.3469],[-79.2749,0.3215],[-79.0703,0.3108],[-79.0178,0.2761],[-79.0043,0.2252],[-78.9459,0.2124],[-78.8502,0.2462],[-78.8054,0.2323],[-78.7691,0.247],[-78.6432,0.2127],[-78.5394,0.237],[-78.4834,0.2307],[-78.4076,0.2584],[-78.3587,0.2075],[-78.3782,0.1679],[-78.3342,0.197],[-78.2973,0.1487],[-78.2551,0.1314],[-78.1766,0.1268],[-78.1026,0.175],[-78.0453,0.1759],[-78.0308,0.1925],[-77.9625,0.1685],[-77.8808,0.2125],[-77.8362,0.2689],[-77.853,0.3033],[-77.81,0.3735],[-77.8464,0.365],[-78.0068,0.4766],[-78.0888,0.4878],[-78.132,0.546],[-78.139,0.6202],[-78.2207,0.7404],[-78.3275,0.8265],[-78.3956,0.8399],[-78.4526,0.887]]]},"properties":{"iso3":"ECU","shapeId":"780006B18414364413556","regionId":"ECU.11_1","name":"Imbabura"}},{"type":"Feature","geometry":{"type":"Polygon","coordinates":[[[-77.81,0.3735],[-77.853,0.3033],[-77.8362,0.2689],[-77.8808,0.2125],[-77.9598,0.1692],[-77.972,0.1327],[-77.9157,0.0872],[-77.8789,0.0843],[-77.8456,0.0313],[-77.7805,0.0271],[-77.7901,-0.0146],[-77.766,-0.0767],[-77.7275,-0.0478],[-77.6975,-0.0783],[-77.6395,-0.0735],[-77.5843,-0.096],[-77.4577,-0.0135],[-77.4381,-0.066],[-77.4507,-0.1298],[-77.3724,-0.1458],[-77.2809,-0.0363],[-77.1933,-0.0929],[-77.1212,-0.0817],[-77.0886,-0.1049],[-77.0462,-0.1063],[-76.9327,-0.0577],[-76.7632,-0.2555],[-76.7172,-0.3399],[-76.6377,-0.3951],[-76.6246,-0.4243],[-76.5477,-0.4093],[-76.4656,-0.4834],[-76.42,-0.4825],[-76.3821,-0.5162],[-76.2486,-0.441],[-76.0828,-0.4337],[-76.0319,-0.5162],[-75.9636,-0.5572],[-75.9238,-0.5603],[-75.9407,-0.4145],[-75.8821,-0.4026],[-75.8209,-0.4369],[-75.7365,-0.4138],[-75.6895,-0.4659],[-75.6397,-0.4485],[-75.5657,-0.4897],[-75.541,-0.5379],[-75.3971,-0.5579],[-75.3753,-0.6018],[-75.2779,-0.6239],[-75.2731,-0.6463],[-75.2209,-0.6242],[-75.2347,-0.5867],[-75.2149,-0.553],[-75.2331,-0.5103],[-75.251,-0.5156],[-75.3094,-0.4495],[-75.3689,-0.4292],[-75.4548,-0.3041],[-75.4649,-0.2375],[-75.5362,-0.1492],[-75.5164,-0.1034],[-75.3767,-0.1577],[-75.2996,-0.1484],[-75.2544,-0.112],[-75.388,-0.0865],[-75.5156,-0.0089],[-75.5572,-0.0105],[-75.6217,0.0549],[-75.738,0.0451],[-75.8026,0.0664],[-75.8444,0.1448],[-75.8671,0.1331],[-75.9385,0.2232],[-75.9349,0.2445],[-75.9814,0.2563],[-75.9934,0.3081],[-76.029,0.317],[-76.0523,0.3494],[-76.106,0.3276],[-76.1231,0.3877],[-76.2182,0.3908],[-76.2616,0.4489],[-76.3056,0.4361],[-76.3316,0.3896],[-76.3613,0.4062],[-76.3969,0.3896],[-76.4021,0.2478],[-76.4273,0.2647],[-76.4954,0.2486],[-76.5225,0.2677],[-76.5826,0.2273],[-76.6204,0.2694],[-76.6434,0.2605],[-76.6514,0.279],[-76.7225,0.2926],[-76.7527,0.2771],[-76.7508,0.2586],[-76.7954,0.272],[-76.8414,0.2466],[-76.9114,0.2577],[-76.9294,0.2839],[-76.985,0.279],[-76.9942,0.295],[-77.0322,0.2769],[-77.0874,0.2903],[-77.112,0.3698],[-77.1685,0.39],[-77.2169,0.3635],[-77.2849,0.3649],[-77.3563,0.4008],[-77.4415,0.3963],[-77.5216,0.4184],[-77.5205,0.5317],[-77.479,0.6082],[-77.4851,0.6599],[-77.5194,0.6628],[-77.566,0.6408],[-77.6795,0.6501],[-77.6872,0.6272],[-77.6589,0.6135],[-77.6696,0.5804],[-77.7243,0.5415],[-77.8084,0.4326],[-77.7972,0.3934],[-77.81,0.3735]]]},"properties":{"iso3":"ECU","shapeId":"780006B2045588347602","regionId":"ECU.22_1","name":"Sucumbios"}},{"type":"Feature","geometry":{"type":"Polygon","coordinates":[[[-80.5613,-2.5081],[-80.5333,-2.4876],[-80.4774,-2.4981],[-80.4515,-2.4604],[-80.4573,-2.4121],[-80.4354,-2.3943],[-80.3813,-2.3849],[-80.3391,-2.3501],[-80.2847,-2.362],[-80.2386,-2.3142],[-80.2586,-2.2648],[-80.2269,-2.2292],[-80.2417,-2.1118],[-80.2711,-2.0834],[-80.3012,-2.084],[-80.365,-1.9912],[-80.5175,-1.9162],[-80.5797,-1.8063],[-80.5899,-1.6806],[-80.6259,-1.6658],[-80.7239,-1.6876],[-80.755,-1.6771],[-80.8102,-1.6941],[-80.7766,-1.7472],[-80.7255,-1.9205],[-80.7614,-1.984],[-80.7373,-2.0343],[-80.75,-2.1004],[-80.7947,-2.1494],[-80.915,-2.219],[-81.0083,-2.1893],[-80.8933,-2.3295],[-80.8658,-2.3254],[-80.772,-2.3887],[-80.6735,-2.4093],[-80.5613,-2.5081]]]},"properties":{"iso3":"ECU","shapeId":"780006B15798287521285","regionId":"ECU.20_1","name":"Santa Elena"}},{"type":"Feature","geometry":{"type":"Polygon","coordinates":[[[-79.5747,0.1265],[-79.6259,0.0529],[-79.6145,-0.043],[-79.512,-0.164],[-79.4108,-0.1899],[-79.4021,-0.3902],[-79.4612,-0.4636],[-79.4769,-0.5348],[-79.4613,-0.5529],[-79.3465,-0.5442],[-79.3651,-0.579],[-79.3486,-0.688],[-79.2887,-0.6907],[-79.1219,-0.5398],[-79.0366,-0.5843],[-79.0384,-0.5594],[-78.9995,-0.5198],[-79.0308,-0.4663],[-78.9409,-0.3599],[-78.9549,-0.3124],[-78.8337,-0.3426],[-78.7473,-0.2658],[-78.748,-0.2388],[-78.8312,-0.1896],[-78.847,-0.1299],[-78.9028,-0.1413],[-78.9611,-0.1034],[-79.0252,-0.1194],[-79.142,-0.0872],[-79.1137,-0.0337],[-79.13,-0.0169],[-79.2461,0.014],[-79.3019,0.0045],[-79.3742,0.0311],[-79.3627,0.0816],[-79.4221,0.0754],[-79.4602,0.1049],[-79.5022,0.0873],[-79.5228,0.1132],[-79.5747,0.1265]]]},"properties":{"iso3":"ECU","shapeId":"780006B2576853520044","regionId":"ECU.21_1","name":"Santo Domingo de los Tsachilas"}},{"type":"Feature","geometry":{"type":"Polygon","coordinates":[[[-79.3627,0.0816],[-79.3692,0.0268],[-79.2928,0.0025],[-79.2356,0.0119],[-79.1149,-0.0249],[-79.142,-0.0872],[-79.0252,-0.1194],[-78.9611,-0.1034],[-78.9028,-0.1413],[-78.847,-0.1299],[-78.8312,-0.1896],[-78.748,-0.2388],[-78.7473,-0.2658],[-78.8337,-0.3426],[-78.9323,-0.3097],[-78.9564,-0.3202],[-78.9158,-0.3466],[-78.8287,-0.521],[-78.7412,-0.5539],[-78.7262,-0.5833],[-78.7391,-0.6286],[-78.7101,-0.6511],[-78.6426,-0.6346],[-78.6152,-0.5955],[-78.566,-0.6134],[-78.4974,-0.5932],[-78.4855,-0.6109],[-78.5005,-0.6348],[-78.4119,-0.7114],[-78.3876,-0.6727],[-78.3314,-0.6538],[-78.3187,-0.6024],[-78.2622,-0.5243],[-78.2365,-0.4549],[-78.2526,-0.41],[-78.1872,-0.2919],[-78.1807,-0.1919],[-78.1428,-0.1635],[-78.1041,-0.1938],[-78.0673,-0.18],[-78.0428,-0.1394],[-77.9296,-0.0906],[-77.9413,-0.0494],[-77.8436,0.0091],[-77.856,0.0655],[-77.9666,0.1206],[-77.9598,0.1692],[-78.0226,0.1906],[-78.1026,0.175],[-78.1766,0.1268],[-78.2973,0.1487],[-78.3342,0.197],[-78.3742,0.1653],[-78.3587,0.2075],[-78.4076,0.2584],[-78.4834,0.2307],[-78.5394,0.237],[-78.6432,0.2127],[-78.7691,0.247],[-78.8054,0.2323],[-78.8502,0.2462],[-78.9459,0.2124],[-79.0043,0.2252],[-79.0344,0.2919],[-79.1424,0.3259],[-79.2749,0.3215],[-79.2998,0.2765],[-79.3619,0.2435],[-79.3132,0.1834],[-79.3627,0.0816]]]},"properties":{"iso3":"ECU","shapeId":"780006B44300629339188","regionId":"ECU.19_1","name":"Pichincha"}},{"type":"Feature","geometry":{"type":"MultiPolygon","coordinates":[[[[-80.8618,-1.6004],[-80.8611,-1.5951],[-80.8625,-1.5904],[-80.8686,-1.5893],[-80.8719,-1.5906],[-80.8733,-1.5977],[-80.8655,-1.6019],[-80.8618,-1.6004]]],[[[-81.0499,-1.2888],[-81.0557,-1.2676],[-81.0814,-1.2681],[-81.0801,-1.2849],[-81.0499,-1.2888]]],[[[-79.9624,0.2209],[-79.967,0.2529],[-79.9819,0.2271],[-79.9624,0.2209]]],[[[-79.9467,0.2649],[-79.9433,0.2187],[-79.9799,0.1853],[-80.0021,0.2387],[-80.0013,0.3172],[-80.0352,0.3668],[-80.0328,0.1776],[-80.0667,0.0635],[-80.1358,-0.0379],[-80.2782,-0.1699],[-80.3303,-0.1791],[-80.3778,-0.2282],[-80.4058,-0.3045],[-80.4913,-0.3734],[-80.493,-0.4134],[-80.4022,-0.6271],[-80.3857,-0.6445],[-80.3113,-0.6392],[-80.3098,-0.6608],[-80.3916,-0.665],[-80.434,-0.6071],[-80.4509,-0.6117],[-80.536,-0.859],[-80.575,-0.9166],[-80.63,-0.9492],[-80.6609,-0.9302],[-80.8279,-0.9625],[-80.9106,-1.0615],[-80.8468,-1.2138],[-80.7392,-1.3593],[-80.7653,-1.3926],[-80.7527,-1.4248],[-80.7665,-1.4692],[-80.8199,-1.5179],[-80.8161,-1.552],[-80.8407,-1.5705],[-80.8447,-1.6328],[-80.8102,-1.6941],[-80.6366,-1.6656],[-80.5899,-1.6806],[-80.5797,-1.8063],[-80.5485,-1.8682],[-80.5093,-1.9238],[-80.467,-1.9296],[-80.4446,-1.954],[-80.4367,-1.8424],[-80.4157,-1.8357],[-80.4224,-1.7899],[-80.322,-1.6949],[-80.2977,-1.7085],[-80.2847,-1.6889],[-80.2093,-1.6889],[-80.231,-1.6146],[-80.2594,-1.6197],[-80.2874,-1.5686],[-80.214,-1.5778],[-80.187,-1.555],[-80.21,-1.4846],[-80.1936,-1.4302],[-80.1526,-1.3974],[-80.1425,-1.3237],[-80.095,-1.328],[-80.0351,-1.2786],[-79.9916,-1.1866],[-80.002,-1.1407],[-79.9379,-1.155],[-79.8492,-1.0897],[-79.7301,-0.8886],[-79.6546,-0.9033],[-79.6161,-0.8648],[-79.5991,-0.7479],[-79.5801,-0.7153],[-79.5346,-0.711],[-79.543,-0.6657],[-79.4901,-0.6021],[-79.4974,-0.5659],[-79.4686,-0.5476],[-79.4643,-0.4696],[-79.4021,-0.3902],[-79.4108,-0.1899],[-79.512,-0.164],[-79.6101,-0.0525],[-79.6259,0.0529],[-79.5747,0.1265],[-79.7081,0.1829],[-79.7102,0.2092],[-79.6752,0.257],[-79.6943,0.279],[-79.7304,0.2813],[-79.7212,0.3188],[-79.7906,0.298],[-79.832,0.3289],[-79.8905,0.3241],[-79.9324,0.2584],[-79.9467,0.2649]]],[[[-80.0021,0.369],[-79.9963,0.391],[-80.0362,0.4054],[-80.0299,0.38],[-80.0021,0.369]]]]},"properties":{"iso3":"ECU","shapeId":"780006B63949328087962","regionId":"ECU.14_1","name":"Manabi"}},{"type":"Feature","geometry":{"type":"Polygon","coordinates":[[[-79.0977,-3.6254],[-79.0634,-3.6194],[-79.0398,-3.5838],[-79.0645,-3.5134],[-79.0356,-3.4768],[-79.054,-3.425],[-78.9453,-3.3437],[-78.9295,-3.2795],[-78.8509,-3.2268],[-78.8242,-3.2336],[-78.7614,-3.136],[-78.6928,-3.1091],[-78.6342,-2.9757],[-78.626,-2.9135],[-78.5712,-2.8406],[-78.6085,-2.7741],[-78.5641,-2.6997],[-78.4325,-2.6402],[-78.441,-2.5953],[-78.4962,-2.572],[-78.5376,-2.6223],[-78.5629,-2.6007],[-78.5668,-2.5626],[-78.6216,-2.6002],[-78.6144,-2.6346],[-78.6529,-2.6496],[-78.6675,-2.6784],[-78.7155,-2.6884],[-78.7753,-2.6736],[-78.8162,-2.8187],[-78.905,-2.8412],[-78.9418,-2.822],[-78.9452,-2.7762],[-79.0223,-2.6913],[-79.047,-2.6888],[-79.0812,-2.732],[-79.1242,-2.7172],[-79.1518,-2.738],[-79.2185,-2.7187],[-79.2416,-2.6824],[-79.248,-2.5897],[-79.2717,-2.5681],[-79.3564,-2.5672],[-79.3845,-2.6324],[-79.4353,-2.6068],[-79.4429,-2.6889],[-79.4956,-2.6291],[-79.5354,-2.6899],[-79.5188,-2.7202],[-79.5402,-2.7554],[-79.5085,-2.8635],[-79.6009,-2.9153],[-79.6098,-2.988],[-79.714,-2.9839],[-79.7118,-3.0112],[-79.7448,-3.02],[-79.7604,-3.0709],[-79.593,-3.1561],[-79.5994,-3.2186],[-79.6528,-3.323],[-79.5143,-3.3142],[-79.461,-3.3378],[-79.317,-3.355],[-79.2859,-3.4717],[-79.2522,-3.4812],[-79.1808,-3.4464],[-79.1381,-3.5275],[-79.1333,-3.5927],[-79.0977,-3.6254]]]},"properties":{"iso3":"ECU","shapeId":"780006B24339224838979","regionId":"ECU.1_1","name":"Azuay"}},{"type":"Feature","geometry":{"type":"Polygon","coordinates":[[[-78.5684,-2.5643],[-78.6695,-2.4522],[-78.7172,-2.4223],[-78.7797,-2.4333],[-78.8048,-2.3805],[-78.9017,-2.4099],[-79.0083,-2.3755],[-79.1326,-2.2362],[-79.2721,-2.4039],[-79.416,-2.3422],[-79.4339,-2.3822],[-79.4207,-2.4116],[-79.5222,-2.4956],[-79.5002,-2.5307],[-79.4534,-2.5004],[-79.3993,-2.4989],[-79.3628,-2.5655],[-79.2604,-2.5736],[-79.2416,-2.6824],[-79.2072,-2.7259],[-79.1518,-2.738],[-79.1242,-2.7172],[-79.0812,-2.732],[-79.047,-2.6888],[-79.0223,-2.6913],[-78.9452,-2.7762],[-78.9418,-2.822],[-78.905,-2.8412],[-78.8162,-2.8187],[-78.7753,-2.6736],[-78.7155,-2.6884],[-78.6675,-2.6784],[-78.6529,-2.6496],[-78.6144,-2.6346],[-78.6216,-2.6002],[-78.5684,-2.5643]]]},"properties":{"iso3":"ECU","shapeId":"780006B5869423141371","regionId":"ECU.3_1","name":"Cañar"}},{"type":"Feature","geometry":{"type":"MultiPolygon","coordinates":[[[[-80.4311,-3.1919],[-80.4284,-3.1628],[-80.4455,-3.182],[-80.4311,-3.1919]]],[[[-80.0928,-2.9384],[-80.0815,-2.9228],[-80.0979,-2.9114],[-80.109,-2.9295],[-80.0928,-2.9384]]],[[[-80.0639,-2.9268],[-80.0613,-2.9216],[-80.0625,-2.9139],[-80.0695,-2.907],[-80.0723,-2.9018],[-80.0776,-2.8998],[-80.0855,-2.9018],[-80.0884,-2.9053],[-80.0873,-2.911],[-80.0805,-2.9193],[-80.0728,-2.9265],[-80.0687,-2.9282],[-80.0639,-2.9268]]],[[[-80.1174,-2.8835],[-80.1018,-2.8507],[-80.136,-2.8647],[-80.1174,-2.8835]]],[[[-80.0431,-2.8909],[-80.039,-2.863],[-80.0875,-2.8454],[-80.0969,-2.896],[-80.053,-2.9092],[-80.0431,-2.8909]]],[[[-79.9279,-2.7918],[-79.899,-2.7454],[-80.036,-2.6729],[-80.2138,-2.7449],[-80.2115,-2.7726],[-80.2594,-2.8611],[-80.249,-3.0303],[-80.1964,-3.0397],[-80.1635,-3.0125],[-80.1295,-3.0218],[-80.0958,-2.9748],[-80.0936,-2.9529],[-80.151,-2.8785],[-80.1409,-2.8443],[-80.0248,-2.8552],[-79.9695,-2.7968],[-79.9279,-2.7918]]],[[[-79.9024,-2.6756],[-79.9036,-2.6695],[-79.9067,-2.6672],[-79.9114,-2.6658],[-79.9189,-2.6696],[-79.9188,-2.6758],[-79.9133,-2.6798],[-79.9058,-2.6801],[-79.9024,-2.6756]]],[[[-80.1736,-2.665],[-80.171,-2.6602],[-80.1726,-2.6566],[-80.1762,-2.6549],[-80.1852,-2.6602],[-80.1849,-2.6655],[-80.1796,-2.6663],[-80.1736,-2.665]]],[[[-80.1832,-2.6535],[-80.182,-2.6446],[-80.1904,-2.6436],[-80.1953,-2.6477],[-80.1963,-2.6511],[-80.1934,-2.6561],[-80.1892,-2.6563],[-80.1832,-2.6535]]],[[[-79.9529,-2.659],[-79.935,-2.6462],[-79.9484,-2.6197],[-79.9908,-2.6456],[-79.9529,-2.659]]],[[[-79.9949,-2.6264],[-79.9743,-2.6187],[-79.986,-2.6029],[-80.0165,-2.62],[-79.9949,-2.6264]]],[[[-79.7303,-2.6189],[-79.7305,-2.537],[-79.7762,-2.542],[-79.801,-2.6304],[-79.7303,-2.6189]]],[[[-79.9393,-2.5781],[-79.9903,-2.4996],[-80.0632,-2.5797],[-80.0389,-2.5941],[-79.9927,-2.5784],[-79.9479,-2.5994],[-79.9393,-2.5781]]],[[[-79.845,-2.6663],[-79.821,-2.5527],[-79.8405,-2.4772],[-79.8889,-2.6496],[-79.845,-2.6663]]],[[[-79.7917,-2.5256],[-79.8242,-2.418],[-79.8405,-2.453],[-79.8046,-2.5285],[-79.7917,-2.5256]]],[[[-79.8599,-2.4283],[-79.8496,-2.2919],[-79.8664,-2.2756],[-79.9986,-2.3771],[-80.0353,-2.493],[-80.0199,-2.5022],[-79.9899,-2.468],[-79.9439,-2.4985],[-79.9297,-2.4665],[-79.8792,-2.4398],[-79.8897,-2.4948],[-79.9772,-2.5239],[-79.9452,-2.5506],[-79.9305,-2.5978],[-79.8857,-2.5452],[-79.8599,-2.4283]]],[[[-79.9415,-2.3066],[-79.923,-2.2524],[-79.9511,-2.2382],[-79.974,-2.2756],[-79.9415,-2.3066]]],[[[-79.8354,-2.2453],[-79.8525,-2.1934],[-79.8751,-2.226],[-79.8354,-2.2453]]],[[[-79.7604,-3.0709],[-79.7448,-3.02],[-79.7118,-3.0112],[-79.714,-2.9839],[-79.6098,-2.988],[-79.6009,-2.9153],[-79.5085,-2.8635],[-79.5402,-2.7554],[-79.5188,-2.7202],[-79.5354,-2.6899],[-79.4956,-2.6291],[-79.4429,-2.6889],[-79.4353,-2.6068],[-79.3769,-2.6277],[-79.3567,-2.5674],[-79.3888,-2.5047],[-79.4534,-2.5004],[-79.5002,-2.5307],[-79.5228,-2.5068],[-79.4207,-2.4116],[-79.4339,-2.3822],[-79.4195,-2.3464],[-79.3241,-2.3935],[-79.2643,-2.4002],[-79.137,-2.2362],[-79.146,-2.2144],[-79.2422,-2.2201],[-79.2504,-2.1996],[-79.1341,-2.2024],[-79.1188,-2.1514],[-79.1254,-2.1225],[-79.1808,-2.1435],[-79.2517,-2.0974],[-79.2926,-2.1022],[-79.3651,-1.9776],[-79.492,-1.8864],[-79.5445,-1.881],[-79.6338,-1.9253],[-79.6611,-1.915],[-79.7465,-1.789],[-79.7504,-1.7425],[-79.8242,-1.7054],[-79.827,-1.6655],[-79.8577,-1.6332],[-79.8692,-1.4384],[-79.7403,-1.1926],[-79.614,-1.0714],[-79.535,-1.0517],[-79.5091,-0.9575],[-79.5265,-0.9095],[-79.5097,-0.8545],[-79.5422,-0.8342],[-79.61,-0.8563],[-79.6546,-0.9033],[-79.7301,-0.8886],[-79.8492,-1.0897],[-79.9379,-1.155],[-80.002,-1.1407],[-79.9916,-1.1866],[-80.0351,-1.2786],[-80.095,-1.328],[-80.1425,-1.3237],[-80.1526,-1.3974],[-80.1936,-1.4302],[-80.21,-1.4846],[-80.187,-1.555],[-80.214,-1.5778],[-80.2874,-1.5686],[-80.2594,-1.6197],[-80.231,-1.6146],[-80.2093,-1.6889],[-80.2847,-1.6889],[-80.2977,-1.7085],[-80.3257,-1.6971],[-80.4224,-1.7899],[-80.4157,-1.8357],[-80.4397,-1.86],[-80.4377,-1.9634],[-80.365,-1.9912],[-80.3012,-2.084],[-80.2711,-2.0834],[-80.2417,-2.1118],[-80.2269,-2.2292],[-80.2586,-2.2648],[-80.2324,-2.3029],[-80.2847,-2.362],[-80.3391,-2.3501],[-80.3813,-2.3849],[-80.4354,-2.3943],[-80.4573,-2.4121],[-80.4515,-2.4604],[-80.4774,-2.4981],[-80.5333,-2.4876],[-80.5613,-2.5081],[-80.4327,-2.6435],[-80.3927,-2.6408],[-80.2873,-2.7329],[-80.2485,-2.7367],[-80.2531,-2.6449],[-80.279,-2.6524],[-80.2594,-2.632],[-80.2919,-2.6023],[-80.2781,-2.5948],[-80.231,-2.6382],[-80.1999,-2.5986],[-80.1291,-2.5602],[-80.0664,-2.4614],[-80.0245,-2.3392],[-79.9878,-2.3289],[-79.9695,-2.2383],[-79.9242,-2.2366],[-79.9162,-2.2847],[-79.8796,-2.2807],[-79.8899,-2.2257],[-79.8617,-2.1468],[-79.8657,-2.0903],[-79.8012,-2.0632],[-79.8012,-2.094],[-79.8382,-2.0955],[-79.847,-2.1123],[-79.8514,-2.1681],[-79.8228,-2.2685],[-79.829,-2.3866],[-79.7744,-2.5072],[-79.7036,-2.5017],[-79.6937,-2.5582],[-79.719,-2.5824],[-79.7234,-2.6344],[-79.7787,-2.6829],[-79.8122,-2.8486],[-79.8525,-2.9215],[-79.8604,-3.0482],[-79.7604,-3.0709]]]]},"properties":{"iso3":"ECU","shapeId":"780006B56468316684184","regionId":"ECU.10_1","name":"Guayas"}},{"type":"Feature","geometry":{"type":"Polygon","coordinates":[[[-79.4686,-0.5476],[-79.494,-0.5547],[-79.4901,-0.6021],[-79.543,-0.6657],[-79.5346,-0.711],[-79.5801,-0.7153],[-79.6013,-0.761],[-79.61,-0.8563],[-79.5422,-0.8342],[-79.5097,-0.8545],[-79.5265,-0.9095],[-79.5091,-0.9575],[-79.535,-1.0517],[-79.614,-1.0714],[-79.7403,-1.1926],[-79.8692,-1.4384],[-79.8666,-1.6004],[-79.827,-1.6655],[-79.8242,-1.7054],[-79.7504,-1.7425],[-79.7465,-1.789],[-79.6611,-1.915],[-79.6338,-1.9253],[-79.5445,-1.881],[-79.492,-1.8864],[-79.3651,-1.9776],[-79.2926,-2.1022],[-79.2517,-2.0974],[-79.1946,-2.1318],[-79.2626,-1.9634],[-79.2282,-1.8435],[-79.2449,-1.8244],[-79.2422,-1.7735],[-79.1978,-1.7417],[-79.2799,-1.7004],[-79.2694,-1.6683],[-79.3526,-1.6411],[-79.2839,-1.6064],[-79.2521,-1.566],[-79.256,-1.5402],[-79.3163,-1.5153],[-79.3298,-1.4619],[-79.3511,-1.4629],[-79.3123,-1.4312],[-79.3174,-1.3948],[-79.2885,-1.3901],[-79.2737,-1.3345],[-79.3342,-1.3003],[-79.376,-1.3296],[-79.3935,-1.317],[-79.3252,-1.2182],[-79.2872,-1.1984],[-79.2908,-1.1586],[-79.3364,-1.1258],[-79.2946,-1.0077],[-79.3166,-0.9983],[-79.3024,-0.9109],[-79.2469,-0.8724],[-79.226,-0.8145],[-79.2003,-0.8041],[-79.148,-0.7227],[-79.0905,-0.5567],[-79.1298,-0.5425],[-79.2993,-0.6953],[-79.36,-0.6725],[-79.3476,-0.6212],[-79.3651,-0.579],[-79.3465,-0.5442],[-79.4686,-0.5476]]]},"properties":{"iso3":"ECU","shapeId":"780006B68361660427036","regionId":"ECU.13_1","name":"Los Rios"}},{"type":"Feature","geometry":{"type":"Polygon","coordinates":[[[-79.0923,-0.5527],[-79.148,-0.7227],[-79.2003,-0.8041],[-79.226,-0.8145],[-79.2469,-0.8724],[-79.2919,-0.8966],[-79.3086,-0.9279],[-79.3166,-0.9983],[-79.2946,-1.0077],[-79.3364,-1.1258],[-79.2908,-1.1586],[-79.2828,-1.2027],[-79.1032,-1.1496],[-78.9856,-1.2149],[-78.9247,-1.1815],[-78.878,-1.1939],[-78.7529,-1.1298],[-78.6695,-1.1504],[-78.6205,-1.1105],[-78.5773,-1.1204],[-78.5773,-1.0691],[-78.5553,-1.0563],[-78.5262,-1.058],[-78.4951,-1.0922],[-78.4496,-1.0625],[-78.4026,-0.9739],[-78.4253,-0.8961],[-78.3959,-0.8545],[-78.3925,-0.7464],[-78.5005,-0.6348],[-78.4883,-0.6],[-78.566,-0.6134],[-78.6055,-0.593],[-78.6613,-0.6443],[-78.7212,-0.6474],[-78.7416,-0.6183],[-78.7262,-0.5833],[-78.7365,-0.5603],[-78.8287,-0.521],[-78.9315,-0.3356],[-79.0308,-0.4663],[-78.9995,-0.5198],[-79.0384,-0.5594],[-79.0328,-0.5815],[-79.0923,-0.5527]]]},"properties":{"iso3":"ECU","shapeId":"780006B34708550650195","regionId":"ECU.6_1","name":"Cotopaxi"}},{"type":"Feature","geometry":{"type":"Polygon","coordinates":[[[-79.1259,-2.1927],[-79.0738,-2.1695],[-79.0223,-2.0847],[-79.0406,-2.0577],[-79.0081,-1.9292],[-79.0259,-1.8661],[-79.0129,-1.7777],[-78.98,-1.7531],[-78.8862,-1.7534],[-78.8458,-1.655],[-78.8615,-1.6197],[-78.8995,-1.5971],[-78.8701,-1.4979],[-78.939,-1.3706],[-78.8898,-1.2719],[-78.8978,-1.2242],[-78.878,-1.1939],[-78.9247,-1.1815],[-78.9971,-1.2149],[-79.1032,-1.1496],[-79.2051,-1.1673],[-79.2529,-1.2007],[-79.3252,-1.2182],[-79.3935,-1.317],[-79.376,-1.3296],[-79.3342,-1.3003],[-79.2737,-1.3345],[-79.2885,-1.3901],[-79.3174,-1.3948],[-79.3123,-1.4312],[-79.3511,-1.4629],[-79.3298,-1.4619],[-79.3163,-1.5153],[-79.256,-1.5402],[-79.2521,-1.566],[-79.2839,-1.6064],[-79.3526,-1.6411],[-79.2694,-1.6683],[-79.2799,-1.7004],[-79.1978,-1.7417],[-79.2422,-1.7735],[-79.2449,-1.8244],[-79.2282,-1.8435],[-79.2626,-1.9634],[-79.1946,-2.1318],[-79.1808,-2.1435],[-79.1553,-2.1219],[-79.1182,-2.1258],[-79.1259,-2.1927]]]},"properties":{"iso3":"ECU","shapeId":"780006B72413159872158","regionId":"ECU.2_1","name":"Bolivar"}},{"type":"Feature","geometry":{"type":"Polygon","coordinates":[[[-78.1217,-1.2204],[-78.1274,-1.1976],[-78.1821,-1.1838],[-78.2244,-1.1412],[-78.2588,-1.1525],[-78.29,-1.1398],[-78.352,-1.1663],[-78.3269,-1.0438],[-78.3609,-1.0055],[-78.4106,-0.994],[-78.4824,-1.0891],[-78.5553,-1.0563],[-78.5773,-1.0691],[-78.5711,-1.1181],[-78.6205,-1.1105],[-78.6695,-1.1504],[-78.7529,-1.1298],[-78.878,-1.1939],[-78.8978,-1.2242],[-78.8898,-1.2719],[-78.9402,-1.3497],[-78.9345,-1.401],[-78.883,-1.4676],[-78.7752,-1.4336],[-78.6747,-1.499],[-78.6199,-1.5044],[-78.5633,-1.4752],[-78.533,-1.4793],[-78.4939,-1.4307],[-78.3553,-1.5178],[-78.2971,-1.4791],[-78.2501,-1.4979],[-78.1711,-1.4436],[-78.1301,-1.3778],[-78.1217,-1.2204]]]},"properties":{"iso3":"ECU","shapeId":"780006B23430196387963","regionId":"ECU.23_1","name":"Tungurahua"}},{"type":"Feature","geometry":{"type":"Polygon","coordinates":[[[-78.5709,-2.5539],[-78.5128,-2.5372],[-78.4682,-2.4199],[-78.532,-2.3497],[-78.5873,-2.3221],[-78.5441,-2.292],[-78.538,-2.2495],[-78.4907,-2.222],[-78.5199,-2.1703],[-78.514,-2.1392],[-78.4396,-2.0949],[-78.4545,-2.0435],[-78.4424,-2.0125],[-78.4825,-1.9946],[-78.4897,-1.9642],[-78.4013,-1.8649],[-78.4626,-1.741],[-78.4295,-1.687],[-78.3671,-1.6366],[-78.3799,-1.5505],[-78.3596,-1.5164],[-78.4939,-1.4307],[-78.5258,-1.4758],[-78.6199,-1.5044],[-78.7019,-1.4933],[-78.7655,-1.436],[-78.7991,-1.4356],[-78.84,-1.4642],[-78.883,-1.4676],[-78.871,-1.507],[-78.8995,-1.5971],[-78.8615,-1.6197],[-78.8458,-1.655],[-78.8792,-1.7458],[-78.98,-1.7531],[-79.0129,-1.7777],[-79.0259,-1.8661],[-79.0081,-1.9292],[-79.0406,-2.0577],[-79.0223,-2.0847],[-79.0324,-2.1195],[-79.0972,-2.1892],[-79.2461,-2.196],[-79.249,-2.2181],[-79.1403,-2.2164],[-79.0019,-2.3783],[-78.9017,-2.4099],[-78.8048,-2.3805],[-78.7797,-2.4333],[-78.7172,-2.4223],[-78.5709,-2.5539]]]},"properties":{"iso3":"ECU","shapeId":"780006B46353723731382","regionId":"ECU.5_1","name":"Chimborazo"}},{"type":"Feature","geometry":{"type":"Polygon","coordinates":[[[-78.1751,-1.4454],[-78.2501,-1.4979],[-78.2971,-1.4791],[-78.3762,-1.5381],[-78.3671,-1.6366],[-78.4295,-1.687],[-78.4626,-1.741],[-78.4038,-1.8746],[-78.4897,-1.9642],[-78.4825,-1.9946],[-78.4424,-2.0125],[-78.4545,-2.0435],[-78.4396,-2.0949],[-78.514,-2.1392],[-78.5199,-2.1703],[-78.4907,-2.222],[-78.538,-2.2495],[-78.5441,-2.292],[-78.5873,-2.3221],[-78.532,-2.3497],[-78.4682,-2.4199],[-78.5128,-2.5372],[-78.5709,-2.5539],[-78.5629,-2.6007],[-78.5291,-2.6227],[-78.517,-2.5898],[-78.4855,-2.5723],[-78.441,-2.5953],[-78.4235,-2.6278],[-78.5808,-2.723],[-78.6097,-2.7857],[-78.5712,-2.8406],[-78.626,-2.9135],[-78.6342,-2.9757],[-78.6928,-3.1091],[-78.7546,-3.1299],[-78.8242,-3.2336],[-78.8613,-3.2326],[-78.9421,-3.3031],[-78.9453,-3.3437],[-78.8873,-3.4134],[-78.8596,-3.5139],[-78.8249,-3.5489],[-78.7627,-3.5684],[-78.7229,-3.5641],[-78.6869,-3.5865],[-78.6409,-3.5369],[-78.5704,-3.5473],[-78.5186,-3.528],[-78.3703,-3.526],[-78.3437,-3.3777],[-78.2531,-3.4066],[-78.2245,-3.5009],[-78.2007,-3.5027],[-78.1443,-3.4626],[-78.1919,-3.3578],[-78.1147,-3.2847],[-78.0868,-3.2162],[-78.0625,-3.2204],[-78.0031,-3.1804],[-78.0071,-3.1566],[-77.9569,-3.0887],[-77.8502,-3.0],[-76.6962,-2.6109],[-76.7377,-2.5624],[-76.8023,-2.5721],[-76.8275,-2.5396],[-76.9183,-2.5648],[-76.9663,-2.5177],[-76.9921,-2.515],[-77.0012,-2.4661],[-77.1039,-2.3266],[-77.2342,-2.2528],[-77.2926,-2.1951],[-77.4122,-2.1442],[-77.4442,-2.098],[-77.4837,-2.103],[-77.6182,-2.0429],[-77.6601,-2.0517],[-77.7112,-2.0241],[-77.7339,-1.9858],[-77.8181,-1.9235],[-77.8841,-1.7586],[-77.887,-1.6959],[-77.9306,-1.658],[-78.017,-1.6717],[-78.0796,-1.508],[-78.1158,-1.4642],[-78.1751,-1.4454]]]},"properties":{"iso3":"ECU","shapeId":"780006B74004453472975","regionId":"ECU.15_1","name":"Morona Santiago"}},{"type":"Feature","geometry":{"type":"Polygon","coordinates":[[[-77.0701,-1.0118],[-77.0481,-0.996],[-77.0715,-0.9633],[-77.0347,-0.9195],[-77.1449,-0.8918],[-77.206,-0.811],[-77.1126,-0.7163],[-77.131,-0.6902],[-77.2685,-0.8313],[-77.4393,-0.8985],[-77.5038,-0.9442],[-77.5904,-0.9232],[-77.5453,-0.891],[-77.5136,-0.8132],[-77.538,-0.7781],[-77.4925,-0.7052],[-77.5307,-0.6212],[-77.5735,-0.605],[-77.6188,-0.5431],[-77.5605,-0.4962],[-77.5598,-0.4537],[-77.4268,-0.5195],[-77.386,-0.49],[-77.3592,-0.427],[-77.3241,-0.4177],[-77.3266,-0.3675],[-77.252,-0.2971],[-77.2918,-0.1845],[-77.2759,-0.1355],[-77.2958,-0.0526],[-77.3724,-0.1458],[-77.4507,-0.1298],[-77.4381,-0.066],[-77.4577,-0.0135],[-77.5843,-0.096],[-77.6395,-0.0735],[-77.6975,-0.0783],[-77.7275,-0.0478],[-77.766,-0.0767],[-77.7901,-0.0146],[-77.7742,0.0196],[-77.8243,0.0392],[-77.8485,0.0011],[-77.9413,-0.0494],[-77.9296,-0.0906],[-77.9631,-0.1135],[-78.0428,-0.1394],[-78.078,-0.1847],[-78.1041,-0.1938],[-78.1428,-0.1635],[-78.1807,-0.1919],[-78.1872,-0.2919],[-78.2526,-0.41],[-78.2365,-0.4549],[-78.2622,-0.5243],[-78.3187,-0.6024],[-78.3314,-0.6538],[-78.3876,-0.6727],[-78.4135,-0.7109],[-78.3925,-0.7464],[-78.3907,-0.8111],[-78.4253,-0.8961],[-78.4026,-0.9609],[-78.4106,-0.994],[-78.3609,-1.0055],[-78.3269,-1.0438],[-78.352,-1.1663],[-78.29,-1.1398],[-78.2588,-1.1525],[-78.2244,-1.1412],[-78.1821,-1.1838],[-78.1418,-1.1869],[-78.1217,-1.2204],[-78.0644,-1.2412],[-77.951,-1.2063],[-77.8912,-1.2411],[-77.8768,-1.2003],[-77.8326,-1.2155],[-77.7473,-1.1665],[-77.7201,-1.1731],[-77.6898,-1.1436],[-77.5948,-1.1336],[-77.554,-1.152],[-77.4425,-1.0819],[-77.3524,-1.1],[-77.3347,-1.0678],[-77.2377,-1.0532],[-77.2154,-1.028],[-77.0701,-1.0118]]]},"properties":{"iso3":"ECU","shapeId":"780006B95371609522575","regionId":"ECU.16_1","name":"Napo"}},{"type":"Feature","geometry":{"type":"Polygon","coordinates":[[[-75.5793,-1.551],[-75.5651,-1.5652],[-75.556,-1.5521],[-75.3807,-0.9306],[-75.3624,-0.9218],[-75.2784,-0.9837],[-75.1886,-0.9661],[-75.2253,-0.9284],[-75.2121,-0.873],[-75.2381,-0.8341],[-75.2302,-0.7988],[-75.2568,-0.7826],[-75.2415,-0.7561],[-75.2664,-0.7183],[-75.2394,-0.6894],[-75.2586,-0.6603],[-75.2418,-0.6383],[-75.2731,-0.6463],[-75.2779,-0.6239],[-75.3679,-0.6063],[-75.3866,-0.5626],[-75.4378,-0.5418],[-75.5014,-0.5538],[-75.541,-0.5379],[-75.5657,-0.4897],[-75.6397,-0.4485],[-75.6895,-0.4659],[-75.7365,-0.4138],[-75.8209,-0.4369],[-75.8821,-0.4026],[-75.9407,-0.4145],[-75.9238,-0.5603],[-75.9636,-0.5572],[-76.0319,-0.5162],[-76.0828,-0.4337],[-76.2486,-0.441],[-76.3821,-0.5162],[-76.42,-0.4825],[-76.4656,-0.4834],[-76.5477,-0.4093],[-76.6246,-0.4243],[-76.6377,-0.3951],[-76.7172,-0.3399],[-76.7632,-0.2555],[-76.9327,-0.0577],[-77.0462,-0.1063],[-77.0886,-0.1049],[-77.1212,-0.0817],[-77.1933,-0.0929],[-77.2867,-0.04],[-77.2958,-0.0729],[-77.2759,-0.1355],[-77.2918,-0.1845],[-77.252,-0.2971],[-77.3266,-0.3675],[-77.3241,-0.4177],[-77.3592,-0.427],[-77.386,-0.49],[-77.4268,-0.5195],[-77.5598,-0.4537],[-77.5605,-0.4962],[-77.6188,-0.5431],[-77.5735,-0.605],[-77.5307,-0.6212],[-77.4925,-0.7052],[-77.538,-0.7781],[-77.5173,-0.8226],[-77.5453,-0.891],[-77.5888,-0.9169],[-77.5828,-0.9321],[-77.5038,-0.9442],[-77.4393,-0.8985],[-77.2685,-0.8313],[-77.131,-0.6902],[-77.1126,-0.7163],[-77.206,-0.811],[-77.1449,-0.8918],[-77.0347,-0.9195],[-77.0715,-0.9633],[-77.0481,-0.996],[-77.0748,-1.0318],[-77.0677,-1.0731],[-77.0391,-1.0966],[-76.9135,-1.1179],[-76.8748,-1.0603],[-76.7274,-1.0303],[-76.6995,-0.9994],[-76.6755,-1.0013],[-76.6054,-1.0714],[-76.5132,-1.0611],[-76.525,-1.1958],[-76.454,-1.2638],[-76.3961,-1.2608],[-76.2894,-1.3127],[-76.2187,-1.2922],[-76.1641,-1.2984],[-76.1096,-1.2738],[-75.9405,-1.3568],[-75.8854,-1.3384],[-75.7973,-1.4029],[-75.7452,-1.4083],[-75.712,-1.4569],[-75.6,-1.5056],[-75.5793,-1.551]]]},"properties":{"iso3":"ECU","shapeId":"780006B54205869319714","regionId":"ECU.17_1","name":"Orellana"}},{"type":"Feature","geometry":{"type":"MultiPolygon","coordinates":[[[[-89.6362,-1.3927],[-89.6613,-1.3546],[-89.7171,-1.3581],[-89.6851,-1.3879],[-89.6362,-1.3927]]],[[[-90.4244,-1.2344],[-90.4689,-1.236],[-90.4894,-1.3086],[-90.4526,-1.3634],[-90.3972,-1.3432],[-90.3565,-1.2845],[-90.3682,-1.2576],[-90.4244,-1.2344]]],[[[-90.0351,-0.8302],[-90.0217,-0.8147],[-90.0719,-0.7805],[-90.0693,-0.8272],[-90.0351,-0.8302]]],[[[-89.4787,-0.9237],[-89.4134,-0.8917],[-89.3576,-0.803],[-89.2511,-0.7134],[-89.2529,-0.6883],[-89.3463,-0.6801],[-89.4008,-0.6966],[-89.4982,-0.8034],[-89.6115,-0.8882],[-89.6037,-0.9077],[-89.5384,-0.9319],[-89.4787,-0.9237]]],[[[-90.6481,-0.6403],[-90.6347,-0.6113],[-90.6641,-0.5867],[-90.6827,-0.6204],[-90.6481,-0.6403]]],[[[-90.2678,-0.5066],[-90.4145,-0.5019],[-90.4816,-0.5244],[-90.5326,-0.5802],[-90.546,-0.6697],[-90.5292,-0.6983],[-90.4036,-0.7709],[-90.251,-0.7426],[-90.1948,-0.6623],[-90.181,-0.5751],[-90.2678,-0.5066]]],[[[-90.2644,-0.4767],[-90.2711,-0.4193],[-90.2967,-0.4756],[-90.2644,-0.4767]]],[[[-90.704,-0.4184],[-90.7198,-0.4015],[-90.7234,-0.42],[-90.704,-0.4184]]],[[[-91.4273,-0.2864],[-91.4676,-0.2656],[-91.5541,-0.2946],[-91.6073,-0.2804],[-91.6545,-0.302],[-91.641,-0.3915],[-91.593,-0.4698],[-91.5039,-0.5001],[-91.4182,-0.4681],[-91.3737,-0.3933],[-91.4273,-0.2864]]],[[[-90.5439,-0.3184],[-90.5958,-0.231],[-90.6849,-0.1999],[-90.7693,-0.1441],[-90.8251,-0.17],[-90.8616,-0.2678],[-90.8206,-0.34],[-90.7829,-0.3353],[-90.614,-0.3818],[-90.5875,-0.3824],[-90.5439,-0.3184]]],[[[-91.2556,0.0106],[-91.3434,0.1574],[-91.467,0.1145],[-91.5267,0.0373],[-91.5902,0.0061],[-91.5701,-0.0281],[-91.5298,-0.0312],[-91.4777,-0.0019],[-91.4256,-0.0183],[-91.348,-0.3194],[-91.2442,-0.386],[-91.2084,-0.481],[-91.0693,-0.6171],[-91.1423,-0.6894],[-91.2218,-0.6803],[-91.3206,-0.7042],[-91.5035,-0.8639],[-91.5104,-0.9183],[-91.4161,-1.0023],[-91.2647,-1.0236],[-91.1754,-1.0567],[-90.9058,-0.9776],[-90.8518,-0.9065],[-90.8004,-0.7635],[-90.8727,-0.6533],[-90.9358,-0.6206],[-90.9624,-0.5784],[-90.9331,-0.5141],[-90.9453,-0.4567],[-91.1683,-0.2516],[-91.1982,-0.1791],[-91.1906,-0.0734],[-91.2556,0.0106]]],[[[-89.9455,0.3089],[-89.9343,0.3301],[-89.9524,0.35],[-89.9758,0.3197],[-89.9455,0.3089]]],[[[-90.4631,0.2846],[-90.4167,0.308],[-90.4214,0.3392],[-90.456,0.3829],[-90.5084,0.3768],[-90.5274,0.3245],[-90.4872,0.2849],[-90.4631,0.2846]]],[[[-90.7446,0.5334],[-90.7169,0.5776],[-90.7623,0.633],[-90.79,0.6053],[-90.7883,0.5702],[-90.7446,0.5334]]],[[[-91.8113,1.3808],[-91.8115,1.3847],[-91.8187,1.3945],[-91.8228,1.3918],[-91.8244,1.3851],[-91.8212,1.3776],[-91.8141,1.3767],[-91.8113,1.3808]]],[[[-91.9987,1.6748],[-91.9999,1.68],[-92.0068,1.6817],[-92.0093,1.68],[-92.0054,1.6749],[-91.9987,1.6748]]]]},"properties":{"iso3":"ECU","shapeId":"780006B54205469685650","regionId":"ECU.9_1","name":"Galapagos"}}]}