{"type":"FeatureCollection","features":[{"type":"Feature","geometry":{"type":"MultiPolygon","coordinates":[[[[-17.997,27.8232],[-17.9952,27.8236],[-17.996,27.8253],[-17.997,27.8232]]],[[[-17.9607,27.6926],[-17.9572,27.7197],[-17.9272,27.7319],[-17.8834,27.8037],[-17.9172,27.8481],[-17.9918,27.8226],[-17.9898,27.7986],[-18.0366,27.762],[-18.0823,27.7531],[-18.1322,27.7713],[-18.155,27.7537],[-18.1567,27.7106],[-18.0504,27.6927],[-17.9916,27.6388],[-17.9704,27.6483],[-17.9607,27.6926]]],[[[-17.2706,28.2176],[-17.2693,28.2184],[-17.2716,28.2185],[-17.2706,28.2176]]],[[[-17.1921,28.0296],[-17.0985,28.0957],[-17.1186,28.1534],[-17.2607,28.2179],[-17.3185,28.2038],[-17.3488,28.0981],[-17.2702,28.0253],[-17.1921,28.0296]]],[[[-15.4084,27.8478],[-15.3838,27.8625],[-15.3843,27.927],[-15.3585,27.9312],[-15.3844,27.9674],[-15.3732,28.0095],[-15.4197,28.0609],[-15.4111,28.1008],[-15.4288,28.1378],[-15.4176,28.1466],[-15.412,28.1281],[-15.4069,28.1582],[-15.4046,28.1213],[-15.407,28.178],[-15.4394,28.1692],[-15.4316,28.1456],[-15.4675,28.1261],[-15.5268,28.1551],[-15.5999,28.1443],[-15.6373,28.172],[-15.709,28.1659],[-15.6962,28.1517],[-15.7108,28.0831],[-15.7863,28.0211],[-15.8228,28.0137],[-15.8331,27.9099],[-15.7874,27.8342],[-15.6746,27.7492],[-15.5701,27.7377],[-15.5599,27.7631],[-15.4333,27.7993],[-15.4084,27.8478]]],[[[-15.4377,28.1416],[-15.4346,28.1463],[-15.439,28.1401],[-15.4377,28.1416]]],[[[-13.8221,28.737],[-13.8144,28.7653],[-13.8357,28.7524],[-13.8221,28.737]]],[[[-16.1566,28.6043],[-16.1575,28.6018],[-16.1547,28.6051],[-16.1566,28.6043]]],[[[-16.1587,28.5911],[-16.1587,28.5945],[-16.1613,28.5923],[-16.1587,28.5911]]],[[[-13.5535,28.9548],[-13.5551,28.955],[-13.5542,28.9539],[-13.552,28.9547],[-13.5535,28.9548]]],[[[-13.5497,28.9526],[-13.5439,28.9531],[-13.5438,28.9541],[-13.5451,28.9532],[-13.5476,28.9545],[-13.5472,28.9581],[-13.5498,28.9558],[-13.5481,28.9535],[-13.5497,28.9526]]],[[[-13.3377,29.2757],[-13.335,29.2774],[-13.3375,29.2778],[-13.3393,29.2743],[-13.3377,29.2757]]],[[[-13.5296,29.3039],[-13.5317,29.3052],[-13.5338,29.3035],[-13.5354,29.3068],[-13.5398,29.303],[-13.5395,29.2984],[-13.5373,29.2946],[-13.5403,29.2895],[-13.5346,29.2892],[-13.5328,29.2913],[-13.5313,29.2903],[-13.531,29.2949],[-13.5328,29.2952],[-13.5296,29.2991],[-13.5296,29.3039]]],[[[-13.4888,29.25],[-13.4733,29.2708],[-13.5112,29.2907],[-13.5476,29.2225],[-13.5015,29.2266],[-13.4888,29.25]]],[[[-13.5238,29.4104],[-13.5232,29.3827],[-13.4862,29.4034],[-13.5238,29.4104]]],[[[-13.7005,28.9179],[-13.6435,28.9192],[-13.4859,28.9923],[-13.4474,29.0912],[-13.4642,29.1279],[-13.4289,29.1545],[-13.4238,29.2086],[-13.4698,29.2409],[-13.5436,29.1209],[-13.6017,29.1363],[-13.6329,29.1161],[-13.6578,29.1238],[-13.7069,29.08],[-13.752,29.079],[-13.7934,29.0519],[-13.8299,29.0071],[-13.8292,28.9303],[-13.8818,28.8861],[-13.8769,28.8596],[-13.8007,28.8583],[-13.7872,28.8384],[-13.7387,28.9049],[-13.7005,28.9179]]],[[[-17.7969,28.5183],[-17.7544,28.5924],[-17.7687,28.6773],[-17.7245,28.7431],[-17.7775,28.8403],[-17.8574,28.8327],[-17.9199,28.8574],[-18.0057,28.7846],[-18.0072,28.7578],[-17.88,28.5402],[-17.8637,28.4666],[-17.8331,28.457],[-17.7969,28.5183]]],[[[-16.5973,28.028],[-16.5465,28.0249],[-16.4268,28.1474],[-16.4247,28.2046],[-16.3617,28.3044],[-16.3605,28.3794],[-16.2428,28.4681],[-16.247,28.4557],[-16.2371,28.4855],[-16.1257,28.5321],[-16.1359,28.5828],[-16.2231,28.5654],[-16.3287,28.5767],[-16.3339,28.5575],[-16.4111,28.5272],[-16.456,28.4598],[-16.5119,28.4196],[-16.6035,28.394],[-16.6742,28.402],[-16.7516,28.3707],[-16.8329,28.393],[-16.9228,28.3558],[-16.841,28.2643],[-16.8375,28.2076],[-16.7381,28.0868],[-16.7368,28.0545],[-16.7113,28.0472],[-16.7046,28.0064],[-16.6439,28.0038],[-16.5973,28.028]]],[[[-14.3647,28.0495],[-14.3257,28.0469],[-14.2186,28.165],[-14.0127,28.2077],[-13.9173,28.252],[-13.8499,28.4006],[-13.8676,28.4807],[-13.8255,28.5553],[-13.8309,28.6939],[-13.8657,28.7456],[-13.9266,28.7514],[-14.0174,28.7148],[-14.0089,28.6773],[-14.0333,28.5931],[-14.0981,28.4789],[-14.147,28.4385],[-14.1623,28.3687],[-14.2039,28.3281],[-14.2229,28.2153],[-14.3735,28.1167],[-14.4503,28.1001],[-14.4912,28.111],[-14.51,28.0682],[-14.4776,28.0778],[-14.3647,28.0495]]]]},"properties":{"iso3":"ESP","shapeId":"25490228B84620027724461","regionId":"ESP.14_1","name":"Canarias"}},{"type":"Feature","geometry":{"type":"MultiPolygon","coordinates":[[[[-4.2982,35.1714],[-4.2959,35.1706],[-4.3012,35.1731],[-4.2982,35.1714]]],[[[-2.4388,35.175],[-2.4377,35.1765],[-2.4397,35.1783],[-2.4402,35.1836],[-2.4451,35.179],[-2.4432,35.1767],[-2.4397,35.1765],[-2.4388,35.175]]],[[[-2.4206,35.1781],[-2.4187,35.1793],[-2.4194,35.1803],[-2.4228,35.1799],[-2.4225,35.1846],[-2.424,35.185],[-2.4248,35.182],[-2.4231,35.1794],[-2.4206,35.1781]]],[[[-2.4295,35.18],[-2.4266,35.1827],[-2.432,35.1841],[-2.4317,35.181],[-2.4295,35.18]]],[[[-3.8893,35.2131],[-3.8882,35.2135],[-3.8904,35.2136],[-3.8893,35.2131]]],[[[-3.9027,35.2144],[-3.9015,35.2156],[-3.9033,35.2152],[-3.9027,35.2144]]],[[[-2.9526,35.3203],[-2.9703,35.2887],[-2.9505,35.2655],[-2.9232,35.2889],[-2.9526,35.3203]]]]},"properties":{"iso3":"ESP","shapeId":"25490228B18225280299410","regionId":"ESP.7_1","name":"Ceuta y Melilla"}},{"type":"Feature","geometry":{"type":"MultiPolygon","coordinates":[[[[-5.3821,35.9124],[-5.3718,35.8814],[-5.3435,35.8707],[-5.2783,35.8979],[-5.3135,35.8891],[-5.3821,35.9124]]],[[[-5.418,35.9119],[-5.4161,35.9128],[-5.4176,35.9166],[-5.4218,35.9129],[-5.418,35.9119]]]]},"properties":{"iso3":"ESP","shapeId":"25490228B48808997991554","regionId":"ESP.7_1","name":"Ceuta y Melilla"}},{"type":"Feature","geometry":{"type":"Polygon","coordinates":[[[-2.8581,42.6382],[-2.916,42.6195],[-2.9465,42.6393],[-3.0842,42.6407],[-3.0598,42.5892],[-3.1343,42.5421],[-3.0726,42.5289],[-3.0947,42.4881],[-3.046,42.4452],[-3.0633,42.4249],[-3.0569,42.3703],[-3.0782,42.4158],[-3.1013,42.4168],[-3.1053,42.3864],[-3.0635,42.3567],[-3.1097,42.3514],[-3.0886,42.2457],[-3.1294,42.1985],[-3.0344,42.086],[-2.9312,42.0868],[-2.9136,42.0229],[-2.8895,42.0104],[-2.798,42.0468],[-2.7916,42.1088],[-2.7347,42.125],[-2.7059,42.1036],[-2.7574,42.0331],[-2.747,42.0093],[-2.5799,41.9963],[-2.5491,42.0515],[-2.5149,42.0689],[-2.5147,42.1145],[-2.4844,42.1063],[-2.4385,42.1373],[-2.3182,42.1452],[-2.2822,42.1317],[-2.2696,42.0886],[-2.2089,42.1047],[-2.1273,42.0972],[-2.1272,42.0805],[-2.1619,42.0667],[-2.1076,42.0028],[-2.1241,41.9953],[-2.1161,41.9636],[-2.0364,41.9394],[-2.0283,41.9534],[-1.9703,41.9191],[-1.8565,41.9664],[-1.8472,42.008],[-1.9016,42.0297],[-1.9092,42.0591],[-1.8324,42.1482],[-1.7397,42.1497],[-1.7199,42.1334],[-1.6797,42.1517],[-1.7009,42.1731],[-1.6795,42.1911],[-1.8023,42.2234],[-1.8498,42.2593],[-1.8723,42.2527],[-1.8707,42.289],[-1.9138,42.3001],[-1.9185,42.327],[-1.9645,42.3338],[-1.9696,42.3525],[-2.016,42.3693],[-2.09,42.347],[-2.0786,42.3681],[-2.1155,42.3991],[-2.1119,42.42],[-2.177,42.4083],[-2.2764,42.4467],[-2.288,42.4674],[-2.33,42.4688],[-2.3468,42.4518],[-2.4153,42.4903],[-2.5147,42.4901],[-2.5106,42.52],[-2.5305,42.4836],[-2.5683,42.4941],[-2.597,42.4729],[-2.6054,42.5035],[-2.6477,42.4833],[-2.6758,42.5257],[-2.7057,42.5172],[-2.6805,42.5945],[-2.7637,42.6228],[-2.778,42.5813],[-2.825,42.5549],[-2.8408,42.5812],[-2.8188,42.6127],[-2.8418,42.6086],[-2.8581,42.6382]],[[-2.9994,42.6009],[-2.9941,42.6104],[-2.9945,42.6155],[-2.9852,42.6142],[-2.9829,42.6108],[-2.9858,42.6099],[-2.9862,42.6071],[-2.9994,42.6009]],[[-2.9452,42.6039],[-2.9345,42.6141],[-2.9297,42.6112],[-2.9296,42.6062],[-2.9226,42.6008],[-2.9277,42.5961],[-2.9392,42.5943],[-2.9452,42.6039]]]},"properties":{"iso3":"ESP","shapeId":"25490228B81978515469630","regionId":"ESP.15_1","name":"La Rioja"}},{"type":"Feature","geometry":{"type":"MultiPolygon","coordinates":[[[[-2.6817,43.4228],[-2.6816,43.4259],[-2.6873,43.4275],[-2.6817,43.4228]]],[[[-2.7748,43.4505],[-2.7758,43.453],[-2.7766,43.4513],[-2.7748,43.4505]]],[[[-2.4962,43.3652],[-2.4937,43.3683],[-2.497,43.3669],[-2.4962,43.3652]]],[[[-1.9998,43.3203],[-1.9973,43.3218],[-1.9979,43.3229],[-2.0008,43.322],[-1.9998,43.3203]]],[[[-2.4206,42.4892],[-2.4231,42.5107],[-2.3922,42.517],[-2.3968,42.5991],[-2.4211,42.6071],[-2.4532,42.5671],[-2.4622,42.5874],[-2.4906,42.5854],[-2.5001,42.6165],[-2.4158,42.6627],[-2.3763,42.6507],[-2.3819,42.6343],[-2.2885,42.6551],[-2.2936,42.6779],[-2.3169,42.6825],[-2.324,42.7238],[-2.2622,42.7485],[-2.281,42.7851],[-2.2354,42.8353],[-2.2531,42.8928],[-2.2322,42.9318],[-2.1991,42.9512],[-2.181,42.9351],[-2.1176,42.9422],[-2.0952,42.9726],[-2.0383,42.981],[-2.0228,43.0652],[-1.902,43.1359],[-1.9207,43.1506],[-1.9142,43.2252],[-1.8819,43.2068],[-1.8677,43.2305],[-1.8606,43.2121],[-1.795,43.2469],[-1.7832,43.2868],[-1.7294,43.2938],[-1.7374,43.3302],[-1.7892,43.353],[-1.7913,43.3959],[-1.9238,43.332],[-1.9731,43.3358],[-1.9909,43.3159],[-2.0305,43.321],[-2.1305,43.2875],[-2.1896,43.2924],[-2.2024,43.3117],[-2.3529,43.2987],[-2.4597,43.3356],[-2.5097,43.3774],[-2.6186,43.3919],[-2.6463,43.4159],[-2.6957,43.4068],[-2.7521,43.457],[-2.807,43.4305],[-2.9469,43.436],[-2.9451,43.4128],[-3.0396,43.3733],[-3.0126,43.3477],[-3.0278,43.3419],[-3.0102,43.3372],[-3.0207,43.3255],[-3.0728,43.3599],[-3.0453,43.359],[-3.1036,43.3637],[-3.0841,43.378],[-3.1164,43.3492],[-3.1533,43.3533],[-3.1573,43.3013],[-3.2095,43.2835],[-3.3324,43.3019],[-3.3401,43.278],[-3.4501,43.2362],[-3.4176,43.1333],[-3.2534,43.1986],[-3.2241,43.1701],[-3.1483,43.174],[-3.1418,43.1611],[-3.1818,43.1209],[-3.1339,43.0972],[-3.1582,43.074],[-3.1403,43.0672],[-3.1419,43.0298],[-3.1778,43.022],[-3.0603,43.0035],[-3.0415,42.9699],[-2.9813,42.9391],[-3.0189,42.9085],[-3.0921,42.8988],[-3.1493,42.9171],[-3.1447,42.9347],[-3.2247,42.9497],[-3.2772,42.9016],[-3.2826,42.8755],[-3.217,42.8265],[-3.1907,42.8695],[-3.1628,42.8567],[-3.1257,42.8913],[-3.1051,42.8796],[-3.1592,42.8046],[-3.1233,42.7893],[-3.1479,42.7567],[-3.0497,42.7656],[-3.042,42.7395],[-3.017,42.7411],[-2.9806,42.7038],[-2.9025,42.6936],[-2.8961,42.655],[-2.8426,42.6291],[-2.8418,42.6086],[-2.8188,42.6127],[-2.8408,42.5812],[-2.825,42.5549],[-2.778,42.5813],[-2.7637,42.6228],[-2.6805,42.5945],[-2.7057,42.5172],[-2.6758,42.5257],[-2.6477,42.4833],[-2.6054,42.5035],[-2.597,42.4729],[-2.5683,42.4941],[-2.5305,42.4836],[-2.5106,42.52],[-2.5147,42.4901],[-2.4206,42.4892]],[[-2.8619,42.7455],[-2.8355,42.7963],[-2.6023,42.7706],[-2.5894,42.7503],[-2.5583,42.7627],[-2.609,42.696],[-2.5778,42.6682],[-2.522,42.684],[-2.5174,42.6463],[-2.6349,42.6478],[-2.6592,42.6725],[-2.7679,42.666],[-2.7845,42.6989],[-2.8253,42.7089],[-2.8619,42.7455]],[[-3.3045,43.2583],[-3.2492,43.2596],[-3.2694,43.2028],[-3.2968,43.206],[-3.3045,43.2583]]]]},"properties":{"iso3":"ESP","shapeId":"25490228B56567998760255","regionId":"ESP.16_1","name":"País Vasco"}},{"type":"Feature","geometry":{"type":"MultiPolygon","coordinates":[[[[-1.1828,42.4239],[-1.1844,42.401],[-1.1584,42.41],[-1.145,42.4419],[-1.1828,42.4239]]],[[[-1.1294,42.4467],[-1.051,42.4415],[-1.0917,42.4857],[-1.1294,42.4467]]],[[[-1.8472,42.008],[-1.7669,41.9958],[-1.7152,41.957],[-1.6541,41.9654],[-1.5593,41.9139],[-1.4108,41.919],[-1.3048,42.0429],[-1.3106,42.0723],[-1.3523,42.0731],[-1.3989,42.1262],[-1.3919,42.1814],[-1.4175,42.2124],[-1.3991,42.2913],[-1.3291,42.3554],[-1.3599,42.378],[-1.3415,42.4239],[-1.2728,42.4819],[-1.2881,42.5228],[-1.2648,42.5568],[-1.2028,42.5497],[-1.2019,42.5782],[-1.158,42.5992],[-1.1798,42.6106],[-1.1571,42.6109],[-1.152,42.6479],[-1.0519,42.6426],[-1.028,42.7001],[-0.9487,42.7115],[-0.923,42.744],[-0.9005,42.7431],[-0.9005,42.7605],[-0.8656,42.7629],[-0.8475,42.7859],[-0.8568,42.8469],[-0.8185,42.8694],[-0.8191,42.9007],[-0.7832,42.9217],[-0.7245,42.9202],[-0.7308,42.9452],[-0.7675,42.969],[-0.8096,42.9514],[-0.9451,42.9534],[-1.1147,43.0239],[-1.1419,43.0074],[-1.1456,43.0258],[-1.2126,43.0517],[-1.2627,43.044],[-1.309,43.0712],[-1.27,43.1183],[-1.3326,43.1076],[-1.3542,43.0281],[-1.4412,43.0464],[-1.4734,43.0866],[-1.4141,43.1283],[-1.4022,43.1779],[-1.3814,43.1897],[-1.3822,43.25],[-1.4137,43.2737],[-1.5353,43.2947],[-1.5641,43.2888],[-1.5757,43.2499],[-1.6087,43.252],[-1.6252,43.3067],[-1.668,43.3148],[-1.7832,43.2868],[-1.795,43.2469],[-1.8606,43.2121],[-1.8677,43.2305],[-1.8819,43.2068],[-1.9142,43.2252],[-1.9207,43.1506],[-1.902,43.1359],[-2.0228,43.0652],[-2.0383,42.981],[-2.0952,42.9726],[-2.1176,42.9422],[-2.181,42.9351],[-2.1991,42.9512],[-2.2322,42.9318],[-2.2531,42.8928],[-2.2354,42.8353],[-2.281,42.7851],[-2.2622,42.7485],[-2.324,42.7238],[-2.3169,42.6825],[-2.2936,42.6779],[-2.2885,42.6551],[-2.3819,42.6343],[-2.3763,42.6507],[-2.4158,42.6627],[-2.5001,42.6165],[-2.4906,42.5854],[-2.4622,42.5874],[-2.4532,42.5671],[-2.4211,42.6071],[-2.3968,42.5991],[-2.3922,42.517],[-2.4235,42.4991],[-2.4,42.4714],[-2.3468,42.4518],[-2.33,42.4688],[-2.288,42.4674],[-2.2764,42.4467],[-2.177,42.4083],[-2.1119,42.42],[-2.1155,42.3991],[-2.0786,42.3681],[-2.09,42.347],[-1.9955,42.3636],[-1.9645,42.3338],[-1.9185,42.327],[-1.9138,42.3001],[-1.8707,42.289],[-1.8723,42.2527],[-1.8498,42.2593],[-1.8023,42.2234],[-1.6795,42.1911],[-1.7009,42.1731],[-1.6797,42.1517],[-1.7042,42.1394],[-1.8216,42.1536],[-1.892,42.086],[-1.9092,42.0591],[-1.9016,42.0297],[-1.8472,42.008]]]]},"properties":{"iso3":"ESP","shapeId":"25490228B33348776534112","regionId":"ESP.9_1","name":"Comunidad Foral de Navarra"}},{"type":"Feature","geometry":{"type":"MultiPolygon","coordinates":[[[[-1.5475,37.4074],[-1.5437,37.4089],[-1.5473,37.4096],[-1.5475,37.4074]]],[[[-1.2667,37.5547],[-1.2671,37.5578],[-1.27,37.5551],[-1.2667,37.5547]]],[[[-0.9677,37.5586],[-0.9678,37.5601],[-0.9717,37.5594],[-0.9677,37.5586]]],[[[-1.0419,37.5701],[-1.0409,37.571],[-1.0425,37.5709],[-1.0419,37.5701]]],[[[-0.7492,37.6648],[-0.7476,37.6657],[-0.7494,37.6662],[-0.7492,37.6648]]],[[[-0.7409,37.6685],[-0.739,37.6693],[-0.7403,37.6705],[-0.7409,37.6685]]],[[[-0.7081,37.7252],[-0.7048,37.7282],[-0.7067,37.729],[-0.7061,37.7304],[-0.7093,37.7303],[-0.7097,37.7268],[-0.7081,37.7252]]],[[[-2.3416,38.026],[-2.172,37.8887],[-2.1232,37.9006],[-2.1004,37.8772],[-1.9745,37.8685],[-1.9995,37.8231],[-1.9958,37.728],[-2.0127,37.7006],[-1.9768,37.6187],[-1.8453,37.4548],[-1.8086,37.4335],[-1.8118,37.4516],[-1.7371,37.4426],[-1.6286,37.3738],[-1.519,37.4318],[-1.4862,37.4229],[-1.4597,37.4866],[-1.3258,37.5628],[-1.2558,37.5576],[-1.2462,37.5761],[-1.2135,37.5753],[-1.1739,37.563],[-1.1665,37.5421],[-1.1111,37.5341],[-1.1271,37.5521],[-1.1087,37.5694],[-1.074,37.5842],[-1.018,37.5728],[-0.9841,37.5843],[-0.9923,37.6015],[-0.9498,37.5676],[-0.9674,37.5693],[-0.9604,37.5587],[-0.9192,37.5539],[-0.8763,37.5774],[-0.7318,37.6015],[-0.6881,37.6338],[-0.7315,37.6785],[-0.7382,37.7346],[-0.7214,37.74],[-0.745,37.7799],[-0.7579,37.7799],[-0.7335,37.7465],[-0.7456,37.7482],[-0.7457,37.706],[-0.7285,37.6343],[-0.8061,37.6602],[-0.8551,37.711],[-0.7967,37.81],[-0.7751,37.8185],[-0.7535,37.7882],[-0.7506,37.8212],[-0.7625,37.8466],[-0.8305,37.8644],[-0.9002,37.9231],[-1.0226,38.0757],[-1.0368,38.1377],[-0.9885,38.1995],[-0.9677,38.2756],[-0.9892,38.3209],[-1.0844,38.3462],[-1.0772,38.4315],[-1.0942,38.4379],[-1.0136,38.4967],[-1.0261,38.5228],[-1.0016,38.5727],[-1.0159,38.6351],[-1.1156,38.7114],[-1.1197,38.7377],[-1.1836,38.7551],[-1.2498,38.7386],[-1.3441,38.6771],[-1.3667,38.704],[-1.3838,38.6992],[-1.4477,38.6495],[-1.452,38.5815],[-1.4877,38.5633],[-1.4987,38.5321],[-1.4785,38.3764],[-1.5582,38.3252],[-1.6702,38.3116],[-1.6927,38.3378],[-1.6876,38.3658],[-1.7435,38.3813],[-1.7958,38.3703],[-1.7843,38.3562],[-1.9075,38.298],[-1.9826,38.2814],[-2.049,38.3058],[-2.1137,38.2382],[-2.2129,38.203],[-2.2616,38.113],[-2.3285,38.0672],[-2.3416,38.026]]],[[[-0.7701,37.6902],[-0.7646,37.6917],[-0.7646,37.6937],[-0.7656,37.6969],[-0.7719,37.7029],[-0.7757,37.6997],[-0.7761,37.6957],[-0.7748,37.6929],[-0.7701,37.6902]]],[[[-0.7975,37.696],[-0.7965,37.6975],[-0.7986,37.6989],[-0.7966,37.702],[-0.8,37.7037],[-0.8032,37.7029],[-0.8043,37.7014],[-0.8007,37.7003],[-0.7975,37.696]]],[[[-0.7573,37.7803],[-0.7573,37.7824],[-0.7595,37.7823],[-0.7573,37.7803]]],[[[-0.7596,37.7825],[-0.7577,37.7843],[-0.7605,37.7846],[-0.7596,37.7825]]],[[[-0.7555,37.7829],[-0.7536,37.7836],[-0.756,37.7876],[-0.7581,37.7887],[-0.7586,37.788],[-0.7588,37.7887],[-0.7597,37.7877],[-0.7574,37.7883],[-0.7561,37.7875],[-0.7561,37.7858],[-0.758,37.7863],[-0.755,37.7854],[-0.757,37.7846],[-0.7555,37.7829]]],[[[-0.7595,37.7847],[-0.7573,37.7849],[-0.7599,37.7861],[-0.7599,37.7886],[-0.7592,37.7888],[-0.7616,37.7885],[-0.7601,37.7885],[-0.7605,37.7848],[-0.7595,37.7847]]],[[[-0.7615,37.7887],[-0.7591,37.7904],[-0.7625,37.7906],[-0.7615,37.7887]]]]},"properties":{"iso3":"ESP","shapeId":"25490228B27950689864224","regionId":"ESP.18_1","name":"Región de Murcia"}},{"type":"Feature","geometry":{"type":"MultiPolygon","coordinates":[[[[-4.3195,40.6477],[-4.2539,40.6619],[-4.29,40.6806],[-4.3195,40.6477]]],[[[-4.5791,40.2172],[-4.5279,40.2001],[-4.4374,40.2367],[-4.4352,40.2591],[-4.3835,40.289],[-4.3801,40.3183],[-4.3564,40.3086],[-4.3485,40.2367],[-4.2952,40.2189],[-4.2492,40.2727],[-4.2032,40.2688],[-4.1909,40.2974],[-4.144,40.2646],[-4.1458,40.2452],[-4.1043,40.2418],[-4.0729,40.2655],[-4.024,40.2489],[-3.991,40.2095],[-3.9529,40.2128],[-3.95,40.1891],[-3.9311,40.204],[-3.8763,40.1912],[-3.8342,40.1614],[-3.8046,40.1768],[-3.7714,40.1398],[-3.6673,40.1433],[-3.6076,40.109],[-3.6104,40.0819],[-3.629,40.0783],[-3.6218,40.055],[-3.7466,39.9807],[-3.7279,39.9645],[-3.8755,39.9282],[-3.8683,39.9049],[-3.8044,39.8847],[-3.7439,39.9408],[-3.6345,39.9659],[-3.638,39.9884],[-3.5197,40.0211],[-3.5069,40.0487],[-3.4011,40.0342],[-3.3758,40.0513],[-3.3777,40.0748],[-3.3322,40.0805],[-3.2758,40.0473],[-3.201,40.0605],[-3.1781,40.0922],[-3.1616,40.0649],[-3.1182,40.0614],[-3.053,40.0994],[-3.0968,40.1424],[-3.0893,40.163],[-3.0678,40.1579],[-3.1015,40.2781],[-3.1537,40.2637],[-3.1734,40.2342],[-3.1944,40.248],[-3.1829,40.3083],[-3.1412,40.3505],[-3.1534,40.3677],[-3.1306,40.4052],[-3.1555,40.4394],[-3.1986,40.4423],[-3.2,40.5144],[-3.2499,40.5443],[-3.2971,40.5375],[-3.2841,40.569],[-3.3283,40.5948],[-3.3385,40.6258],[-3.3165,40.6552],[-3.3456,40.6377],[-3.3934,40.6925],[-3.4047,40.6696],[-3.4686,40.6899],[-3.4349,40.728],[-3.4504,40.7349],[-3.4443,40.7616],[-3.459,40.7813],[-3.5116,40.7885],[-3.4774,40.8236],[-3.4727,40.8641],[-3.4405,40.8753],[-3.4606,40.9067],[-3.4441,40.9068],[-3.4183,40.9876],[-3.3945,41.0003],[-3.4389,41.0427],[-3.4258,41.0829],[-3.4888,41.0943],[-3.5397,41.165],[-3.6328,41.1363],[-3.7814,41.0003],[-3.9072,40.9553],[-3.9523,40.8936],[-3.9471,40.863],[-3.9797,40.7846],[-4.0767,40.7889],[-4.1716,40.6806],[-4.1612,40.6235],[-4.2454,40.6024],[-4.2907,40.6278],[-4.2893,40.5642],[-4.3282,40.5338],[-4.3157,40.4648],[-4.3413,40.4287],[-4.3211,40.4103],[-4.4217,40.4062],[-4.4437,40.3857],[-4.4558,40.3194],[-4.5049,40.3153],[-4.5268,40.3449],[-4.5462,40.3418],[-4.5294,40.2931],[-4.5688,40.2587],[-4.5609,40.2228],[-4.5791,40.2172]],[[-3.3821,40.6305],[-3.3803,40.6329],[-3.3723,40.6356],[-3.3748,40.6385],[-3.374,40.6402],[-3.3727,40.6389],[-3.3636,40.6384],[-3.3637,40.6316],[-3.3682,40.6325],[-3.3717,40.6258],[-3.3821,40.6305]]]]},"properties":{"iso3":"ESP","shapeId":"25490228B43154843394848","regionId":"ESP.8_1","name":"Comunidad de Madrid"}},{"type":"Feature","geometry":{"type":"MultiPolygon","coordinates":[[[[-8.8902,42.042],[-8.8882,42.0427],[-8.8914,42.0425],[-8.8902,42.042]]],[[[-8.877,42.1461],[-8.8759,42.1471],[-8.8781,42.1474],[-8.877,42.1461]]],[[[-8.8553,42.1444],[-8.8532,42.1453],[-8.8557,42.1486],[-8.8575,42.1469],[-8.8553,42.1444]]],[[[-8.8659,42.145],[-8.8628,42.1453],[-8.863,42.1474],[-8.8665,42.147],[-8.8659,42.145]]],[[[-8.8925,42.1906],[-8.8893,42.192],[-8.892,42.1963],[-8.8975,42.1996],[-8.9035,42.2006],[-8.9089,42.2073],[-8.9107,42.2054],[-8.9125,42.2059],[-8.9123,42.2024],[-8.9094,42.1982],[-8.9127,42.1955],[-8.9081,42.1937],[-8.907,42.1915],[-8.9016,42.1943],[-8.8996,42.1928],[-8.8987,42.1945],[-8.8925,42.1906]]],[[[-8.8025,42.1992],[-8.7995,42.2008],[-8.7993,42.2029],[-8.8044,42.2009],[-8.8025,42.1992]]],[[[-8.9138,42.2113],[-8.8955,42.2274],[-8.9141,42.2515],[-8.9138,42.2113]]],[[[-8.9378,42.3429],[-8.9337,42.3438],[-8.9331,42.3488],[-8.9375,42.3488],[-8.9378,42.3429]]],[[[-8.939,42.3552],[-8.9211,42.3997],[-8.9451,42.3803],[-8.939,42.3552]]],[[[-8.7082,42.4076],[-8.7053,42.4116],[-8.7086,42.4148],[-8.7126,42.4115],[-8.7082,42.4076]]],[[[-8.7868,42.614],[-8.7783,42.6187],[-8.7804,42.6224],[-8.784,42.6202],[-8.7887,42.6202],[-8.7904,42.6166],[-8.7868,42.614]]],[[[-9.1479,42.8099],[-9.1457,42.8134],[-9.1473,42.8147],[-9.1479,42.8099]]],[[[-9.1862,43.1685],[-9.1855,43.1696],[-9.1878,43.1701],[-9.1862,43.1685]]],[[[-9.1514,43.1955],[-9.1533,43.1983],[-9.1536,43.1961],[-9.1514,43.1955]]],[[[-8.8445,43.3552],[-8.8361,43.3578],[-8.836,43.3603],[-8.8386,43.3628],[-8.8438,43.3624],[-8.8445,43.3611],[-8.8497,43.3615],[-8.8445,43.3552]]],[[[-8.8324,43.3529],[-8.8315,43.3547],[-8.8348,43.3561],[-8.8353,43.3535],[-8.8324,43.3529]]],[[[-8.834,43.3561],[-8.831,43.3569],[-8.8308,43.3584],[-8.8341,43.3622],[-8.8359,43.3577],[-8.834,43.3561]]],[[[-8.4525,43.3758],[-8.4503,43.3776],[-8.4537,43.3778],[-8.4525,43.3758]]],[[[-8.3363,43.5104],[-8.3371,43.5118],[-8.3405,43.5119],[-8.3363,43.5104]]],[[[-8.4497,43.378],[-8.4481,43.3791],[-8.4511,43.3801],[-8.4517,43.3788],[-8.4497,43.378]]],[[[-8.4478,43.3795],[-8.446,43.3814],[-8.4483,43.3822],[-8.4478,43.3795]]],[[[-8.2641,43.4178],[-8.2608,43.4186],[-8.263,43.4193],[-8.2641,43.4178]]],[[[-7.4414,43.7164],[-7.4378,43.7186],[-7.4422,43.7174],[-7.4414,43.7164]]],[[[-7.4388,43.7147],[-7.437,43.715],[-7.4417,43.715],[-7.4388,43.7147]]],[[[-7.4415,43.7002],[-7.4424,43.7017],[-7.4444,43.7012],[-7.4415,43.7002]]],[[[-7.4904,43.7296],[-7.4883,43.7312],[-7.492,43.7327],[-7.494,43.7309],[-7.4904,43.7296]]],[[[-7.6326,43.7565],[-7.628,43.7586],[-7.6301,43.7616],[-7.6345,43.7589],[-7.6326,43.7565]]],[[[-8.9633,42.773],[-8.9626,42.7752],[-8.9648,42.7768],[-8.9661,42.7754],[-8.9655,42.7768],[-8.9665,42.7753],[-8.9633,42.773]]],[[[-9.0491,42.507],[-9.0492,42.5105],[-9.0506,42.5086],[-9.0491,42.507]]],[[[-9.0104,42.463],[-8.9994,42.4688],[-9.0156,42.4858],[-9.0104,42.463]]],[[[-8.8545,42.4554],[-8.851,42.458],[-8.8551,42.4572],[-8.8545,42.4554]]],[[[-8.8506,42.4636],[-8.8495,42.465],[-8.8507,42.4642],[-8.8512,42.4661],[-8.8506,42.4636]]],[[[-8.8568,42.4617],[-8.857,42.4641],[-8.8606,42.466],[-8.8609,42.4646],[-8.8568,42.4617]]],[[[-8.9429,42.4626],[-8.9422,42.4641],[-8.9439,42.4645],[-8.9429,42.4626]]],[[[-8.8484,42.4652],[-8.8492,42.467],[-8.8519,42.467],[-8.8491,42.4668],[-8.8484,42.4652]]],[[[-8.8368,42.4806],[-8.8357,42.4828],[-8.8387,42.4829],[-8.8368,42.4806]]],[[[-8.9961,42.4875],[-8.9973,42.4895],[-8.9983,42.4882],[-8.9961,42.4875]]],[[[-8.834,42.4893],[-8.8337,42.4972],[-8.837,42.4899],[-8.834,42.4893]]],[[[-8.847,42.4819],[-8.8441,42.4855],[-8.8459,42.487],[-8.845,42.4901],[-8.8419,42.4899],[-8.8405,42.4951],[-8.8437,42.4975],[-8.8419,42.5008],[-8.8457,42.5004],[-8.8442,42.4983],[-8.8464,42.497],[-8.8455,42.4953],[-8.8531,42.4888],[-8.8527,42.4832],[-8.847,42.4819]]],[[[-9.0036,42.4958],[-9.004,42.4999],[-9.0062,42.5002],[-9.006,42.4966],[-9.0036,42.4958]]],[[[-8.909,42.5324],[-8.9072,42.5347],[-8.9095,42.5338],[-8.909,42.5324]]],[[[-7.0319,43.5446],[-7.2354,43.5691],[-7.2558,43.5469],[-7.2711,43.5626],[-7.2455,43.5752],[-7.2944,43.5923],[-7.3571,43.6712],[-7.4489,43.6926],[-7.4599,43.7127],[-7.4784,43.7088],[-7.4682,43.7242],[-7.5145,43.7189],[-7.524,43.7368],[-7.5845,43.7118],[-7.5763,43.693],[-7.6007,43.6818],[-7.5967,43.6626],[-7.6144,43.6813],[-7.6061,43.7178],[-7.6296,43.7221],[-7.6364,43.753],[-7.7014,43.7356],[-7.6617,43.7767],[-7.6889,43.7914],[-7.7254,43.7468],[-7.8126,43.7266],[-7.8296,43.7101],[-7.8149,43.6951],[-7.8605,43.7067],[-7.8431,43.6725],[-7.8843,43.6627],[-7.9045,43.6714],[-7.8719,43.672],[-7.892,43.6848],[-7.8694,43.7072],[-7.8778,43.7212],[-7.8499,43.7176],[-7.872,43.7353],[-7.8684,43.7736],[-7.9045,43.7699],[-8.0004,43.7051],[-8.0641,43.7041],[-8.0759,43.6603],[-8.0539,43.6489],[-8.0773,43.6442],[-8.0933,43.6666],[-8.1555,43.6153],[-8.1884,43.6211],[-8.2601,43.5579],[-8.3234,43.5637],[-8.2963,43.535],[-8.3323,43.513],[-8.3197,43.498],[-8.3411,43.4584],[-8.2662,43.4677],[-8.2473,43.4933],[-8.2486,43.4762],[-8.2005,43.4772],[-8.1514,43.5175],[-8.2015,43.4601],[-8.2549,43.4662],[-8.3166,43.445],[-8.2594,43.4179],[-8.1737,43.4199],[-8.223,43.3869],[-8.2088,43.3278],[-8.3069,43.4057],[-8.3553,43.3904],[-8.3378,43.377],[-8.3558,43.3437],[-8.387,43.3395],[-8.3784,43.3573],[-8.404,43.3637],[-8.3743,43.3651],[-8.4008,43.39],[-8.4089,43.3693],[-8.4398,43.3815],[-8.4567,43.3598],[-8.4933,43.3604],[-8.5352,43.3159],[-8.6072,43.3223],[-8.7067,43.2906],[-8.7854,43.304],[-8.8412,43.3453],[-8.8485,43.3195],[-8.9108,43.3216],[-8.9061,43.2953],[-8.9281,43.2819],[-8.9571,43.2937],[-8.9913,43.2747],[-8.9528,43.2635],[-8.9398,43.2269],[-8.996,43.2163],[-9.0129,43.2335],[-9.0597,43.185],[-9.1501,43.1954],[-9.1745,43.1916],[-9.1992,43.1544],[-9.2141,43.1618],[-9.1929,43.1221],[-9.1655,43.1529],[-9.1671,43.1055],[-9.1885,43.0901],[-9.2187,43.1144],[-9.221,43.0884],[-9.257,43.0919],[-9.2622,43.0484],[-9.3011,43.0502],[-9.2572,43.0024],[-9.2979,42.9231],[-9.2755,42.9103],[-9.2728,42.8799],[-9.263,42.9189],[-9.2332,42.941],[-9.1909,42.9155],[-9.19,42.9524],[-9.1728,42.9443],[-9.1606,42.9118],[-9.1255,42.9056],[-9.1502,42.8722],[-9.1082,42.8355],[-9.1148,42.8109],[-9.1512,42.7983],[-9.0893,42.7384],[-9.0479,42.7697],[-9.0639,42.7869],[-9.0202,42.8007],[-9.0178,42.781],[-8.9748,42.7914],[-8.9631,42.7786],[-8.9313,42.8073],[-8.909,42.7963],[-8.9088,42.8252],[-8.8757,42.8289],[-8.9042,42.8138],[-8.9039,42.7884],[-9.0338,42.6952],[-9.0405,42.6374],[-9.0914,42.5765],[-9.0393,42.5656],[-9.0425,42.5172],[-8.9959,42.5296],[-8.9883,42.5658],[-8.9199,42.587],[-8.9373,42.6071],[-8.8989,42.6446],[-8.8735,42.6324],[-8.8877,42.6105],[-8.8574,42.6064],[-8.8589,42.6266],[-8.8377,42.6323],[-8.8611,42.6464],[-8.84,42.661],[-8.8446,42.687],[-8.8123,42.6672],[-8.8259,42.6461],[-8.8001,42.6364],[-8.747,42.6508],[-8.7256,42.6876],[-8.779,42.6142],[-8.7722,42.5932],[-8.8349,42.5648],[-8.8186,42.5593],[-8.8364,42.5587],[-8.8289,42.5185],[-8.8135,42.5289],[-8.8263,42.5153],[-8.8053,42.5008],[-8.8309,42.4843],[-8.8196,42.4518],[-8.8694,42.4481],[-8.8555,42.4727],[-8.8716,42.5012],[-8.9417,42.4634],[-8.8834,42.4555],[-8.8809,42.4148],[-8.8389,42.3843],[-8.8133,42.4012],[-8.7747,42.3877],[-8.6952,42.4377],[-8.6812,42.4211],[-8.6519,42.4284],[-8.7369,42.3766],[-8.755,42.3399],[-8.7911,42.327],[-8.8392,42.3391],[-8.8169,42.2787],[-8.8558,42.3098],[-8.873,42.25],[-8.8552,42.2614],[-8.7926,42.2463],[-8.7315,42.2867],[-8.712,42.2757],[-8.6602,42.2908],[-8.6602,42.3159],[-8.6362,42.3265],[-8.645,42.3385],[-8.6121,42.3462],[-8.6237,42.3099],[-8.6109,42.2875],[-8.6612,42.2849],[-8.7127,42.2411],[-8.7752,42.2221],[-8.8159,42.1875],[-8.8225,42.1571],[-8.8502,42.1565],[-8.8201,42.1414],[-8.826,42.1151],[-8.8516,42.1283],[-8.9007,42.1123],[-8.8716,41.8663],[-8.7554,41.9348],[-8.7441,41.9653],[-8.6635,42.0022],[-8.637,42.0471],[-8.5567,42.0514],[-8.5236,42.0785],[-8.3319,42.0842],[-8.199,42.1544],[-8.1823,42.0669],[-8.1185,42.0821],[-8.0843,42.0474],[-8.0855,42.017],[-8.1635,41.9827],[-8.2172,41.9131],[-8.1997,41.874],[-8.1706,41.879],[-8.1651,41.8183],[-8.13,41.8089],[-8.0133,41.8288],[-7.9809,41.8724],[-7.921,41.879],[-7.9058,41.9274],[-7.8844,41.9244],[-7.8922,41.8595],[-7.8728,41.8449],[-7.8452,41.8813],[-7.7008,41.9077],[-7.6539,41.8812],[-7.5859,41.8819],[-7.6114,41.8292],[-7.5213,41.8418],[-7.5022,41.8694],[-7.4525,41.8651],[-7.4282,41.8072],[-7.3658,41.8528],[-7.315,41.8428],[-7.1967,41.88],[-7.1734,41.919],[-7.1896,41.9419],[-7.1782,41.9801],[-7.1414,41.9908],[-7.0665,41.949],[-7.0062,41.9505],[-6.9611,42.0279],[-6.9748,42.0552],[-7.0118,42.0524],[-7.0336,42.0742],[-7.0027,42.0842],[-6.9898,42.1213],[-6.9446,42.1417],[-6.9428,42.1733],[-6.8782,42.2195],[-6.7871,42.2157],[-6.8032,42.2387],[-6.7411,42.2987],[-6.734,42.3591],[-6.8435,42.4058],[-6.8143,42.4274],[-6.8232,42.4913],[-6.9322,42.5205],[-6.9785,42.4933],[-7.0771,42.5082],[-7.0599,42.5293],[-7.0697,42.5539],[-7.0336,42.5841],[-7.0502,42.5973],[-7.047,42.6327],[-7.0044,42.6429],[-7.0452,42.6948],[-7.0109,42.7237],[-6.9729,42.725],[-6.9595,42.755],[-6.9356,42.7409],[-6.8674,42.7872],[-6.8403,42.8234],[-6.8713,42.8738],[-6.8141,42.8717],[-6.842,42.9064],[-6.8242,42.9151],[-6.8419,42.9282],[-6.8361,42.9578],[-6.8643,42.9835],[-6.9103,42.9901],[-6.9571,43.0368],[-6.962,42.9907],[-6.9972,43.0195],[-6.9819,43.0414],[-6.9646,43.0347],[-6.9686,43.0572],[-6.9387,43.0865],[-6.9156,43.0734],[-6.8713,43.0912],[-6.8216,43.1432],[-6.8682,43.19],[-6.8854,43.1568],[-6.9565,43.135],[-6.9808,43.1665],[-6.971,43.2042],[-7.0616,43.244],[-7.0598,43.3053],[-7.1009,43.3038],[-7.1308,43.3302],[-7.1275,43.3726],[-7.1825,43.3925],[-7.173,43.4304],[-7.1017,43.4275],[-7.0483,43.4771],[-7.0319,43.5446]]],[[[-8.8379,42.5502],[-8.838,42.5527],[-8.8395,42.5509],[-8.8379,42.5502]]],[[[-8.8237,42.5542],[-8.8227,42.5547],[-8.8246,42.5559],[-8.8237,42.5542]]],[[[-8.9013,42.5373],[-8.9014,42.5396],[-8.8982,42.5408],[-8.8978,42.5428],[-8.8967,42.5421],[-8.8983,42.544],[-8.9044,42.5408],[-8.9013,42.5373]]],[[[-8.9141,42.5436],[-8.9134,42.5456],[-8.9166,42.5475],[-8.9171,42.5455],[-8.9141,42.5436]]],[[[-8.907,42.5436],[-8.9061,42.5459],[-8.9067,42.5449],[-8.9079,42.5468],[-8.907,42.5436]]],[[[-8.8718,42.5241],[-8.8559,42.566],[-8.8767,42.5749],[-8.8919,42.5685],[-8.87,42.5609],[-8.8718,42.5241]]],[[[-8.7974,42.6095],[-8.7957,42.6102],[-8.7971,42.6116],[-8.7974,42.6095]]]]},"properties":{"iso3":"ESP","shapeId":"25490228B94236519555378","regionId":"ESP.12_1","name":"Galicia"}},{"type":"Feature","geometry":{"type":"Polygon","coordinates":[[[-6.9317,38.2083],[-6.8484,38.1772],[-6.7951,38.1785],[-6.8158,38.1201],[-6.7701,38.1121],[-6.7582,38.0927],[-6.6221,38.097],[-6.5805,38.0528],[-6.5823,38.0208],[-6.4766,38.0078],[-6.4524,38.056],[-6.4139,38.0586],[-6.3672,38.0489],[-6.3527,38.0074],[-6.3036,37.9783],[-6.2015,37.9621],[-6.1802,37.941],[-6.1153,37.9818],[-5.9537,37.9953],[-5.9342,38.0469],[-5.909,38.0628],[-5.9264,38.105],[-5.8515,38.1719],[-5.7282,38.1974],[-5.6947,38.1865],[-5.6842,38.1571],[-5.7058,38.1694],[-5.6947,38.1503],[-5.7407,38.1265],[-5.7349,38.0863],[-5.7104,38.081],[-5.6325,38.1386],[-5.5848,38.1317],[-5.5397,38.1607],[-5.5225,38.2384],[-5.5756,38.3291],[-5.5592,38.3669],[-5.5851,38.3858],[-5.5689,38.4326],[-5.4845,38.4634],[-5.4795,38.4847],[-5.4186,38.5127],[-5.4069,38.5437],[-5.3832,38.5405],[-5.3927,38.5535],[-5.3717,38.5836],[-5.3085,38.5776],[-5.2922,38.6108],[-5.2147,38.6486],[-5.2085,38.6677],[-5.1842,38.6597],[-5.1673,38.6805],[-5.1845,38.7197],[-5.0992,38.7077],[-4.99,38.7398],[-4.9149,38.8874],[-4.8473,38.8824],[-4.8311,38.9356],[-4.9182,38.957],[-4.9625,39.0587],[-4.88,39.0324],[-4.8328,39.0462],[-4.8269,39.0641],[-4.8744,39.1004],[-4.8103,39.1994],[-4.649,39.1649],[-4.7082,39.2099],[-4.761,39.3208],[-4.7067,39.3277],[-4.6695,39.4245],[-4.6903,39.4518],[-4.7746,39.3972],[-4.902,39.3745],[-4.9981,39.4266],[-5.2066,39.5972],[-5.1618,39.6424],[-5.1378,39.715],[-5.174,39.7513],[-5.1585,39.7597],[-5.1669,39.7999],[-5.2065,39.7976],[-5.2548,39.7523],[-5.3081,39.76],[-5.3126,39.8243],[-5.284,39.8639],[-5.3236,39.8917],[-5.4061,39.8777],[-5.3651,39.9829],[-5.369,40.1001],[-5.336,40.1158],[-5.368,40.1641],[-5.3697,40.2183],[-5.3444,40.2648],[-5.4291,40.2526],[-5.4709,40.2079],[-5.5481,40.1972],[-5.6145,40.2183],[-5.622,40.2459],[-5.6927,40.2921],[-5.7931,40.2867],[-5.8027,40.2976],[-5.782,40.3125],[-5.7993,40.3538],[-5.8842,40.3266],[-5.9172,40.2777],[-5.9378,40.2811],[-6.0059,40.3058],[-6.016,40.3403],[-6.1057,40.3568],[-6.0651,40.3969],[-6.1295,40.4208],[-6.1161,40.4416],[-6.147,40.4361],[-6.2001,40.4824],[-6.241,40.4852],[-6.3446,40.4428],[-6.3714,40.4019],[-6.4188,40.3993],[-6.4383,40.3728],[-6.5363,40.3472],[-6.5604,40.329],[-6.5562,40.2908],[-6.587,40.2707],[-6.6718,40.2632],[-6.6901,40.2427],[-6.7186,40.2692],[-6.7556,40.2389],[-6.8345,40.2476],[-6.8651,40.2706],[-6.9505,40.2583],[-7.0122,40.2265],[-7.0288,40.1856],[-7.0119,40.1269],[-6.9416,40.1129],[-6.8641,40.0125],[-6.9089,39.9192],[-6.9035,39.8713],[-6.9869,39.8101],[-6.9767,39.7727],[-7.0153,39.6708],[-7.1493,39.6529],[-7.2501,39.6672],[-7.3328,39.6412],[-7.545,39.6635],[-7.4955,39.5861],[-7.4297,39.5345],[-7.3917,39.5305],[-7.3813,39.4918],[-7.2954,39.4573],[-7.3235,39.3819],[-7.3083,39.3368],[-7.2314,39.2784],[-7.2479,39.2535],[-7.2414,39.2085],[-7.1346,39.1711],[-7.1438,39.1093],[-7.1058,39.0993],[-7.0334,39.1176],[-6.9594,39.055],[-6.9679,39.0398],[-6.9513,39.024],[-7.052,38.9072],[-7.0393,38.8648],[-7.2553,38.7259],[-7.2697,38.6388],[-7.2441,38.6236],[-7.303,38.5449],[-7.3226,38.4782],[-7.2956,38.4778],[-7.336,38.4352],[-7.2805,38.4203],[-7.1506,38.2757],[-7.0856,38.1694],[-7.0226,38.1854],[-7.0108,38.2047],[-6.937,38.2205],[-6.9317,38.2083]]]},"properties":{"iso3":"ESP","shapeId":"25490228B86140490400531","regionId":"ESP.11_1","name":"Extremadura"}},{"type":"Feature","geometry":{"type":"MultiPolygon","coordinates":[[[[-0.4708,38.1622],[-0.465,38.164],[-0.472,38.1665],[-0.4843,38.1665],[-0.4825,38.1649],[-0.4787,38.1655],[-0.4756,38.163],[-0.4708,38.1622]]],[[[-0.1295,38.5011],[-0.1286,38.5025],[-0.1312,38.5041],[-0.1328,38.5017],[-0.1295,38.5011]]],[[[0.2301,38.7535],[0.2316,38.7564],[0.2289,38.7568],[0.228,38.7542],[0.2301,38.7535]]],[[[0.6871,39.8933],[0.6886,39.8949],[0.6857,39.8948],[0.6844,39.8966],[0.6884,39.8988],[0.6882,39.9007],[0.6837,39.8973],[0.6843,39.8946],[0.6871,39.8933]]],[[[-1.4489,40.1453],[-1.4562,40.131],[-1.4076,40.1014],[-1.4203,40.0935],[-1.3643,40.0122],[-1.1918,40.0015],[-1.0718,40.0511],[-1.148,40.1145],[-1.2446,40.1158],[-1.2443,40.146],[-1.2843,40.1715],[-1.2978,40.2115],[-1.323,40.1849],[-1.3166,40.1497],[-1.3546,40.1295],[-1.4489,40.1453]]],[[[0.6716,39.8742],[0.6717,39.8761],[0.6704,39.8751],[0.6716,39.8742]]],[[[-0.7625,37.8466],[-0.7491,37.8997],[-0.7198,37.9114],[-0.6967,37.9695],[-0.6476,38.0],[-0.6439,38.1034],[-0.6148,38.1727],[-0.5097,38.2025],[-0.5199,38.2976],[-0.5057,38.3326],[-0.4443,38.3633],[-0.4038,38.3525],[-0.3866,38.4314],[-0.3122,38.4774],[-0.1498,38.5356],[-0.0976,38.5235],[-0.0496,38.5622],[-0.0617,38.582],[-0.0159,38.6267],[0.0839,38.631],[0.0736,38.6447],[0.0985,38.6728],[0.1486,38.6793],[0.1824,38.7208],[0.234,38.7371],[0.2248,38.7643],[0.1907,38.7727],[0.182,38.7934],[0.197,38.8045],[0.1095,38.8455],[0.1258,38.8486],[-0.0176,38.8734],[-0.1611,38.9924],[-0.1443,38.9953],[-0.1963,39.0532],[-0.2386,39.1432],[-0.2387,39.176],[-0.2163,39.1863],[-0.2785,39.2785],[-0.3369,39.4252],[-0.3092,39.4297],[-0.3303,39.4352],[-0.3236,39.4583],[-0.3029,39.4336],[-0.3093,39.4575],[-0.2857,39.455],[-0.3314,39.4598],[-0.3105,39.4611],[-0.3202,39.511],[-0.262,39.6118],[-0.2157,39.6551],[-0.2081,39.6433],[-0.1902,39.72],[-0.0889,39.854],[-0.0052,39.9152],[0.0481,40.0334],[0.1476,40.0829],[0.1905,40.1704],[0.264,40.2086],[0.2784,40.2441],[0.4084,40.3573],[0.4178,40.4006],[0.5132,40.516],[0.438,40.5471],[0.4439,40.5782],[0.402,40.6024],[0.2788,40.6301],[0.2677,40.6582],[0.2918,40.6886],[0.2365,40.7017],[0.2261,40.7332],[0.1125,40.7271],[0.0422,40.691],[0.0157,40.7284],[-0.0647,40.7274],[-0.165,40.7886],[-0.1972,40.7845],[-0.224,40.7542],[-0.236,40.6911],[-0.307,40.6595],[-0.3288,40.6803],[-0.378,40.6675],[-0.3705,40.6136],[-0.2933,40.611],[-0.3018,40.5154],[-0.2714,40.4785],[-0.3474,40.4439],[-0.2801,40.3695],[-0.3406,40.34],[-0.3663,40.3051],[-0.3886,40.3069],[-0.4004,40.2949],[-0.3836,40.2648],[-0.4945,40.2287],[-0.5442,40.2517],[-0.5786,40.1373],[-0.6285,40.1026],[-0.6136,40.07],[-0.6829,40.0442],[-0.7536,40.0466],[-0.7776,39.9984],[-0.8378,39.9768],[-0.8404,39.925],[-0.7977,39.8811],[-0.8636,39.8474],[-0.9128,39.8731],[-0.9027,39.9318],[-0.9205,39.9644],[-1.0576,39.9805],[-1.2036,39.9496],[-1.2,39.8587],[-1.215,39.8088],[-1.2754,39.7386],[-1.262,39.6989],[-1.3079,39.6708],[-1.3685,39.6896],[-1.4179,39.6549],[-1.4618,39.5769],[-1.5205,39.5503],[-1.5026,39.5456],[-1.4992,39.5004],[-1.5289,39.4549],[-1.5209,39.4315],[-1.4827,39.4218],[-1.4733,39.3911],[-1.4527,39.3987],[-1.4682,39.3833],[-1.4488,39.3782],[-1.4551,39.3608],[-1.4147,39.3803],[-1.3366,39.334],[-1.2086,39.3264],[-1.1619,39.3054],[-1.1808,39.2118],[-1.2557,39.1062],[-1.2639,39.0451],[-1.1467,38.9294],[-0.9594,38.9446],[-0.9245,38.8918],[-0.9289,38.7838],[-0.9614,38.7748],[-0.9158,38.696],[-0.9625,38.6569],[-1.0269,38.6555],[-1.0016,38.5727],[-1.0261,38.5228],[-1.0136,38.4967],[-1.0942,38.4379],[-1.0772,38.4315],[-1.0881,38.3678],[-1.0844,38.3462],[-0.9892,38.3209],[-0.9677,38.2756],[-0.9885,38.1995],[-1.0368,38.1377],[-1.0226,38.0757],[-0.8572,37.8852],[-0.7625,37.8466]]]]},"properties":{"iso3":"ESP","shapeId":"25490228B14384488423733","regionId":"ESP.10_1","name":"Comunidad Valenciana"}},{"type":"Feature","geometry":{"type":"MultiPolygon","coordinates":[[[[0.6349,40.5774],[0.6356,40.5813],[0.6335,40.5799],[0.6349,40.5774]]],[[[0.6557,40.5813],[0.6536,40.5848],[0.649,40.5848],[0.6525,40.5842],[0.6557,40.5813]]],[[[0.648,40.5833],[0.6482,40.5847],[0.6461,40.5847],[0.648,40.5833]]],[[[3.3238,42.3211],[3.3224,42.3234],[3.3202,42.3231],[3.3186,42.3248],[3.3192,42.3231],[3.3238,42.3211]]],[[[1.9703,42.4812],[1.9602,42.4535],[2.0128,42.4483],[1.9874,42.4698],[1.9902,42.4932],[1.9703,42.4812]]],[[[3.2965,42.2899],[3.2973,42.2933],[3.2949,42.2944],[3.2932,42.2926],[3.2965,42.2899]]],[[[3.305,42.3271],[3.3067,42.3278],[3.3052,42.3283],[3.305,42.3271]]],[[[3.2253,42.0426],[3.2271,42.0448],[3.2237,42.0445],[3.2253,42.0426]]],[[[3.223,42.0448],[3.2269,42.0477],[3.2246,42.0501],[3.219,42.0481],[3.223,42.0448]]],[[[0.5147,40.523],[0.6013,40.6221],[0.7452,40.6361],[0.7087,40.5909],[0.595,40.5781],[0.6158,40.5541],[0.659,40.5566],[0.7583,40.6415],[0.8677,40.6935],[0.8724,40.7347],[0.8309,40.733],[0.7659,40.7923],[0.7302,40.7892],[0.7806,40.7683],[0.7368,40.7668],[0.6994,40.804],[0.9871,41.0409],[1.1239,41.0748],[1.1703,41.0546],[1.1989,41.094],[1.2489,41.1089],[1.2135,41.0786],[1.2979,41.1278],[1.3949,41.1316],[1.5133,41.178],[2.0994,41.2845],[2.1526,41.3226],[2.1662,41.3413],[2.1444,41.3348],[2.1847,41.3808],[2.1718,41.335],[2.1983,41.3869],[2.277,41.4646],[2.7742,41.6474],[2.8194,41.6888],[2.934,41.7149],[2.9775,41.7577],[3.0436,41.7785],[3.1022,41.8449],[3.1769,41.8664],[3.2336,41.9505],[3.1959,42.0125],[3.2123,42.0688],[3.1179,42.1421],[3.1194,42.2268],[3.1654,42.2646],[3.2179,42.2324],[3.2295,42.2515],[3.2642,42.2378],[3.2537,42.2525],[3.2879,42.2657],[3.2762,42.2871],[3.2993,42.2845],[3.2869,42.3037],[3.3223,42.3194],[3.2677,42.3404],[3.2498,42.3298],[3.2293,42.3516],[3.1965,42.335],[3.1629,42.3605],[3.1669,42.3899],[3.1527,42.3936],[3.1746,42.4354],[3.0852,42.4258],[3.0403,42.4735],[2.9674,42.4654],[2.9471,42.4821],[2.9184,42.4562],[2.8396,42.4593],[2.7772,42.4118],[2.7532,42.4262],[2.6737,42.4045],[2.6514,42.3863],[2.6716,42.3407],[2.571,42.3581],[2.5328,42.3329],[2.4809,42.341],[2.4327,42.3938],[2.2569,42.4387],[2.2067,42.4174],[2.1483,42.4204],[2.0846,42.3617],[2.0152,42.3474],[1.9654,42.3809],[1.9367,42.4544],[1.892,42.4477],[1.8345,42.4829],[1.7256,42.5044],[1.7036,42.4898],[1.67,42.5042],[1.657,42.4682],[1.5611,42.4586],[1.552,42.4326],[1.4552,42.4361],[1.4412,42.4754],[1.4191,42.4839],[1.4684,42.51],[1.4505,42.5399],[1.4136,42.5354],[1.4449,42.568],[1.4265,42.5828],[1.443,42.6028],[1.3892,42.687],[1.3511,42.7027],[1.3573,42.7197],[1.2291,42.7278],[1.1661,42.7089],[1.0789,42.7883],[0.9839,42.7867],[0.9602,42.8059],[0.9264,42.7893],[0.8555,42.8268],[0.678,42.8553],[0.6591,42.8378],[0.6701,42.8019],[0.645,42.783],[0.667,42.7753],[0.6426,42.7537],[0.6802,42.7233],[0.6762,42.6909],[0.6602,42.6878],[0.6959,42.6589],[0.6986,42.6295],[0.7675,42.6112],[0.7495,42.5349],[0.7212,42.5245],[0.7398,42.5052],[0.6905,42.4876],[0.7461,42.3848],[0.7222,42.3674],[0.7713,42.3506],[0.7404,42.3369],[0.7646,42.3225],[0.7026,42.19],[0.714,42.1634],[0.6517,42.0263],[0.6573,42.0016],[0.5619,41.9382],[0.6075,41.9193],[0.5928,41.8844],[0.6072,41.8718],[0.5549,41.8528],[0.5439,41.8209],[0.4832,41.8015],[0.4686,41.765],[0.3987,41.7578],[0.3954,41.732],[0.3847,41.7403],[0.327,41.6782],[0.358,41.6317],[0.3496,41.5995],[0.4285,41.6024],[0.4469,41.5422],[0.3974,41.4906],[0.342,41.484],[0.3553,41.4518],[0.32,41.3942],[0.374,41.3515],[0.3484,41.3289],[0.3857,41.2788],[0.3813,41.2364],[0.3224,41.2252],[0.292,41.1564],[0.2009,41.1261],[0.2012,41.0847],[0.2201,41.0829],[0.2304,41.0553],[0.2177,41.0437],[0.2797,41.0202],[0.2586,41.0146],[0.2935,40.9706],[0.2389,40.8847],[0.2782,40.8209],[0.23,40.7674],[0.1752,40.7549],[0.1754,40.7411],[0.1592,40.7506],[0.1973,40.7242],[0.2261,40.7332],[0.2365,40.7017],[0.2918,40.6886],[0.2677,40.6582],[0.2823,40.6276],[0.402,40.6024],[0.4439,40.5782],[0.438,40.5471],[0.5147,40.523]]]]},"properties":{"iso3":"ESP","shapeId":"25490228B80227492032103","regionId":"ESP.6_1","name":"Cataluña"}},{"type":"Feature","geometry":{"type":"MultiPolygon","coordinates":[[[[-3.3821,40.6305],[-3.3717,40.6258],[-3.3682,40.6325],[-3.3637,40.6316],[-3.3636,40.6384],[-3.3727,40.6389],[-3.374,40.6402],[-3.3748,40.6385],[-3.3723,40.6356],[-3.3803,40.6329],[-3.3821,40.6305]]],[[[-1.0269,38.6555],[-0.9625,38.6569],[-0.9158,38.696],[-0.9614,38.7748],[-0.9289,38.7838],[-0.9245,38.8918],[-0.9594,38.9446],[-1.1467,38.9294],[-1.2668,39.051],[-1.2557,39.1062],[-1.1808,39.2118],[-1.165,39.3105],[-1.3127,39.3432],[-1.3366,39.334],[-1.4147,39.3803],[-1.4551,39.3608],[-1.4488,39.3782],[-1.4682,39.3833],[-1.4527,39.3987],[-1.4881,39.4006],[-1.4827,39.4218],[-1.5052,39.418],[-1.4966,39.4293],[-1.5209,39.4315],[-1.5289,39.4549],[-1.4992,39.5004],[-1.5026,39.5456],[-1.5205,39.5503],[-1.4618,39.5769],[-1.4179,39.6549],[-1.3685,39.6896],[-1.3079,39.6708],[-1.262,39.6989],[-1.2754,39.7386],[-1.215,39.8088],[-1.2,39.8587],[-1.2082,39.9438],[-1.1424,39.9718],[-1.1474,39.9886],[-1.1652,40.0101],[-1.2495,39.9951],[-1.3769,40.0165],[-1.4203,40.0935],[-1.4076,40.1014],[-1.4562,40.131],[-1.4392,40.197],[-1.5405,40.1908],[-1.6903,40.3097],[-1.7212,40.2787],[-1.7295,40.3029],[-1.6977,40.3213],[-1.8057,40.398],[-1.7486,40.4629],[-1.6925,40.4868],[-1.7016,40.5411],[-1.6781,40.591],[-1.5987,40.5621],[-1.5455,40.5952],[-1.5649,40.6147],[-1.5356,40.687],[-1.562,40.7398],[-1.5399,40.7607],[-1.5423,40.8112],[-1.6214,40.8804],[-1.6174,40.9437],[-1.8033,41.0899],[-1.9324,41.1386],[-1.959,41.1725],[-2.0476,41.1527],[-2.0564,41.0697],[-2.1319,41.1181],[-2.1753,41.0838],[-2.2321,41.097],[-2.2635,41.0675],[-2.3234,41.0565],[-2.3553,41.0865],[-2.4189,41.0577],[-2.4695,41.0781],[-2.4823,41.1163],[-2.5089,41.1189],[-2.5365,41.1625],[-2.5756,41.1395],[-2.5953,41.1503],[-2.5775,41.1787],[-2.6221,41.188],[-2.5937,41.2002],[-2.5895,41.2245],[-2.6292,41.2152],[-2.646,41.2402],[-2.7095,41.252],[-2.7168,41.2757],[-2.7609,41.274],[-2.7755,41.2501],[-2.8222,41.2566],[-2.8669,41.2745],[-2.869,41.3171],[-2.9067,41.3276],[-2.9501,41.2926],[-3.0619,41.2734],[-3.1998,41.3044],[-3.2312,41.2949],[-3.2543,41.2584],[-3.2758,41.275],[-3.3364,41.253],[-3.4151,41.2732],[-3.4025,41.2136],[-3.4442,41.2153],[-3.4669,41.1833],[-3.5397,41.165],[-3.4888,41.0943],[-3.4258,41.0829],[-3.4389,41.0427],[-3.3945,41.0003],[-3.4183,40.9876],[-3.4441,40.9068],[-3.4606,40.9067],[-3.4405,40.8753],[-3.4727,40.8641],[-3.4774,40.8236],[-3.5116,40.7885],[-3.459,40.7813],[-3.4443,40.7616],[-3.4504,40.7349],[-3.4349,40.728],[-3.4686,40.6899],[-3.4047,40.6696],[-3.3934,40.6925],[-3.3456,40.6377],[-3.3165,40.6552],[-3.3385,40.6258],[-3.3283,40.5948],[-3.2841,40.569],[-3.2971,40.5375],[-3.2314,40.5397],[-3.2,40.5144],[-3.1986,40.4423],[-3.1555,40.4394],[-3.1306,40.4052],[-3.1534,40.3677],[-3.1412,40.3505],[-3.1829,40.3083],[-3.1972,40.2575],[-3.1734,40.2342],[-3.1282,40.2788],[-3.096,40.2691],[-3.0678,40.1579],[-3.0893,40.163],[-3.0968,40.1424],[-3.053,40.0994],[-3.0897,40.0701],[-3.1616,40.0649],[-3.1781,40.0922],[-3.201,40.0605],[-3.2758,40.0473],[-3.3322,40.0805],[-3.3777,40.0748],[-3.3758,40.0513],[-3.4011,40.0342],[-3.5069,40.0487],[-3.5197,40.0211],[-3.59,40.0132],[-3.638,39.9884],[-3.6345,39.9659],[-3.7439,39.9408],[-3.8149,39.8857],[-3.8683,39.9049],[-3.8755,39.9282],[-3.7279,39.9645],[-3.7466,39.9807],[-3.6218,40.055],[-3.629,40.0783],[-3.6104,40.0819],[-3.6076,40.109],[-3.6673,40.1433],[-3.7714,40.1398],[-3.8046,40.1768],[-3.8342,40.1614],[-3.8763,40.1912],[-3.9311,40.204],[-3.95,40.1891],[-3.9529,40.2128],[-3.991,40.2095],[-4.024,40.2489],[-4.0729,40.2655],[-4.1043,40.2418],[-4.1458,40.2452],[-4.144,40.2646],[-4.1909,40.2974],[-4.2032,40.2688],[-4.2492,40.2727],[-4.2952,40.2189],[-4.3485,40.2367],[-4.3564,40.3086],[-4.3801,40.3183],[-4.3835,40.289],[-4.4352,40.2591],[-4.4374,40.2367],[-4.5279,40.2001],[-4.5791,40.2172],[-4.6543,40.198],[-4.6873,40.212],[-4.6981,40.2822],[-4.7616,40.2609],[-4.8035,40.2753],[-4.8182,40.2548],[-4.8077,40.2353],[-4.9247,40.17],[-4.9255,40.136],[-4.9545,40.1211],[-5.0133,40.1111],[-5.0185,40.1591],[-5.067,40.1509],[-5.1716,40.0848],[-5.2035,40.0834],[-5.2153,40.1078],[-5.336,40.1158],[-5.369,40.1001],[-5.3651,39.9829],[-5.4061,39.8777],[-5.3236,39.8917],[-5.284,39.8639],[-5.3126,39.8243],[-5.3081,39.76],[-5.2548,39.7523],[-5.2065,39.7976],[-5.1669,39.7999],[-5.1585,39.7597],[-5.174,39.7513],[-5.1378,39.715],[-5.1505,39.6628],[-5.2021,39.592],[-4.9981,39.4266],[-4.902,39.3745],[-4.7746,39.3972],[-4.6903,39.4518],[-4.6695,39.4245],[-4.7067,39.3277],[-4.761,39.3208],[-4.7082,39.2099],[-4.6479,39.1669],[-4.8103,39.1994],[-4.8744,39.1004],[-4.8269,39.0641],[-4.8328,39.0462],[-4.88,39.0324],[-4.9625,39.0587],[-4.9182,38.957],[-4.8311,38.9356],[-4.8473,38.8824],[-4.9149,38.8874],[-4.9435,38.8544],[-4.99,38.7398],[-5.0469,38.7291],[-5.008,38.7152],[-5.0046,38.6951],[-4.877,38.6861],[-4.8602,38.614],[-4.7074,38.5719],[-4.704,38.5532],[-4.6228,38.5238],[-4.5937,38.4864],[-4.5127,38.4639],[-4.453,38.4009],[-4.2873,38.3428],[-4.2689,38.3472],[-4.2768,38.3902],[-4.2578,38.4016],[-3.9151,38.3688],[-3.8543,38.3751],[-3.8301,38.4128],[-3.7856,38.4253],[-3.5982,38.3985],[-3.5831,38.4515],[-3.5419,38.4454],[-3.5284,38.4086],[-3.4517,38.4003],[-3.3767,38.4396],[-3.375,38.4752],[-3.3265,38.4821],[-3.1383,38.4386],[-3.065,38.4782],[-3.0017,38.4083],[-2.9935,38.4501],[-2.9636,38.4715],[-2.8815,38.4526],[-2.7677,38.5329],[-2.6797,38.4969],[-2.5971,38.5124],[-2.5666,38.4905],[-2.5736,38.4163],[-2.4834,38.3979],[-2.4852,38.3003],[-2.4414,38.2856],[-2.4354,38.265],[-2.4543,38.2155],[-2.4463,38.1852],[-2.5513,38.0841],[-2.3579,38.0224],[-2.3285,38.0672],[-2.2616,38.113],[-2.2129,38.203],[-2.1137,38.2382],[-2.049,38.3058],[-1.9826,38.2814],[-1.9075,38.298],[-1.7843,38.3562],[-1.7958,38.3703],[-1.7435,38.3813],[-1.6876,38.3658],[-1.6927,38.3378],[-1.6702,38.3116],[-1.5895,38.31],[-1.4785,38.3764],[-1.4987,38.5321],[-1.4877,38.5633],[-1.452,38.5815],[-1.4477,38.6495],[-1.4022,38.6908],[-1.3667,38.704],[-1.3441,38.6771],[-1.2498,38.7386],[-1.1836,38.7551],[-1.1197,38.7377],[-1.1156,38.7114],[-1.0269,38.6555]]]]},"properties":{"iso3":"ESP","shapeId":"25490228B94630301010512","regionId":"ESP.4_1","name":"Castilla-la Mancha"}},{"type":"Feature","geometry":{"type":"MultiPolygon","coordinates":[[[[-4.101,42.794],[-4.0885,42.8185],[-4.107,42.8278],[-4.101,42.794]]],[[[-4.1686,42.8115],[-4.1611,42.8131],[-4.1599,42.8152],[-4.1631,42.8209],[-4.1792,42.8229],[-4.1823,42.8203],[-4.1746,42.8116],[-4.1686,42.8115]]],[[[-2.9452,42.6039],[-2.9392,42.5943],[-2.9277,42.5961],[-2.9226,42.6008],[-2.9296,42.6062],[-2.9297,42.6112],[-2.9345,42.6141],[-2.9452,42.6039]]],[[[-2.9994,42.6009],[-2.9862,42.6071],[-2.9858,42.6099],[-2.9829,42.6108],[-2.9852,42.6142],[-2.9945,42.6155],[-2.9941,42.6104],[-2.9994,42.6009]]],[[[-2.8619,42.7455],[-2.8253,42.7089],[-2.7845,42.6989],[-2.7679,42.666],[-2.6592,42.6725],[-2.6349,42.6478],[-2.5174,42.6463],[-2.522,42.684],[-2.5778,42.6682],[-2.609,42.696],[-2.5583,42.7627],[-2.5894,42.7503],[-2.6023,42.7706],[-2.8355,42.7963],[-2.8619,42.7455]]],[[[-2.8581,42.6382],[-2.8961,42.655],[-2.9025,42.6936],[-2.9806,42.7038],[-3.017,42.7411],[-3.042,42.7395],[-3.0497,42.7656],[-3.1479,42.7567],[-3.1233,42.7893],[-3.1592,42.8046],[-3.1131,42.8611],[-3.1149,42.8892],[-3.1628,42.8567],[-3.1907,42.8695],[-3.2222,42.8386],[-3.2055,42.8274],[-3.2826,42.8755],[-3.2247,42.9497],[-3.1447,42.9347],[-3.1493,42.9171],[-3.0921,42.8988],[-3.0189,42.9085],[-2.9813,42.9391],[-3.0415,42.9699],[-3.0603,43.0035],[-3.1778,43.022],[-3.1419,43.0298],[-3.1403,43.0672],[-3.1582,43.074],[-3.1339,43.0972],[-3.1818,43.1209],[-3.1412,43.1654],[-3.2241,43.1701],[-3.2534,43.1986],[-3.4346,43.1317],[-3.6035,43.1496],[-3.651,43.181],[-3.7047,43.1163],[-3.7646,43.081],[-3.847,43.0844],[-3.8318,43.0638],[-3.8499,43.0402],[-3.8907,43.0418],[-3.945,43.0065],[-3.991,42.9311],[-3.9737,42.9119],[-3.9296,42.9147],[-3.9335,42.8996],[-3.8913,42.9255],[-3.8874,42.9488],[-3.8395,42.9398],[-3.8335,42.918],[-3.8686,42.8991],[-3.9078,42.9145],[-3.8929,42.8874],[-3.9243,42.8892],[-3.8975,42.8803],[-3.9148,42.8601],[-3.8802,42.8514],[-3.8637,42.8898],[-3.8368,42.8788],[-3.816,42.8106],[-3.8634,42.7865],[-3.8944,42.8045],[-3.911,42.7684],[-3.9657,42.7586],[-3.9997,42.769],[-4.0036,42.8314],[-4.0547,42.763],[-4.0813,42.7615],[-4.0985,42.7912],[-4.1499,42.7893],[-4.1854,42.8173],[-4.1578,42.8377],[-4.1404,42.829],[-4.1261,42.8566],[-4.1499,42.8711],[-4.2125,42.8463],[-4.2402,42.9565],[-4.3485,42.9726],[-4.3981,43.0349],[-4.4476,43.0585],[-4.4757,43.0387],[-4.5209,43.0474],[-4.5584,43.0195],[-4.6061,43.0358],[-4.6381,43.0167],[-4.737,43.021],[-4.744,43.0564],[-4.7661,43.0556],[-4.7665,43.0745],[-4.8514,43.1259],[-4.8396,43.1897],[-4.8948,43.2382],[-4.9631,43.2127],[-4.9976,43.1703],[-5.0766,43.179],[-5.1017,43.1018],[-5.1478,43.1151],[-5.2821,43.0774],[-5.3691,43.0946],[-5.3905,43.0493],[-5.4785,43.0549],[-5.4938,43.0212],[-5.5698,43.0221],[-5.6933,43.0565],[-5.7284,43.0425],[-5.7639,42.9701],[-5.804,42.9626],[-5.8885,42.9792],[-5.8872,42.9941],[-5.9565,43.0176],[-5.9738,43.0653],[-6.0169,43.0534],[-6.0813,43.0759],[-6.0969,43.0306],[-6.1367,43.021],[-6.1784,43.0478],[-6.2156,43.0472],[-6.2268,43.0089],[-6.2852,43.0364],[-6.3265,43.0313],[-6.3591,43.0596],[-6.397,43.0383],[-6.3944,43.0166],[-6.4241,42.9879],[-6.4781,42.9912],[-6.473,42.9678],[-6.4336,42.9642],[-6.4331,42.9398],[-6.4898,42.9202],[-6.6899,42.9225],[-6.7232,42.9174],[-6.7567,42.8831],[-6.801,42.9102],[-6.842,42.9064],[-6.8141,42.8717],[-6.8713,42.8738],[-6.8403,42.8234],[-6.8674,42.7872],[-6.9356,42.7409],[-6.9595,42.755],[-6.9729,42.725],[-7.0109,42.7237],[-7.0452,42.6948],[-7.0044,42.6429],[-7.047,42.6327],[-7.0502,42.5973],[-7.0336,42.5841],[-7.0697,42.5539],[-7.0599,42.5293],[-7.0771,42.5082],[-6.9785,42.4933],[-6.9322,42.5205],[-6.8232,42.4913],[-6.8143,42.4274],[-6.8435,42.4058],[-6.734,42.3591],[-6.7343,42.3187],[-6.767,42.2575],[-6.8032,42.2387],[-6.7871,42.2157],[-6.8436,42.2283],[-6.8869,42.2144],[-6.9428,42.1733],[-6.9446,42.1417],[-6.9898,42.1213],[-7.031,42.0633],[-6.9748,42.0552],[-6.9611,42.0279],[-6.9917,41.9861],[-6.9417,41.9443],[-6.8212,41.9463],[-6.8115,41.9925],[-6.7687,41.9839],[-6.7506,41.9434],[-6.6993,41.9333],[-6.6212,41.94],[-6.5832,41.9654],[-6.5458,41.9359],[-6.5712,41.8836],[-6.5158,41.8713],[-6.569,41.7435],[-6.5491,41.7254],[-6.5482,41.6856],[-6.4985,41.6571],[-6.4445,41.6848],[-6.3022,41.6627],[-6.1893,41.575],[-6.2851,41.4784],[-6.3058,41.4495],[-6.2981,41.4312],[-6.3328,41.4115],[-6.3183,41.3861],[-6.3899,41.3854],[-6.3796,41.3572],[-6.4168,41.3475],[-6.4376,41.3057],[-6.4841,41.293],[-6.4787,41.275],[-6.497,41.2656],[-6.5218,41.276],[-6.5734,41.2388],[-6.5914,41.2555],[-6.6478,41.2476],[-6.7013,41.1804],[-6.7674,41.1352],[-6.754,41.1028],[-6.8084,41.0365],[-6.9301,41.0301],[-6.8602,40.9489],[-6.8485,40.9008],[-6.8088,40.882],[-6.8003,40.8483],[-6.8261,40.8432],[-6.8312,40.7526],[-6.7939,40.6617],[-6.8448,40.5659],[-6.8008,40.5506],[-6.795,40.5119],[-6.8497,40.4526],[-6.8348,40.4082],[-6.781,40.3647],[-6.7942,40.3288],[-6.8621,40.2988],[-6.8651,40.2706],[-6.8345,40.2476],[-6.7556,40.2389],[-6.7186,40.2692],[-6.6901,40.2427],[-6.6718,40.2632],[-6.587,40.2707],[-6.5562,40.2908],[-6.5604,40.329],[-6.5363,40.3472],[-6.4383,40.3728],[-6.4188,40.3993],[-6.3714,40.4019],[-6.3446,40.4428],[-6.2305,40.4866],[-6.1571,40.4566],[-6.147,40.4361],[-6.1161,40.4416],[-6.1295,40.4208],[-6.0651,40.3969],[-6.1057,40.3568],[-6.016,40.3403],[-6.0164,40.3165],[-5.9685,40.2896],[-5.9172,40.2777],[-5.8842,40.3266],[-5.7993,40.3538],[-5.782,40.3125],[-5.8027,40.2976],[-5.7931,40.2867],[-5.6927,40.2921],[-5.622,40.2459],[-5.6145,40.2183],[-5.5481,40.1972],[-5.4709,40.2079],[-5.4291,40.2526],[-5.3444,40.2648],[-5.3697,40.2183],[-5.368,40.1641],[-5.3201,40.1079],[-5.2153,40.1078],[-5.2035,40.0834],[-5.1716,40.0848],[-5.067,40.1509],[-5.0185,40.1591],[-5.0058,40.1097],[-4.9255,40.136],[-4.9247,40.17],[-4.8077,40.2353],[-4.8182,40.2548],[-4.8035,40.2753],[-4.7616,40.2609],[-4.6981,40.2822],[-4.6873,40.212],[-4.6543,40.198],[-4.5657,40.2182],[-4.5688,40.2587],[-4.5294,40.2931],[-4.5462,40.3418],[-4.5268,40.3449],[-4.5049,40.3153],[-4.4558,40.3194],[-4.4437,40.3857],[-4.4217,40.4062],[-4.3211,40.4103],[-4.3413,40.4287],[-4.3157,40.4648],[-4.3282,40.5338],[-4.2893,40.5642],[-4.2907,40.6278],[-4.2454,40.6024],[-4.1612,40.6235],[-4.1716,40.6806],[-4.0767,40.7889],[-3.9797,40.7846],[-3.9471,40.863],[-3.9523,40.8936],[-3.9072,40.9553],[-3.7814,41.0003],[-3.7405,41.0536],[-3.6761,41.0867],[-3.6137,41.1491],[-3.5162,41.1623],[-3.4669,41.1833],[-3.4442,41.2153],[-3.4025,41.2136],[-3.4151,41.2732],[-3.3364,41.253],[-3.2758,41.275],[-3.2543,41.2584],[-3.2312,41.2949],[-3.1998,41.3044],[-3.0619,41.2734],[-2.9501,41.2926],[-2.9412,41.3139],[-2.8884,41.3252],[-2.8668,41.3131],[-2.8669,41.2745],[-2.8222,41.2566],[-2.7755,41.2501],[-2.7609,41.274],[-2.7168,41.2757],[-2.7095,41.252],[-2.646,41.2402],[-2.6292,41.2152],[-2.5895,41.2245],[-2.5937,41.2002],[-2.6221,41.188],[-2.5775,41.1787],[-2.5953,41.1503],[-2.5756,41.1395],[-2.5365,41.1625],[-2.5089,41.1189],[-2.4823,41.1163],[-2.4695,41.0781],[-2.4189,41.0577],[-2.3553,41.0865],[-2.3234,41.0565],[-2.2635,41.0675],[-2.2321,41.097],[-2.1753,41.0838],[-2.1319,41.1181],[-2.0564,41.0697],[-2.0517,41.1468],[-2.0799,41.171],[-2.1462,41.1844],[-2.1737,41.2881],[-2.1631,41.3553],[-2.116,41.382],[-2.1015,41.4458],[-2.0356,41.4269],[-2.0436,41.3971],[-2.0293,41.3842],[-1.9373,41.4079],[-1.9533,41.4625],[-1.9811,41.4864],[-1.9673,41.5461],[-1.9932,41.6005],[-1.9231,41.5983],[-1.859,41.6615],[-1.8062,41.6643],[-1.8121,41.6865],[-1.7869,41.6994],[-1.7754,41.7248],[-1.8092,41.7367],[-1.8059,41.7551],[-1.8529,41.7896],[-1.8176,41.8534],[-1.8573,41.9095],[-1.8565,41.9664],[-1.9703,41.9191],[-2.0283,41.9534],[-2.0364,41.9394],[-2.11,41.9579],[-2.1241,41.9953],[-2.1076,42.0028],[-2.1619,42.0667],[-2.1272,42.0805],[-2.1273,42.0972],[-2.2089,42.1047],[-2.2696,42.0886],[-2.2822,42.1317],[-2.3182,42.1452],[-2.4385,42.1373],[-2.4844,42.1063],[-2.5147,42.1145],[-2.5149,42.0689],[-2.5491,42.0515],[-2.5799,41.9963],[-2.747,42.0093],[-2.7574,42.0331],[-2.7059,42.1036],[-2.7347,42.125],[-2.7749,42.1235],[-2.8033,42.0805],[-2.798,42.0468],[-2.8838,42.0095],[-2.9136,42.0229],[-2.9353,42.0894],[-3.0344,42.086],[-3.1294,42.1985],[-3.0886,42.2457],[-3.1097,42.3514],[-3.0635,42.3567],[-3.1053,42.3864],[-3.1013,42.4168],[-3.0782,42.4158],[-3.0569,42.3703],[-3.0633,42.4249],[-3.046,42.4452],[-3.0947,42.4881],[-3.0726,42.5289],[-3.1343,42.5421],[-3.0598,42.5892],[-3.0842,42.6407],[-2.9465,42.6393],[-2.916,42.6195],[-2.8581,42.6382]],[[-4.3195,40.6477],[-4.29,40.6806],[-4.2539,40.6619],[-4.3195,40.6477]]]]},"properties":{"iso3":"ESP","shapeId":"25490228B8471183517505","regionId":"ESP.5_1","name":"Castilla y León"}},{"type":"Feature","geometry":{"type":"MultiPolygon","coordinates":[[[[-3.3045,43.2583],[-3.2968,43.206],[-3.2694,43.2028],[-3.2492,43.2596],[-3.3045,43.2583]]],[[[-4.4995,43.3962],[-4.4996,43.3975],[-4.5014,43.3972],[-4.4995,43.3962]]],[[[-3.7554,43.4723],[-3.7547,43.4733],[-3.7565,43.4736],[-3.7554,43.4723]]],[[[-3.7302,43.4701],[-3.7275,43.4713],[-3.7291,43.4767],[-3.7318,43.4729],[-3.7302,43.4701]]],[[[-3.5276,43.4952],[-3.5282,43.497],[-3.5292,43.4962],[-3.5276,43.4952]]],[[[-3.1533,43.3533],[-3.2282,43.3965],[-3.321,43.4029],[-3.3238,43.4192],[-3.4249,43.4132],[-3.4501,43.4361],[-3.4647,43.4039],[-3.4636,43.4313],[-3.4917,43.4248],[-3.465,43.4446],[-3.4298,43.441],[-3.4309,43.462],[-3.5905,43.5137],[-3.7772,43.4582],[-3.7463,43.4519],[-3.7525,43.4355],[-3.7262,43.4434],[-3.7094,43.4113],[-3.7265,43.4424],[-3.7572,43.4306],[-3.7559,43.4481],[-3.776,43.4494],[-3.7913,43.4322],[-3.7791,43.421],[-3.8153,43.4076],[-3.7665,43.406],[-3.8089,43.3935],[-3.8289,43.408],[-3.8037,43.4264],[-3.8307,43.4352],[-3.8152,43.437],[-3.8253,43.4517],[-3.7633,43.4672],[-3.8116,43.4949],[-3.9455,43.4711],[-3.9787,43.4409],[-4.0812,43.4383],[-4.1752,43.4011],[-4.5123,43.3933],[-4.5388,43.3559],[-4.5225,43.3357],[-4.5235,43.2782],[-4.5478,43.2687],[-4.5552,43.2881],[-4.6066,43.3006],[-4.6319,43.2677],[-4.7309,43.2573],[-4.7332,43.1918],[-4.8487,43.1777],[-4.8346,43.1575],[-4.8514,43.1259],[-4.7665,43.0745],[-4.7661,43.0556],[-4.744,43.0564],[-4.7287,43.0187],[-4.6381,43.0167],[-4.6061,43.0358],[-4.5584,43.0195],[-4.5209,43.0474],[-4.4757,43.0387],[-4.4476,43.0585],[-4.3981,43.0349],[-4.3485,42.9726],[-4.2402,42.9565],[-4.2125,42.8463],[-4.1499,42.8711],[-4.1261,42.8566],[-4.1404,42.829],[-4.1578,42.8377],[-4.1854,42.8173],[-4.1499,42.7893],[-4.0985,42.7912],[-4.0813,42.7615],[-4.0547,42.763],[-4.0036,42.8314],[-3.9997,42.769],[-3.9657,42.7586],[-3.911,42.7684],[-3.8944,42.8045],[-3.8634,42.7865],[-3.816,42.8106],[-3.8368,42.8788],[-3.8637,42.8898],[-3.8802,42.8514],[-3.9148,42.8601],[-3.8975,42.8803],[-3.9243,42.8892],[-3.8929,42.8874],[-3.9078,42.9145],[-3.8686,42.8991],[-3.8335,42.918],[-3.8395,42.9398],[-3.8874,42.9488],[-3.8913,42.9255],[-3.9335,42.8996],[-3.9296,42.9147],[-3.9737,42.9119],[-3.991,42.9311],[-3.945,43.0065],[-3.8907,43.0418],[-3.8499,43.0402],[-3.8318,43.0638],[-3.847,43.0844],[-3.7646,43.081],[-3.7047,43.1163],[-3.651,43.181],[-3.6035,43.1496],[-3.4176,43.1333],[-3.4501,43.2362],[-3.3401,43.278],[-3.3324,43.3019],[-3.2095,43.2835],[-3.1573,43.3013],[-3.1533,43.3533]],[[-4.101,42.794],[-4.107,42.8278],[-4.0885,42.8185],[-4.101,42.794]],[[-4.1686,42.8115],[-4.1746,42.8116],[-4.1823,42.8203],[-4.1792,42.8229],[-4.1631,42.8209],[-4.1599,42.8152],[-4.1611,42.8131],[-4.1686,42.8115]]]]},"properties":{"iso3":"ESP","shapeId":"25490228B37069901476290","regionId":"ESP.3_1","name":"Cantabria"}},{"type":"Feature","geometry":{"type":"MultiPolygon","coordinates":[[[[1.3886,38.6404],[1.447,38.685],[1.5337,38.6517],[1.5726,38.651],[1.5847,38.6698],[1.5691,38.6916],[1.5303,38.6728],[1.4957,38.6888],[1.4727,38.7281],[1.4468,38.7329],[1.4333,38.7716],[1.4192,38.7225],[1.3966,38.7355],[1.3803,38.7193],[1.3886,38.6404]]],[[[1.4115,38.8138],[1.4117,38.8169],[1.4098,38.8187],[1.4115,38.8138]]],[[[1.404,38.8156],[1.4045,38.8169],[1.4024,38.8159],[1.404,38.8156]]],[[[1.4237,38.7982],[1.4224,38.7996],[1.4212,38.7989],[1.4237,38.7982]]],[[[1.4321,38.7739],[1.4333,38.7749],[1.4316,38.7841],[1.4249,38.7931],[1.4262,38.7939],[1.4242,38.7952],[1.4258,38.7957],[1.4219,38.7974],[1.4191,38.7949],[1.4224,38.7911],[1.4206,38.7908],[1.4215,38.7895],[1.4172,38.7855],[1.4202,38.7808],[1.4194,38.7793],[1.423,38.7804],[1.424,38.7824],[1.4265,38.7821],[1.4321,38.7739]]],[[[1.4192,38.7914],[1.4201,38.7926],[1.417,38.795],[1.4192,38.7914]]],[[[1.4803,38.788],[1.4787,38.7959],[1.4824,38.7992],[1.4775,38.8005],[1.4778,38.8051],[1.4741,38.7974],[1.4803,38.788]]],[[[1.1886,38.8626],[1.1989,38.8648],[1.202,38.8641],[1.2029,38.8694],[1.2,38.8708],[1.1959,38.8702],[1.1884,38.8642],[1.1886,38.8626]]],[[[1.2129,38.8656],[1.2149,38.867],[1.2149,38.8694],[1.2111,38.8701],[1.2067,38.8683],[1.2106,38.867],[1.2112,38.8684],[1.2138,38.8682],[1.2129,38.8656]]],[[[1.5847,38.9821],[1.5844,38.986],[1.5831,38.9832],[1.5847,38.9821]]],[[[1.6486,39.0317],[1.6505,39.0324],[1.6492,39.0351],[1.6449,39.0364],[1.6462,39.0407],[1.6413,39.0389],[1.6393,39.0409],[1.6418,39.0418],[1.6365,39.0411],[1.641,39.0367],[1.64,39.0346],[1.6486,39.0317]]],[[[1.3159,39.0487],[1.3163,39.0507],[1.3148,39.0497],[1.3159,39.0487]]],[[[1.1663,38.9714],[1.1647,38.9735],[1.1645,38.972],[1.1663,38.9714]]],[[[1.1601,38.979],[1.1612,38.9811],[1.1587,38.9798],[1.1601,38.979]]],[[[1.2141,38.9759],[1.216,38.9787],[1.2189,38.9784],[1.2166,38.98],[1.2178,38.9819],[1.2134,38.9822],[1.2105,38.9841],[1.2153,38.9881],[1.2159,38.9927],[1.2136,38.9953],[1.2062,38.9895],[1.2089,38.9862],[1.2063,38.9838],[1.2067,38.9813],[1.2141,38.9759]]],[[[2.9585,39.1244],[2.9599,39.1259],[2.958,39.1261],[2.9585,39.1244]]],[[[2.9472,39.1252],[2.9765,39.1582],[2.9507,39.1657],[2.9305,39.1432],[2.9169,39.1617],[2.9195,39.129],[2.9472,39.1252]]],[[[2.977,39.1664],[2.9786,39.1672],[2.9782,39.1695],[2.9753,39.1697],[2.9747,39.1673],[2.977,39.1664]]],[[[2.962,39.1754],[2.9661,39.1755],[2.9691,39.1849],[2.9729,39.1866],[2.9716,39.1887],[2.9686,39.1893],[2.9697,39.1901],[2.9617,39.1897],[2.9597,39.1858],[2.961,39.1846],[2.9592,39.1833],[2.9558,39.184],[2.955,39.1823],[2.962,39.1754]]],[[[2.9721,39.1954],[2.9741,39.1959],[2.9733,39.1983],[2.9711,39.1978],[2.9721,39.1954]]],[[[2.9732,39.1996],[2.975,39.201],[2.9713,39.2005],[2.9732,39.1996]]],[[[3.0015,39.3094],[3.0019,39.3109],[3.0003,39.3111],[3.0015,39.3094]]],[[[3.0094,39.3034],[3.012,39.3035],[3.0125,39.3053],[3.0082,39.3048],[3.0094,39.3034]]],[[[1.4101,38.8909],[1.5288,38.945],[1.5274,38.9824],[1.5813,38.9893],[1.5852,39.0157],[1.6215,39.0276],[1.5888,39.0607],[1.6048,39.0903],[1.5588,39.0928],[1.5325,39.1184],[1.3752,39.0623],[1.3588,39.0741],[1.29,39.0282],[1.2845,38.9939],[1.3065,38.9724],[1.2292,38.9745],[1.2151,38.9585],[1.2365,38.9388],[1.2135,38.8974],[1.248,38.8558],[1.2718,38.8794],[1.3204,38.8558],[1.3431,38.8711],[1.3712,38.8304],[1.4059,38.8315],[1.4101,38.8909]]],[[[1.2159,38.9668],[1.2202,38.9685],[1.2152,38.9727],[1.2144,38.9683],[1.2159,38.9668]]],[[[1.1981,38.9564],[1.2,38.9575],[1.1978,38.9601],[1.1898,38.958],[1.1981,38.9564]]],[[[2.306,39.5722],[2.3078,39.573],[2.3075,39.5754],[2.3116,39.574],[2.3187,39.5767],[2.3267,39.5866],[2.3336,39.5889],[2.3368,39.5938],[2.3354,39.5944],[2.3389,39.5982],[2.3237,39.5929],[2.3136,39.5857],[2.3138,39.5844],[2.3077,39.5819],[2.3031,39.573],[2.306,39.5722]]],[[[2.4478,39.4953],[2.4551,39.5011],[2.451,39.4999],[2.4478,39.4953]]],[[[2.5455,39.5025],[2.5468,39.5036],[2.5432,39.5052],[2.5455,39.5025]]],[[[2.5734,39.5288],[2.5739,39.5299],[2.5725,39.5299],[2.5734,39.5288]]],[[[2.5869,39.5276],[2.5894,39.5296],[2.5888,39.5314],[2.5858,39.5282],[2.5869,39.5276]]],[[[2.7104,39.8158],[2.7097,39.8191],[2.7089,39.8167],[2.7104,39.8158]]],[[[4.2854,39.7993],[4.2944,39.7993],[4.2961,39.8008],[4.2888,39.8037],[4.2874,39.8008],[4.282,39.8019],[4.2854,39.7993]]],[[[4.0812,40.0898],[4.0828,40.0901],[4.0807,40.0907],[4.0812,40.0898]]],[[[4.0762,40.0908],[4.0775,40.0921],[4.0755,40.0946],[4.0729,40.0924],[4.0762,40.0908]]],[[[4.0313,40.0664],[4.0332,40.0685],[4.0314,40.0696],[4.0313,40.0664]]],[[[4.2093,40.0178],[4.2106,40.0202],[4.2087,40.0221],[4.2093,40.0178]]],[[[4.2083,40.014],[4.212,40.0163],[4.2121,40.0185],[4.2087,40.0168],[4.2083,40.014]]],[[[3.1698,39.8346],[3.1714,39.8359],[3.1697,39.836],[3.1698,39.8346]]],[[[4.3069,39.8713],[4.3059,39.8788],[4.3047,39.8809],[4.3016,39.8817],[4.3017,39.8759],[4.3069,39.8713]]],[[[4.287,39.8856],[4.2888,39.8868],[4.2867,39.8882],[4.287,39.8856]]],[[[4.2753,39.8844],[4.2566,39.8972],[4.3278,39.8769],[4.2548,39.9639],[4.2549,39.9929],[4.2699,39.9965],[4.2205,39.9967],[4.2076,40.013],[4.2053,39.993],[4.1953,40.0322],[4.1608,40.0335],[4.1727,40.0602],[4.1555,40.0679],[4.1365,40.0671],[4.1266,40.0261],[4.1335,40.0632],[4.1034,40.0445],[4.0925,40.0895],[4.0894,40.069],[4.0537,40.0519],[4.0321,40.0656],[3.9787,40.0511],[3.9339,40.0629],[3.9213,40.0453],[3.8673,40.058],[3.8224,40.0512],[3.7921,40.0199],[3.7989,39.9978],[3.836,40.0024],[3.8241,39.9219],[3.9899,39.9309],[4.2708,39.809],[4.3087,39.8489],[4.2753,39.8844]]],[[[3.1472,39.9196],[3.1498,39.9198],[3.1498,39.921],[3.1444,39.923],[3.1446,39.9207],[3.1472,39.9196]]],[[[4.2769,39.9561],[4.2815,39.9571],[4.2842,39.9603],[4.2796,39.9616],[4.2779,39.9667],[4.2735,39.9643],[4.2747,39.9579],[4.2729,39.9568],[4.2769,39.9561]]],[[[3.0295,39.2898],[3.0688,39.2667],[3.1464,39.33],[3.2322,39.3616],[3.2223,39.3731],[3.2444,39.3774],[3.261,39.424],[3.2749,39.4159],[3.2918,39.4943],[3.3319,39.5404],[3.4041,39.5794],[3.385,39.5928],[3.3969,39.6283],[3.4363,39.6343],[3.4559,39.6563],[3.4567,39.7055],[3.4785,39.7152],[3.4527,39.7225],[3.4613,39.7481],[3.4322,39.7451],[3.3481,39.7894],[3.3289,39.7598],[3.2526,39.7294],[3.1351,39.7827],[3.1208,39.8321],[3.1785,39.8406],[3.2045,39.8888],[3.1056,39.8577],[3.08,39.9023],[3.1108,39.8993],[3.1313,39.9269],[3.2022,39.9438],[3.2136,39.9625],[3.0603,39.9198],[3.0421,39.9377],[2.9827,39.9082],[2.9504,39.9201],[2.845,39.8617],[2.7784,39.8556],[2.7756,39.8399],[2.6995,39.8108],[2.6944,39.7913],[2.6694,39.7922],[2.5857,39.7164],[2.5277,39.7015],[2.3471,39.5949],[2.3465,39.5646],[2.3905,39.5462],[2.3639,39.5315],[2.3881,39.5339],[2.3876,39.5209],[2.4516,39.5369],[2.4795,39.5178],[2.4562,39.5048],[2.4791,39.4919],[2.4761,39.4663],[2.5217,39.4566],[2.541,39.5248],[2.5903,39.5311],[2.6011,39.5511],[2.6325,39.5452],[2.6199,39.5496],[2.6327,39.5684],[2.6695,39.5625],[2.7489,39.5098],[2.722,39.4757],[2.7473,39.4415],[2.742,39.4062],[2.7873,39.3631],[2.9575,39.3626],[2.9908,39.3368],[2.986,39.316],[3.0295,39.2898]]]]},"properties":{"iso3":"ESP","shapeId":"25490228B26609846683583","regionId":"ESP.13_1","name":"Illes Balears"}},{"type":"Feature","geometry":{"type":"MultiPolygon","coordinates":[[[[-4.5751,43.3976],[-4.5739,43.3981],[-4.5753,43.4001],[-4.5765,43.3982],[-4.5751,43.3976]]],[[[-4.7308,43.4171],[-4.7296,43.4182],[-4.7309,43.4187],[-4.7308,43.4171]]],[[[-4.7897,43.4329],[-4.7876,43.4349],[-4.7912,43.4354],[-4.7897,43.4329]]],[[[-4.8093,43.437],[-4.8083,43.4383],[-4.8092,43.4375],[-4.8115,43.4388],[-4.8093,43.437]]],[[[-4.8269,43.4376],[-4.8249,43.4384],[-4.8268,43.4389],[-4.8269,43.4376]]],[[[-6.9881,43.5578],[-6.9866,43.5589],[-6.989,43.5592],[-6.9881,43.5578]]],[[[-6.9869,43.5594],[-6.9848,43.5617],[-6.9873,43.5609],[-6.9869,43.5594]]],[[[-5.8641,43.6617],[-5.8634,43.6645],[-5.866,43.6633],[-5.8641,43.6617]]],[[[-6.8242,42.9151],[-6.7707,42.8986],[-6.7715,42.8826],[-6.6899,42.9225],[-6.4898,42.9202],[-6.4331,42.9398],[-6.4336,42.9642],[-6.473,42.9678],[-6.4781,42.9912],[-6.4241,42.9879],[-6.3944,43.0166],[-6.397,43.0383],[-6.3591,43.0596],[-6.3265,43.0313],[-6.2852,43.0364],[-6.2268,43.0089],[-6.2156,43.0472],[-6.1784,43.0478],[-6.1367,43.021],[-6.0969,43.0306],[-6.0813,43.0759],[-6.0169,43.0534],[-5.9738,43.0653],[-5.9565,43.0176],[-5.8872,42.9941],[-5.8885,42.9792],[-5.804,42.9626],[-5.7639,42.9701],[-5.7284,43.0425],[-5.6933,43.0565],[-5.5698,43.0221],[-5.4938,43.0212],[-5.4785,43.0549],[-5.3905,43.0493],[-5.3691,43.0946],[-5.2821,43.0774],[-5.1478,43.1151],[-5.1017,43.1018],[-5.0766,43.179],[-4.9976,43.1703],[-4.9803,43.2003],[-4.9086,43.238],[-4.871,43.228],[-4.841,43.1808],[-4.7458,43.1841],[-4.721,43.2295],[-4.7309,43.2573],[-4.6319,43.2677],[-4.6066,43.3006],[-4.5377,43.2693],[-4.5186,43.294],[-4.5388,43.3559],[-4.5123,43.3933],[-4.6993,43.4048],[-4.9261,43.4624],[-5.037,43.4607],[-5.1235,43.4846],[-5.2162,43.4749],[-5.2954,43.5352],[-5.3882,43.5297],[-5.4132,43.5549],[-5.4938,43.544],[-5.6176,43.559],[-5.6792,43.5412],[-5.7013,43.5662],[-5.6761,43.571],[-5.7556,43.5834],[-5.791,43.6142],[-5.7831,43.6313],[-5.83,43.6401],[-5.84,43.6606],[-5.8667,43.6313],[-5.9148,43.6237],[-5.9563,43.5798],[-6.0173,43.5883],[-6.113,43.5554],[-6.1857,43.5637],[-6.1882,43.5795],[-6.2445,43.5952],[-6.3552,43.5512],[-6.4702,43.5712],[-6.4745,43.5503],[-6.5333,43.5452],[-6.6263,43.5729],[-6.7238,43.5559],[-6.9254,43.575],[-7.0232,43.5596],[-7.0483,43.4771],[-7.1017,43.4275],[-7.173,43.4304],[-7.1825,43.3925],[-7.1275,43.3726],[-7.1308,43.3302],[-7.1009,43.3038],[-7.0598,43.3053],[-7.0616,43.244],[-6.971,43.2042],[-6.9808,43.1665],[-6.9565,43.135],[-6.8854,43.1568],[-6.8682,43.19],[-6.8216,43.1432],[-6.8713,43.0912],[-6.9156,43.0734],[-6.9387,43.0865],[-6.9686,43.0572],[-6.9646,43.0347],[-6.9819,43.0414],[-6.9972,43.0195],[-6.962,42.9907],[-6.9571,43.0368],[-6.9103,42.9901],[-6.8711,42.9886],[-6.8361,42.9578],[-6.8419,42.9282],[-6.8242,42.9151]]],[[[-6.4179,43.5589],[-6.4168,43.5608],[-6.4187,43.5599],[-6.4179,43.5589]]],[[[-6.7524,43.5647],[-6.7514,43.5672],[-6.7522,43.5675],[-6.7533,43.5663],[-6.7534,43.5676],[-6.7537,43.5667],[-6.7524,43.5647]]],[[[-6.6596,43.5677],[-6.6592,43.5694],[-6.6613,43.5689],[-6.6596,43.5677]]],[[[-6.2934,43.5713],[-6.2927,43.5729],[-6.295,43.572],[-6.2934,43.5713]]],[[[-6.0337,43.5888],[-6.0315,43.5894],[-6.031,43.5923],[-6.0335,43.5914],[-6.0337,43.5888]]],[[[-6.1922,43.5805],[-6.1919,43.5821],[-6.1935,43.5809],[-6.1922,43.5805]]]]},"properties":{"iso3":"ESP","shapeId":"25490228B24314700704920","regionId":"ESP.17_1","name":"Principado de Asturias"}},{"type":"Feature","geometry":{"type":"Polygon","coordinates":[[[-1.8565,41.9664],[-1.8573,41.9095],[-1.8176,41.8534],[-1.8529,41.7896],[-1.8059,41.7551],[-1.8092,41.7367],[-1.7754,41.7248],[-1.7869,41.6994],[-1.8121,41.6865],[-1.8062,41.6643],[-1.859,41.6615],[-1.9231,41.5983],[-1.9932,41.6005],[-1.9673,41.5461],[-1.9811,41.4864],[-1.9533,41.4625],[-1.9373,41.4079],[-2.0293,41.3842],[-2.0436,41.3971],[-2.0356,41.4269],[-2.1015,41.4458],[-2.116,41.382],[-2.1631,41.3553],[-2.1737,41.2881],[-2.1462,41.1844],[-2.0799,41.171],[-2.0517,41.1468],[-1.959,41.1725],[-1.9324,41.1386],[-1.8033,41.0899],[-1.6174,40.9437],[-1.6214,40.8804],[-1.5423,40.8112],[-1.5399,40.7607],[-1.562,40.7398],[-1.5356,40.687],[-1.5649,40.6147],[-1.5455,40.5952],[-1.5987,40.5621],[-1.6781,40.591],[-1.7016,40.5411],[-1.6925,40.4868],[-1.7486,40.4629],[-1.8057,40.398],[-1.6977,40.3213],[-1.7295,40.3029],[-1.7212,40.2787],[-1.6903,40.3097],[-1.5405,40.1908],[-1.4392,40.197],[-1.4489,40.1453],[-1.3546,40.1295],[-1.3166,40.1497],[-1.323,40.1849],[-1.2978,40.2115],[-1.2843,40.1715],[-1.2443,40.146],[-1.2446,40.1158],[-1.148,40.1145],[-1.0721,40.0605],[-1.0842,40.0362],[-1.1652,40.0101],[-1.1424,39.9718],[-1.1217,39.9609],[-0.9894,39.9818],[-0.9205,39.9644],[-0.9027,39.9318],[-0.9128,39.8731],[-0.8636,39.8474],[-0.7977,39.8811],[-0.8404,39.925],[-0.8378,39.9768],[-0.7776,39.9984],[-0.7536,40.0466],[-0.6829,40.0442],[-0.6136,40.07],[-0.6285,40.1026],[-0.5786,40.1373],[-0.5442,40.2517],[-0.4945,40.2287],[-0.4281,40.2438],[-0.3836,40.2648],[-0.4004,40.2949],[-0.3886,40.3069],[-0.3663,40.3051],[-0.3406,40.34],[-0.2818,40.3657],[-0.3474,40.4439],[-0.2726,40.4738],[-0.3018,40.5154],[-0.2933,40.611],[-0.3705,40.6136],[-0.378,40.6675],[-0.3288,40.6803],[-0.307,40.6595],[-0.236,40.6911],[-0.2391,40.7193],[-0.1972,40.7845],[-0.1445,40.7854],[-0.1268,40.7533],[-0.0647,40.7274],[0.0157,40.7284],[0.0422,40.691],[0.1125,40.7271],[0.1638,40.7236],[0.1592,40.7506],[0.1754,40.7411],[0.1752,40.7549],[0.23,40.7674],[0.2782,40.8209],[0.2389,40.8847],[0.2935,40.9706],[0.2586,41.0146],[0.2797,41.0202],[0.2177,41.0437],[0.2304,41.0553],[0.2201,41.0829],[0.2012,41.0847],[0.2009,41.1261],[0.292,41.1564],[0.3224,41.2252],[0.3813,41.2364],[0.3857,41.2788],[0.3484,41.3289],[0.374,41.3515],[0.32,41.3942],[0.3553,41.4518],[0.342,41.484],[0.3974,41.4906],[0.4469,41.5422],[0.4285,41.6024],[0.3496,41.5995],[0.358,41.6317],[0.327,41.6782],[0.3847,41.7403],[0.3954,41.732],[0.3987,41.7578],[0.4686,41.765],[0.4832,41.8015],[0.5439,41.8209],[0.5549,41.8528],[0.6072,41.8718],[0.5928,41.8844],[0.6075,41.9193],[0.5619,41.9382],[0.6573,42.0016],[0.6517,42.0263],[0.714,42.1634],[0.7026,42.19],[0.7646,42.3225],[0.7404,42.3369],[0.7713,42.3506],[0.7222,42.3674],[0.7461,42.3848],[0.6905,42.4876],[0.7398,42.5052],[0.7212,42.5245],[0.7495,42.5349],[0.7675,42.6112],[0.7085,42.6208],[0.6601,42.6909],[0.5971,42.7055],[0.4221,42.6905],[0.3602,42.7243],[0.2953,42.6732],[0.26,42.716],[0.1758,42.737],[-0.0029,42.6849],[-0.0557,42.6923],[-0.0685,42.7181],[-0.1064,42.7206],[-0.16,42.798],[-0.1887,42.7869],[-0.3133,42.8494],[-0.3947,42.799],[-0.4417,42.7954],[-0.5053,42.8274],[-0.5296,42.7916],[-0.5676,42.7806],[-0.5691,42.8069],[-0.6005,42.8024],[-0.6026,42.8325],[-0.6788,42.8845],[-0.7318,42.8961],[-0.7245,42.9202],[-0.7832,42.9217],[-0.8568,42.8469],[-0.8475,42.7859],[-0.8656,42.7629],[-0.9005,42.7605],[-0.9005,42.7431],[-0.923,42.744],[-0.9487,42.7115],[-1.028,42.7001],[-1.0519,42.6426],[-1.152,42.6479],[-1.1571,42.6109],[-1.1798,42.6106],[-1.158,42.5992],[-1.2019,42.5782],[-1.2028,42.5497],[-1.2648,42.5568],[-1.2881,42.5228],[-1.2728,42.4819],[-1.3415,42.4239],[-1.3599,42.378],[-1.3291,42.3554],[-1.3991,42.2913],[-1.3914,42.2721],[-1.4164,42.222],[-1.3919,42.1814],[-1.3989,42.1262],[-1.3523,42.0731],[-1.3106,42.0723],[-1.3033,42.0518],[-1.3822,41.9433],[-1.4182,41.9136],[-1.5593,41.9139],[-1.6541,41.9654],[-1.7152,41.957],[-1.7669,41.9958],[-1.8472,42.008],[-1.8565,41.9664]],[[-1.1828,42.4239],[-1.145,42.4419],[-1.1584,42.41],[-1.1844,42.401],[-1.1828,42.4239]],[[-1.1294,42.4467],[-1.0917,42.4857],[-1.051,42.4415],[-1.1294,42.4467]]]},"properties":{"iso3":"ESP","shapeId":"25490228B61325010384209","regionId":"ESP.2_1","name":"Aragón"}},{"type":"Feature","geometry":{"type":"MultiPolygon","coordinates":[[[[-3.0353,35.9377],[-3.0331,35.9382],[-3.0343,35.9392],[-3.031,35.9415],[-3.037,35.9395],[-3.0353,35.9377]]],[[[-6.2205,36.3789],[-6.219,36.3809],[-6.2209,36.3813],[-6.2253,36.3962],[-6.2205,36.3789]]],[[[-6.4685,36.7323],[-6.4686,36.7376],[-6.4721,36.7376],[-6.4685,36.7323]]],[[[-6.3173,36.5271],[-6.3123,36.5278],[-6.3172,36.5291],[-6.3173,36.5271]]],[[[-2.3416,38.026],[-2.4234,38.0337],[-2.5513,38.0841],[-2.4463,38.1852],[-2.4543,38.2155],[-2.4354,38.265],[-2.4414,38.2856],[-2.4852,38.3003],[-2.4834,38.3979],[-2.5736,38.4163],[-2.5666,38.4905],[-2.5971,38.5124],[-2.6797,38.4969],[-2.7677,38.5329],[-2.8815,38.4526],[-2.9636,38.4715],[-2.9935,38.4501],[-3.0017,38.4083],[-3.065,38.4782],[-3.1383,38.4386],[-3.3265,38.4821],[-3.375,38.4752],[-3.3767,38.4396],[-3.4517,38.4003],[-3.5284,38.4086],[-3.5419,38.4454],[-3.5831,38.4515],[-3.5982,38.3985],[-3.7856,38.4253],[-3.8301,38.4128],[-3.8543,38.3751],[-3.9151,38.3688],[-4.2578,38.4016],[-4.2768,38.3902],[-4.2689,38.3472],[-4.2873,38.3428],[-4.453,38.4009],[-4.5127,38.4639],[-4.5937,38.4864],[-4.6228,38.5238],[-4.704,38.5532],[-4.7074,38.5719],[-4.8602,38.614],[-4.877,38.6861],[-5.0046,38.6951],[-5.008,38.7152],[-5.0469,38.7291],[-5.0992,38.7077],[-5.1845,38.7197],[-5.1673,38.6805],[-5.1842,38.6597],[-5.2085,38.6677],[-5.2147,38.6486],[-5.2922,38.6108],[-5.3085,38.5776],[-5.3717,38.5836],[-5.3927,38.5535],[-5.3832,38.5405],[-5.4069,38.5437],[-5.4186,38.5127],[-5.5728,38.4276],[-5.5851,38.3858],[-5.5592,38.3669],[-5.5756,38.3291],[-5.526,38.2641],[-5.5204,38.2076],[-5.5387,38.2006],[-5.5397,38.1607],[-5.5848,38.1317],[-5.6325,38.1386],[-5.7104,38.081],[-5.7349,38.0863],[-5.7407,38.1265],[-5.6947,38.1503],[-5.7058,38.1694],[-5.6842,38.1571],[-5.6947,38.1865],[-5.7282,38.1974],[-5.8515,38.1719],[-5.9264,38.105],[-5.909,38.0628],[-5.9342,38.0469],[-5.9537,37.9953],[-6.1153,37.9818],[-6.1802,37.941],[-6.2015,37.9621],[-6.3036,37.9783],[-6.3527,38.0074],[-6.3672,38.0489],[-6.4139,38.0586],[-6.4524,38.056],[-6.4766,38.0078],[-6.5823,38.0208],[-6.5805,38.0528],[-6.6221,38.097],[-6.7582,38.0927],[-6.7701,38.1121],[-6.8158,38.1201],[-6.7951,38.1785],[-6.8484,38.1772],[-6.9317,38.2083],[-6.9689,38.1662],[-6.9522,38.1523],[-6.9874,38.1039],[-7.0024,38.0227],[-7.0593,38.0174],[-7.0988,38.0438],[-7.1281,38.0299],[-7.1328,37.9999],[-7.2022,38.0035],[-7.2632,37.9799],[-7.2485,37.9545],[-7.2835,37.8691],[-7.3241,37.8158],[-7.4211,37.7591],[-7.4441,37.6647],[-7.5039,37.6045],[-7.5067,37.5575],[-7.5228,37.5534],[-7.4638,37.4869],[-7.4456,37.4193],[-7.4628,37.4098],[-7.4402,37.3903],[-7.4421,37.3108],[-7.4219,37.2742],[-7.4338,37.2497],[-7.4018,37.1748],[-7.2709,37.2018],[-7.0437,37.2075],[-6.8321,37.108],[-6.9163,37.1762],[-6.5219,36.9772],[-6.4493,36.9078],[-6.3972,36.8073],[-6.3424,36.7946],[-6.4427,36.7382],[-6.3945,36.6338],[-6.359,36.6146],[-6.2998,36.6179],[-6.2659,36.5798],[-6.2382,36.5845],[-6.2494,36.5723],[-6.2328,36.5849],[-6.2291,36.5251],[-6.258,36.5292],[-6.2421,36.5062],[-6.2079,36.5096],[-6.2005,36.5287],[-6.1732,36.5213],[-6.2298,36.4626],[-6.2576,36.4731],[-6.2564,36.5078],[-6.2819,36.5275],[-6.2686,36.532],[-6.2923,36.5329],[-6.2794,36.543],[-6.3096,36.5286],[-6.289,36.5237],[-6.143,36.2966],[-6.1028,36.2841],[-6.0343,36.181],[-5.9149,36.1848],[-5.7972,36.0783],[-5.7763,36.0878],[-5.7238,36.0601],[-5.6525,36.0532],[-5.6111,36.0001],[-5.4293,36.0711],[-5.4436,36.0899],[-5.43,36.1408],[-5.4404,36.124],[-5.4473,36.1403],[-5.4269,36.1756],[-5.3844,36.1799],[-5.3386,36.1535],[-5.3166,36.2299],[-5.1769,36.4143],[-5.0049,36.4597],[-4.9131,36.5054],[-4.7405,36.4826],[-4.6382,36.507],[-4.6028,36.563],[-4.5117,36.5931],[-4.4138,36.7184],[-4.1808,36.7147],[-4.0669,36.7488],[-3.9572,36.7261],[-3.8355,36.754],[-3.7275,36.7192],[-3.6577,36.7466],[-3.602,36.7446],[-3.5537,36.7149],[-3.5259,36.7241],[-3.4827,36.6973],[-3.4199,36.6939],[-3.3389,36.7383],[-3.2589,36.7534],[-2.9777,36.7383],[-2.9267,36.7518],[-2.8495,36.6955],[-2.8156,36.7063],[-2.7715,36.6814],[-2.7003,36.683],[-2.6196,36.727],[-2.5619,36.8161],[-2.4643,36.8257],[-2.4751,36.837],[-2.4265,36.8107],[-2.3615,36.8416],[-2.2912,36.8201],[-2.1934,36.7211],[-2.1148,36.7376],[-2.1062,36.7627],[-2.0603,36.7778],[-2.06,36.8097],[-1.9996,36.84],[-1.9921,36.8937],[-1.9405,36.9365],[-1.9037,36.9374],[-1.9008,36.9878],[-1.8495,37.0683],[-1.7976,37.2296],[-1.6771,37.3528],[-1.6301,37.3752],[-1.7371,37.4426],[-1.8118,37.4516],[-1.8086,37.4335],[-1.8453,37.4548],[-1.9768,37.6187],[-2.0127,37.7006],[-1.9958,37.728],[-1.9995,37.8231],[-1.9745,37.8685],[-2.1004,37.8772],[-2.1232,37.9006],[-2.172,37.8887],[-2.3416,38.026]]]]},"properties":{"iso3":"ESP","shapeId":"25490228B88831207743232","regionId":"ESP.1_1","name":"Andalucía"}}]}