{"type":"FeatureCollection","features":[{"type":"Feature","geometry":{"type":"Polygon","coordinates":[[[3.485,48.8518],[3.4628,48.8372],[3.4466,48.8602],[3.3814,48.8716],[3.368,48.9283],[3.3303,48.9087],[3.3044,48.9488],[3.2649,48.9388],[3.2502,48.9739],[3.1675,49.0125],[3.1907,49.0513],[3.1534,49.0834],[3.1652,49.0999],[3.0696,49.1176],[3.0661,49.0852],[3.0085,49.0916],[2.9868,49.0709],[2.968,49.0915],[2.8561,49.0701],[2.8092,49.0975],[2.7346,49.0605],[2.7242,49.0807],[2.6958,49.0646],[2.6339,49.1086],[2.5836,49.0798],[2.5534,49.1245],[2.5313,49.0995],[2.4901,49.1062],[2.503,49.1178],[2.4715,49.1354],[2.3729,49.1595],[2.3593,49.1473],[2.3108,49.1867],[2.2865,49.1599],[2.2413,49.1516],[2.2168,49.1541],[2.2354,49.167],[2.2186,49.1807],[2.1688,49.1639],[2.0807,49.2107],[2.0015,49.1758],[1.883,49.1626],[1.8031,49.1851],[1.7549,49.1746],[1.7155,49.2027],[1.7404,49.2243],[1.7093,49.2415],[1.674,49.2119],[1.6578,49.1319],[1.6234,49.086],[1.523,49.0682],[1.5079,49.0854],[1.5023,49.0589],[1.4618,49.064],[1.4463,49.0463],[1.477,49.0168],[1.471,48.975],[1.5183,48.9784],[1.4918,48.9646],[1.5109,48.9536],[1.5073,48.9276],[1.5384,48.9225],[1.5634,48.8905],[1.5456,48.8702],[1.5981,48.8389],[1.5789,48.8297],[1.5916,48.815],[1.5773,48.8049],[1.5819,48.7619],[1.6268,48.7481],[1.5764,48.7026],[1.6118,48.6893],[1.6028,48.6631],[1.6431,48.6513],[1.6665,48.6135],[1.715,48.6147],[1.7092,48.578],[1.7875,48.5538],[1.7756,48.5139],[1.8013,48.466],[1.8367,48.4671],[1.871,48.4398],[1.9295,48.4571],[1.9429,48.4411],[1.9283,48.4061],[1.9782,48.4018],[1.9667,48.3806],[1.9892,48.3636],[1.9685,48.3414],[1.979,48.3129],[1.9592,48.3087],[1.9822,48.2952],[1.9723,48.2882],[2.0408,48.2846],[2.1054,48.3077],[2.1639,48.2984],[2.1521,48.3161],[2.1809,48.3115],[2.2041,48.3449],[2.2462,48.3312],[2.2452,48.2982],[2.3276,48.3332],[2.3583,48.3084],[2.403,48.3206],[2.4234,48.2603],[2.5185,48.2283],[2.5168,48.1668],[2.4832,48.1646],[2.444,48.1316],[2.4543,48.1224],[2.5593,48.1418],[2.7055,48.1231],[2.7556,48.1459],[2.7367,48.1661],[2.7953,48.1691],[2.8114,48.1637],[2.8008,48.1316],[2.8209,48.1297],[2.8677,48.1566],[2.9366,48.1635],[2.937,48.1831],[3.0045,48.207],[3.0474,48.2497],[3.0146,48.3063],[3.0503,48.36],[3.1034,48.3494],[3.1716,48.3774],[3.2545,48.3651],[3.2827,48.3816],[3.3652,48.3723],[3.3833,48.4001],[3.4147,48.3902],[3.4223,48.4161],[3.3917,48.4232],[3.4074,48.4493],[3.3837,48.4796],[3.4352,48.4969],[3.4054,48.5279],[3.4818,48.5415],[3.4654,48.5705],[3.5163,48.5898],[3.503,48.6046],[3.559,48.6177],[3.5193,48.6331],[3.5336,48.6465],[3.4509,48.6347],[3.4606,48.653],[3.4406,48.6637],[3.4778,48.6979],[3.4697,48.7379],[3.396,48.7586],[3.4082,48.7842],[3.4428,48.7859],[3.4421,48.8037],[3.4053,48.8102],[3.487,48.8151],[3.485,48.8518]]]},"properties":{"iso3":"FRA","shapeId":"19338628B22645672383103","regionId":"FRA.8_1","name":"Île-De-France"}},{"type":"Feature","geometry":{"type":"Polygon","coordinates":[[[1.5014,48.941],[1.4478,48.9246],[1.4718,48.8971],[1.4646,48.8768],[1.3612,48.8337],[1.375,48.7813],[1.3294,48.7609],[1.2229,48.758],[1.1214,48.7892],[1.1139,48.7461],[1.0639,48.7595],[1.0339,48.7286],[0.9212,48.7092],[0.8902,48.7204],[0.8639,48.6876],[0.8106,48.6667],[0.8318,48.6334],[0.8196,48.6099],[0.8471,48.6097],[0.8506,48.5826],[0.9257,48.5599],[0.9393,48.5492],[0.9225,48.5377],[0.9674,48.5239],[0.9415,48.4988],[0.9564,48.4824],[0.9357,48.4756],[0.9766,48.4411],[0.9164,48.3745],[0.7854,48.3405],[0.7557,48.2999],[0.8077,48.2898],[0.7875,48.2613],[0.8306,48.2107],[0.7957,48.188],[0.9167,48.1389],[0.8501,48.1333],[0.8411,48.1029],[0.8123,48.095],[0.8482,48.0946],[0.8436,48.073],[0.7939,48.0697],[0.7975,48.0372],[0.8424,48.0302],[0.8187,47.9867],[0.8489,47.9414],[0.8136,47.9319],[0.8118,47.8885],[0.79,47.9121],[0.7596,47.8996],[0.7747,47.8397],[0.6913,47.7834],[0.7038,47.7678],[0.6259,47.7515],[0.5812,47.7136],[0.5955,47.688],[0.6186,47.6937],[0.5966,47.6729],[0.464,47.6456],[0.4501,47.6194],[0.3826,47.6434],[0.3647,47.6202],[0.4024,47.5784],[0.3784,47.5684],[0.2307,47.6108],[0.2346,47.5781],[0.1931,47.5381],[0.2261,47.5266],[0.22,47.5019],[0.1811,47.4533],[0.1809,47.4163],[0.1535,47.3988],[0.183,47.3804],[0.1404,47.3619],[0.1475,47.346],[0.0786,47.2839],[0.0792,47.2168],[0.0536,47.1993],[0.0665,47.1897],[0.0542,47.161],[0.0784,47.1464],[0.0812,47.1185],[0.1407,47.1247],[0.1352,47.1071],[0.1619,47.1001],[0.1824,47.1151],[0.2012,47.0913],[0.1761,47.0606],[0.2139,47.0541],[0.2442,47.0715],[0.2678,47.0677],[0.2682,47.0424],[0.3053,47.0527],[0.313,46.9981],[0.2914,46.9903],[0.325,46.9305],[0.3665,46.9499],[0.4386,46.9295],[0.5052,46.96],[0.5994,46.9562],[0.5676,47.0065],[0.6183,47.0076],[0.6333,46.9869],[0.6929,46.9741],[0.7049,46.9028],[0.7527,46.8602],[0.7709,46.8644],[0.7678,46.8512],[0.796,46.8501],[0.8151,46.7884],[0.9132,46.7257],[0.928,46.6927],[0.9025,46.6796],[0.9179,46.6505],[0.8939,46.6278],[0.9107,46.6017],[0.9638,46.5715],[1.0144,46.5678],[1.0223,46.5361],[1.0921,46.5375],[1.1463,46.5058],[1.1334,46.4977],[1.1576,46.4695],[1.1352,46.471],[1.1518,46.4486],[1.2132,46.4331],[1.1822,46.3759],[1.21,46.3899],[1.219,46.3656],[1.3037,46.3711],[1.3229,46.3851],[1.3132,46.3949],[1.3562,46.4002],[1.4169,46.3471],[1.5227,46.4267],[1.5443,46.4191],[1.5464,46.3932],[1.6093,46.4231],[1.6277,46.3883],[1.6837,46.4182],[1.7272,46.3892],[1.7601,46.427],[1.748,46.4504],[1.7849,46.4554],[1.8397,46.4258],[1.9096,46.4438],[2.089,46.4089],[2.1972,46.4283],[2.2811,46.4205],[2.3008,46.4724],[2.3227,46.4695],[2.3238,46.4901],[2.3599,46.5159],[2.4969,46.5336],[2.5366,46.5197],[2.6149,46.5533],[2.604,46.5958],[2.5685,46.6091],[2.5883,46.616],[2.593,46.6466],[2.5668,46.6536],[2.6058,46.6714],[2.6283,46.6591],[2.6233,46.6896],[2.7021,46.7182],[2.7151,46.7452],[2.7587,46.7175],[2.793,46.7343],[2.8454,46.7267],[2.9133,46.791],[2.9596,46.8043],[3.0281,46.7933],[3.0592,46.8266],[3.0681,46.8768],[3.05,46.9089],[3.0796,46.9556],[3.0626,46.9792],[3.0752,47.0293],[3.0193,47.0682],[3.0283,47.1284],[2.9791,47.2287],[2.9831,47.2608],[2.8766,47.3219],[2.8704,47.3431],[2.9315,47.4399],[2.8449,47.5449],[2.9765,47.5696],[2.9361,47.5994],[2.9323,47.6271],[2.9539,47.6459],[2.9182,47.6698],[2.9262,47.682],[2.8485,47.726],[2.8564,47.7618],[3.025,47.7873],[3.0122,47.8342],[3.0318,47.8504],[2.9946,47.8674],[3.0124,47.874],[3.0093,47.9055],[3.0505,47.9106],[3.127,47.9681],[3.1242,48.0069],[3.0995,48.02],[3.1242,48.0311],[3.0502,48.0722],[3.035,48.1161],[3.0159,48.1158],[3.0293,48.1333],[2.9532,48.1652],[2.8677,48.1566],[2.8209,48.1297],[2.8008,48.1316],[2.8114,48.1637],[2.7953,48.1691],[2.7367,48.1661],[2.7556,48.1459],[2.7055,48.1231],[2.5593,48.1418],[2.4418,48.1248],[2.4832,48.1646],[2.5168,48.1668],[2.5185,48.2283],[2.4234,48.2603],[2.403,48.3206],[2.3583,48.3084],[2.3276,48.3332],[2.2452,48.2982],[2.2462,48.3312],[2.2041,48.3449],[2.1809,48.3115],[2.1521,48.3161],[2.1639,48.2984],[2.1054,48.3077],[2.0408,48.2846],[1.9723,48.2882],[1.9822,48.2952],[1.9592,48.3087],[1.979,48.3129],[1.9685,48.3414],[1.9892,48.3636],[1.9667,48.3806],[1.9782,48.4018],[1.9283,48.4061],[1.9429,48.4411],[1.9295,48.4571],[1.871,48.4398],[1.8367,48.4671],[1.8013,48.466],[1.7756,48.5139],[1.7875,48.5538],[1.7092,48.578],[1.715,48.6147],[1.6665,48.6135],[1.6431,48.6513],[1.6028,48.6631],[1.6118,48.6893],[1.5764,48.7026],[1.6268,48.7481],[1.5819,48.7619],[1.5773,48.8049],[1.5916,48.815],[1.5789,48.8297],[1.5981,48.8389],[1.5456,48.8702],[1.5634,48.8905],[1.5014,48.941]]]},"properties":{"iso3":"FRA","shapeId":"19338628B5758982491638","regionId":"FRA.4_1","name":"Centre-Val De Loire"}},{"type":"Feature","geometry":{"type":"Polygon","coordinates":[[[2.9366,48.1635],[3.0293,48.1333],[3.0159,48.1158],[3.035,48.1161],[3.0502,48.0722],[3.1242,48.0311],[3.0995,48.02],[3.1287,47.9825],[3.0505,47.9106],[3.0093,47.9055],[3.0124,47.874],[2.9946,47.8674],[3.0318,47.8504],[3.0122,47.8342],[3.025,47.7873],[2.8564,47.7618],[2.8485,47.726],[2.9262,47.682],[2.9182,47.6698],[2.9539,47.6459],[2.9323,47.6271],[2.9361,47.5994],[2.9765,47.5696],[2.8449,47.5449],[2.9315,47.4399],[2.8704,47.3431],[2.8766,47.3219],[2.9831,47.2608],[2.9791,47.2287],[3.0283,47.1284],[3.0193,47.0682],[3.0752,47.0293],[3.0626,46.9792],[3.0796,46.9556],[3.05,46.9089],[3.0695,46.8524],[3.0326,46.8002],[3.0378,46.7724],[3.1981,46.6797],[3.2696,46.7167],[3.3466,46.6845],[3.379,46.7125],[3.4344,46.7124],[3.4569,46.6518],[3.561,46.6889],[3.5477,46.7226],[3.5976,46.724],[3.5757,46.7497],[3.5894,46.7619],[3.626,46.7527],[3.638,46.707],[3.7241,46.6265],[3.7129,46.6102],[3.7375,46.601],[3.7419,46.5391],[3.8051,46.5193],[3.8379,46.5317],[3.867,46.4887],[3.9555,46.4917],[3.954,46.4773],[3.9993,46.4645],[4.0057,46.4431],[3.9772,46.3992],[3.9848,46.3297],[4.0047,46.3276],[3.9458,46.3212],[3.9451,46.3005],[3.8912,46.2852],[3.91,46.2479],[3.8901,46.2145],[3.9727,46.2028],[3.9899,46.1691],[4.1038,46.1986],[4.1332,46.1773],[4.187,46.1746],[4.185,46.19],[4.2078,46.1949],[4.2249,46.1777],[4.2547,46.1881],[4.2499,46.1582],[4.281,46.1561],[4.3268,46.185],[4.3742,46.1869],[4.3628,46.1999],[4.3894,46.213],[4.4061,46.2962],[4.4584,46.2972],[4.504,46.2672],[4.5464,46.2741],[4.5602,46.2952],[4.5828,46.2696],[4.6183,46.265],[4.6353,46.3002],[4.6797,46.3065],[4.7101,46.2784],[4.6792,46.2587],[4.7368,46.2326],[4.7192,46.2277],[4.7358,46.2119],[4.7275,46.1795],[4.7804,46.1769],[4.9419,46.5199],[4.9507,46.5003],[4.9841,46.5154],[5.0564,46.4837],[5.1665,46.5031],[5.1675,46.5191],[5.2019,46.5082],[5.2146,46.4687],[5.3152,46.445],[5.3246,46.4285],[5.2988,46.4131],[5.3779,46.3822],[5.3624,46.3699],[5.402,46.339],[5.4048,46.3101],[5.4235,46.3477],[5.4371,46.3151],[5.4669,46.3233],[5.4565,46.2748],[5.4737,46.2643],[5.5417,46.2698],[5.6434,46.3448],[5.644,46.325],[5.7146,46.309],[5.7252,46.2607],[5.8695,46.2649],[6.0856,46.4408],[6.0728,46.4654],[6.1567,46.5453],[6.1105,46.5764],[6.282,46.6907],[6.4523,46.7742],[6.4584,46.7888],[6.431,46.8124],[6.4646,46.8904],[6.4327,46.9287],[6.4959,46.9739],[6.618,46.9916],[6.7192,47.0512],[6.6915,47.0667],[6.7027,47.0821],[6.8499,47.1564],[6.8411,47.1714],[6.9557,47.2431],[6.941,47.2867],[6.9963,47.2958],[7.01,47.3245],[7.057,47.3344],[7.0499,47.3614],[7.0156,47.3729],[6.8793,47.3526],[6.9133,47.4046],[6.9384,47.4061],[6.9403,47.4333],[7.0022,47.4542],[6.983,47.4946],[7.1125,47.4951],[7.1434,47.5246],[7.0808,47.5962],[7.0198,47.5886],[7.0057,47.6021],[7.0059,47.6289],[7.0393,47.6505],[7.0484,47.6821],[7.0158,47.7438],[6.866,47.7839],[6.8448,47.824],[6.8236,47.8133],[6.7826,47.8513],[6.6464,47.9032],[6.6065,47.9443],[6.4783,47.8854],[6.4348,47.9429],[6.391,47.9605],[6.2053,47.932],[6.208,47.9468],[6.1498,47.9656],[6.1653,47.9767],[6.1562,48.0068],[6.1313,48.0241],[6.0412,48.0044],[6.0068,47.959],[5.9705,47.9572],[5.9494,47.9354],[5.9287,47.9381],[5.9601,47.968],[5.9316,47.9769],[5.8836,47.9249],[5.8867,47.9028],[5.8375,47.8912],[5.8284,47.8519],[5.7612,47.8593],[5.742,47.8194],[5.6921,47.8214],[5.6764,47.7791],[5.7075,47.7676],[5.7096,47.7453],[5.6847,47.7224],[5.6911,47.6847],[5.5968,47.672],[5.5676,47.7074],[5.5299,47.673],[5.4199,47.6777],[5.3593,47.5937],[5.3225,47.6124],[5.2562,47.5766],[5.2381,47.5965],[5.2587,47.6222],[5.2369,47.6168],[5.1744,47.6516],[5.1784,47.681],[5.1254,47.6468],[5.0534,47.6684],[5.0608,47.6948],[5.0288,47.6933],[5.0292,47.7099],[4.9691,47.6858],[4.9537,47.7028],[4.9718,47.7302],[4.9568,47.7324],[4.959,47.7619],[4.9224,47.759],[4.918,47.7771],[4.9941,47.8197],[4.9607,47.839],[4.9541,47.8668],[4.9275,47.8715],[4.9029,47.921],[4.8692,47.9177],[4.8604,47.8963],[4.8333,47.9072],[4.8661,47.9405],[4.8452,47.9612],[4.7865,47.9642],[4.8106,47.9887],[4.7895,48.0081],[4.5851,48.0301],[4.5357,48.0068],[4.5542,47.9677],[4.3127,47.9627],[4.2928,47.9259],[4.2451,47.93],[4.2221,47.9497],[4.2269,47.9711],[4.204,47.9735],[4.2027,47.9417],[4.1658,47.96],[4.1097,47.926],[4.0608,47.9458],[4.0448,47.9251],[4.005,47.9426],[3.9019,47.9256],[3.9114,47.9811],[3.8932,48.0018],[3.8799,47.9791],[3.85,47.9837],[3.8392,48.0034],[3.8703,48.0027],[3.8705,48.0169],[3.8221,48.0441],[3.8295,48.0579],[3.7918,48.1177],[3.7401,48.132],[3.7475,48.1663],[3.7144,48.1746],[3.7201,48.1539],[3.6679,48.1393],[3.6332,48.1889],[3.5788,48.1849],[3.6218,48.2257],[3.5995,48.2366],[3.6243,48.2545],[3.6166,48.2715],[3.5778,48.2846],[3.5879,48.3009],[3.5439,48.3198],[3.5049,48.3657],[3.4526,48.3744],[3.4274,48.3581],[3.4147,48.3902],[3.3833,48.4001],[3.3567,48.371],[3.2827,48.3816],[3.2002,48.3636],[3.1716,48.3774],[3.1034,48.3494],[3.0461,48.358],[3.0146,48.3063],[3.0474,48.2497],[3.0045,48.207],[2.937,48.1831],[2.9366,48.1635]]]},"properties":{"iso3":"FRA","shapeId":"19338628B30439183828151","regionId":"FRA.2_1","name":"Bourgogne-Franche-Comté"}},{"type":"Feature","geometry":{"type":"MultiPolygon","coordinates":[[[[-1.2491,49.5883],[-1.2411,49.5862],[-1.2391,49.5889],[-1.2428,49.5914],[-1.2469,49.5917],[-1.2491,49.5883]]],[[[-1.1564,49.4928],[-1.1505,49.4938],[-1.1547,49.4943],[-1.1564,49.4928]]],[[[-1.1475,49.4978],[-1.1444,49.4981],[-1.1461,49.4989],[-1.1475,49.4978]]],[[[-1.8392,48.8771],[-1.8368,48.8754],[-1.8384,48.8728],[-1.8337,48.8731],[-1.8324,48.8691],[-1.8284,48.8689],[-1.8257,48.8712],[-1.8215,48.8686],[-1.8227,48.8723],[-1.8265,48.8726],[-1.8291,48.8752],[-1.8351,48.8742],[-1.8344,48.8777],[-1.8385,48.8783],[-1.8392,48.8771]]],[[[-1.8428,48.8775],[-1.8416,48.8762],[-1.8419,48.879],[-1.8428,48.8775]]],[[[-1.7675,48.8733],[-1.7658,48.8723],[-1.7667,48.875],[-1.7675,48.8733]]],[[[-1.7982,48.878],[-1.7965,48.8773],[-1.7954,48.8786],[-1.7982,48.878]]],[[[-1.6868,49.673],[-1.6849,49.672],[-1.6852,49.6714],[-1.6823,49.6712],[-1.6818,49.6699],[-1.6791,49.6698],[-1.6789,49.6692],[-1.6633,49.6717],[-1.6782,49.6698],[-1.6808,49.6722],[-1.6834,49.672],[-1.6867,49.6736],[-1.6868,49.673]]],[[[-1.648,49.6743],[-1.6199,49.6739],[-1.5981,49.6714],[-1.6191,49.6742],[-1.648,49.6743]]],[[[-1.5829,49.6701],[-1.5848,49.6701],[-1.5804,49.6687],[-1.5829,49.6701]]],[[[-1.5545,48.9312],[-1.5534,48.9306],[-1.5532,48.932],[-1.5545,48.9312]]],[[[1.7044,49.2324],[1.7087,49.2647],[1.7589,49.2724],[1.7903,49.2468],[1.8029,49.2719],[1.7722,49.2911],[1.7613,49.3663],[1.7205,49.394],[1.7405,49.4056],[1.714,49.4069],[1.7245,49.4412],[1.7759,49.4714],[1.7903,49.5035],[1.7595,49.5114],[1.7451,49.4889],[1.7165,49.5038],[1.7478,49.5387],[1.6904,49.5799],[1.7223,49.589],[1.6939,49.6011],[1.7216,49.6235],[1.6986,49.6445],[1.7524,49.6807],[1.7435,49.7024],[1.7052,49.6813],[1.6889,49.6953],[1.7137,49.7058],[1.7131,49.7342],[1.7459,49.7387],[1.7498,49.7639],[1.7867,49.762],[1.7352,49.8106],[1.7128,49.8873],[1.453,50.039],[1.4496,50.0701],[1.369,50.0647],[1.0854,49.9273],[0.5806,49.8519],[0.3758,49.7608],[0.2058,49.7147],[0.1567,49.662],[0.1177,49.6639],[0.1417,49.669],[0.1534,49.645],[0.0663,49.5102],[0.1057,49.4811],[0.1755,49.4714],[0.0895,49.4844],[0.1084,49.4673],[0.1785,49.4559],[0.1144,49.4576],[0.3388,49.4501],[0.3372,49.434],[0.1306,49.4034],[0.0856,49.3614],[0.0709,49.3686],[-0.0039,49.3246],[-0.1113,49.2858],[-0.0898,49.2981],[-0.2292,49.2861],[-0.2195,49.2709],[-0.2493,49.26],[-0.2272,49.2762],[-0.2469,49.2923],[-0.3962,49.3333],[-0.7553,49.3486],[-0.9675,49.3969],[-1.0785,49.3882],[-1.1195,49.3594],[-1.0996,49.3198],[-1.1395,49.3087],[-1.1143,49.3263],[-1.118,49.3449],[-1.1709,49.3572],[-1.2344,49.3024],[-1.2255,49.3172],[-1.2455,49.3258],[-1.2253,49.3196],[-1.1839,49.3459],[-1.1622,49.3914],[-1.3073,49.5411],[-1.2963,49.5833],[-1.2714,49.5848],[-1.2727,49.5708],[-1.2558,49.6127],[-1.2289,49.6058],[-1.2397,49.6546],[-1.2731,49.6791],[-1.2653,49.697],[-1.4729,49.6972],[-1.4878,49.6682],[-1.6002,49.6605],[-1.6201,49.6392],[-1.6363,49.6537],[-1.6162,49.6581],[-1.8237,49.6903],[-1.8527,49.7182],[-1.9485,49.7163],[-1.9471,49.6751],[-1.8724,49.6572],[-1.8473,49.6245],[-1.8416,49.5727],[-1.8892,49.5341],[-1.8498,49.5073],[-1.8092,49.3725],[-1.7719,49.3802],[-1.7609,49.373],[-1.7873,49.3747],[-1.7243,49.3272],[-1.7011,49.3337],[-1.7179,49.3465],[-1.687,49.3305],[-1.7076,49.3174],[-1.6571,49.2821],[-1.6788,49.2857],[-1.6284,49.2116],[-1.6164,49.2401],[-1.5667,49.2211],[-1.6138,49.2183],[-1.5919,49.1348],[-1.6098,49.072],[-1.5782,48.9988],[-1.5601,49.0383],[-1.5049,49.0203],[-1.5572,49.0263],[-1.5485,48.8934],[-1.5627,48.9139],[-1.5529,48.9367],[-1.5824,48.853],[-1.6144,48.8341],[-1.5742,48.8214],[-1.5704,48.7437],[-1.529,48.7299],[-1.5016,48.6862],[-1.4495,48.6701],[-1.4466,48.6542],[-1.3729,48.6929],[-1.3997,48.6555],[-1.3453,48.6329],[-1.3922,48.6448],[-1.4893,48.6162],[-1.5108,48.6192],[-1.5106,48.637],[-1.5116,48.6175],[-1.5709,48.6262],[-1.5373,48.5989],[-1.5431,48.5799],[-1.519,48.5667],[-1.533,48.5462],[-1.4899,48.4893],[-1.4498,48.4875],[-1.4197,48.4603],[-1.3451,48.4725],[-1.2519,48.5438],[-1.0602,48.5155],[-1.0029,48.4891],[-0.9554,48.5173],[-0.9073,48.4962],[-0.8466,48.4996],[-0.8132,48.4552],[-0.7779,48.4655],[-0.7646,48.4363],[-0.7148,48.4491],[-0.7308,48.4732],[-0.6922,48.4681],[-0.6688,48.4865],[-0.6511,48.4439],[-0.5512,48.4733],[-0.5099,48.5091],[-0.3958,48.5104],[-0.3532,48.4837],[-0.3201,48.5231],[-0.2715,48.5074],[-0.2409,48.5369],[-0.2627,48.5484],[-0.2462,48.5664],[-0.2082,48.5642],[-0.1444,48.5277],[-0.1733,48.5098],[-0.1475,48.4569],[-0.051,48.453],[-0.0503,48.3752],[-0.0025,48.3975],[0.0612,48.3798],[0.0705,48.4091],[0.1577,48.4408],[0.1459,48.4576],[0.3006,48.4806],[0.3568,48.4578],[0.3826,48.4251],[0.3739,48.387],[0.3957,48.3203],[0.4805,48.2985],[0.4902,48.3096],[0.5075,48.2953],[0.4935,48.2834],[0.5365,48.2493],[0.6339,48.2343],[0.6402,48.2614],[0.6831,48.255],[0.7577,48.1799],[0.8306,48.2107],[0.7875,48.2613],[0.8077,48.2898],[0.7557,48.2999],[0.7691,48.3224],[0.7915,48.3428],[0.9091,48.3703],[0.9764,48.4388],[0.9357,48.4756],[0.9564,48.4824],[0.9415,48.4988],[0.9674,48.5239],[0.9225,48.5377],[0.9393,48.5492],[0.9257,48.5599],[0.8506,48.5826],[0.8471,48.6097],[0.8196,48.6099],[0.8318,48.6334],[0.8106,48.6667],[0.8639,48.6876],[0.8902,48.7204],[0.9212,48.7092],[1.0339,48.7286],[1.0639,48.7595],[1.1139,48.7461],[1.1214,48.7892],[1.2229,48.758],[1.3294,48.7609],[1.375,48.7813],[1.3612,48.8337],[1.4607,48.8726],[1.4718,48.8971],[1.4478,48.9246],[1.5014,48.941],[1.5109,48.9536],[1.4918,48.9646],[1.5183,48.9784],[1.471,48.975],[1.4615,48.989],[1.48,49.0072],[1.4473,49.0535],[1.5023,49.0589],[1.5079,49.0854],[1.523,49.0682],[1.6234,49.086],[1.6578,49.1319],[1.674,49.2119],[1.7044,49.2324]]]]},"properties":{"iso3":"FRA","shapeId":"19338628B74885379641265","regionId":"FRA.9_1","name":"Normandie"}},{"type":"Feature","geometry":{"type":"Polygon","coordinates":[[[3.485,48.8518],[3.5287,48.9122],[3.5707,48.915],[3.5748,48.9395],[3.6029,48.944],[3.5914,48.9605],[3.6778,49.0139],[3.65,49.043],[3.5851,49.039],[3.5877,49.0594],[3.6389,49.0775],[3.5997,49.1207],[3.6215,49.1504],[3.7029,49.1415],[3.7488,49.1571],[3.7513,49.1778],[3.7114,49.1782],[3.6975,49.2066],[3.6817,49.1974],[3.6529,49.2155],[3.6783,49.2352],[3.6527,49.2544],[3.6651,49.2694],[3.6439,49.3127],[3.7777,49.356],[3.8528,49.345],[3.8611,49.386],[3.8226,49.4025],[3.8957,49.3929],[3.9247,49.4078],[3.9615,49.3773],[4.0358,49.3599],[4.0503,49.4123],[4.0372,49.4382],[4.0682,49.4456],[4.0415,49.4683],[4.0402,49.5063],[4.0758,49.5183],[4.0752,49.5416],[4.0487,49.5454],[4.0768,49.5707],[4.0252,49.6226],[4.0411,49.6383],[4.1157,49.6329],[4.127,49.6779],[4.1852,49.6989],[4.2496,49.7571],[4.2059,49.7782],[4.2528,49.8696],[4.2558,49.904],[4.2169,49.9141],[4.2332,49.9578],[4.1449,49.976],[4.1619,50.0003],[4.1354,50.0151],[4.1623,50.0493],[4.2313,50.0714],[4.1967,50.1064],[4.1995,50.1342],[4.127,50.1356],[4.1553,50.163],[4.1504,50.2136],[4.22,50.2516],[4.2083,50.273],[4.1626,50.289],[4.1493,50.2755],[4.1676,50.2595],[4.1355,50.2574],[4.1182,50.3032],[4.0789,50.3097],[4.0242,50.3592],[3.9007,50.3269],[3.847,50.353],[3.7472,50.351],[3.7319,50.3115],[3.7101,50.3195],[3.7096,50.3033],[3.6573,50.3686],[3.675,50.4023],[3.6628,50.456],[3.6076,50.4972],[3.5007,50.4867],[3.52,50.5236],[3.4745,50.5337],[3.4489,50.5066],[3.3765,50.4911],[3.2885,50.5258],[3.2796,50.5959],[3.2401,50.6586],[3.2653,50.6771],[3.2611,50.7013],[3.2055,50.7118],[3.1504,50.7901],[2.9513,50.7519],[2.9061,50.6925],[2.8481,50.723],[2.7901,50.7258],[2.7241,50.8106],[2.6351,50.8129],[2.599,50.8489],[2.608,50.9101],[2.5903,50.9191],[2.6329,50.9462],[2.6073,50.9911],[2.574,51.0032],[2.5455,51.089],[2.3624,51.0542],[2.3752,51.042],[2.3428,51.0574],[2.21,51.032],[2.1633,51.0441],[2.1105,51.0058],[2.0915,51.0157],[2.1023,51.0065],[1.8887,50.9725],[1.8542,50.9814],[1.7269,50.937],[1.6434,50.8787],[1.582,50.8712],[1.6069,50.7706],[1.6015,50.7236],[1.5628,50.7253],[1.5764,50.5724],[1.6444,50.5092],[1.5862,50.5394],[1.5557,50.3995],[1.6465,50.3484],[1.6257,50.3662],[1.5556,50.3633],[1.5387,50.2762],[1.5947,50.2578],[1.6231,50.2144],[1.6625,50.2144],[1.6838,50.183],[1.596,50.1855],[1.5595,50.2106],[1.5708,50.2175],[1.5189,50.2058],[1.4536,50.1091],[1.3806,50.0644],[1.4496,50.0701],[1.453,50.039],[1.6035,49.9428],[1.679,49.9167],[1.7128,49.8873],[1.7352,49.8106],[1.7867,49.762],[1.7498,49.7639],[1.7459,49.7387],[1.7131,49.7342],[1.7137,49.7058],[1.6889,49.6953],[1.7052,49.6813],[1.751,49.6952],[1.6986,49.6445],[1.7216,49.6235],[1.6939,49.6011],[1.7223,49.589],[1.6904,49.5799],[1.7478,49.5387],[1.7165,49.5038],[1.7451,49.4889],[1.7715,49.5131],[1.7908,49.498],[1.7245,49.4412],[1.714,49.4069],[1.7405,49.4056],[1.7205,49.394],[1.7613,49.3663],[1.7722,49.2911],[1.8029,49.2719],[1.7903,49.2468],[1.7589,49.2724],[1.7087,49.2647],[1.6989,49.2351],[1.7404,49.2243],[1.7155,49.2027],[1.7549,49.1746],[1.8031,49.1851],[1.883,49.1626],[2.0015,49.1758],[2.0807,49.2107],[2.1688,49.1639],[2.2186,49.1807],[2.2354,49.167],[2.2168,49.1541],[2.2413,49.1516],[2.2865,49.1599],[2.3108,49.1867],[2.3593,49.1473],[2.3729,49.1595],[2.4715,49.1354],[2.503,49.1178],[2.4901,49.1062],[2.5313,49.0995],[2.5534,49.1245],[2.5836,49.0798],[2.6339,49.1086],[2.6958,49.0646],[2.7242,49.0807],[2.7346,49.0605],[2.8092,49.0975],[2.8561,49.0701],[2.968,49.0915],[2.9868,49.0709],[3.0085,49.0916],[3.0661,49.0852],[3.0696,49.1176],[3.1371,49.1076],[3.1652,49.0999],[3.1534,49.0834],[3.1907,49.0513],[3.1675,49.0125],[3.2502,48.9739],[3.2649,48.9388],[3.3044,48.9488],[3.3303,48.9087],[3.368,48.9283],[3.3814,48.8716],[3.4466,48.8602],[3.4628,48.8372],[3.485,48.8518]]]},"properties":{"iso3":"FRA","shapeId":"19338628B36302232233914","regionId":"FRA.7_1","name":"Hauts-de-France"}},{"type":"Feature","geometry":{"type":"Polygon","coordinates":[[[3.4147,48.3902],[3.4274,48.3581],[3.4526,48.3744],[3.5049,48.3657],[3.5439,48.3198],[3.5879,48.3009],[3.5778,48.2846],[3.6166,48.2715],[3.6243,48.2545],[3.5995,48.2366],[3.6218,48.2257],[3.5788,48.1849],[3.6332,48.1889],[3.6679,48.1393],[3.7201,48.1539],[3.7144,48.1746],[3.7475,48.1663],[3.7401,48.132],[3.7918,48.1177],[3.8295,48.0579],[3.8221,48.0441],[3.8705,48.0169],[3.8703,48.0027],[3.8392,48.0034],[3.85,47.9837],[3.8799,47.9791],[3.8932,48.0018],[3.9114,47.9811],[3.9019,47.9256],[4.005,47.9426],[4.0448,47.9251],[4.0608,47.9458],[4.1097,47.926],[4.1658,47.96],[4.2027,47.9417],[4.204,47.9735],[4.2269,47.9711],[4.2221,47.9497],[4.2451,47.93],[4.2928,47.9259],[4.3127,47.9627],[4.5542,47.9677],[4.5357,48.0068],[4.5851,48.0301],[4.7895,48.0081],[4.8106,47.9887],[4.7865,47.9642],[4.8452,47.9612],[4.8661,47.9405],[4.8333,47.9072],[4.8604,47.8963],[4.8692,47.9177],[4.9029,47.921],[4.9275,47.8715],[4.9541,47.8668],[4.9607,47.839],[4.9941,47.8197],[4.918,47.7771],[4.9224,47.759],[4.959,47.7619],[4.9568,47.7324],[4.9718,47.7302],[4.9537,47.7028],[4.9691,47.6858],[5.0292,47.7099],[5.0288,47.6933],[5.0608,47.6948],[5.0534,47.6684],[5.1254,47.6468],[5.1784,47.681],[5.1744,47.6516],[5.2369,47.6168],[5.2587,47.6222],[5.2381,47.5965],[5.2531,47.5769],[5.3225,47.6124],[5.3593,47.5937],[5.4199,47.6777],[5.5299,47.673],[5.5676,47.7074],[5.5968,47.672],[5.6911,47.6847],[5.6847,47.7224],[5.7096,47.7453],[5.7075,47.7676],[5.6764,47.7791],[5.6921,47.8214],[5.742,47.8194],[5.7612,47.8593],[5.8284,47.8519],[5.8375,47.8912],[5.8867,47.9028],[5.8836,47.9249],[5.9316,47.9769],[5.9601,47.968],[5.9287,47.9381],[5.9494,47.9354],[5.9705,47.9572],[6.0068,47.959],[6.0412,48.0044],[6.1313,48.0241],[6.1562,48.0068],[6.1653,47.9767],[6.1498,47.9656],[6.208,47.9468],[6.2053,47.932],[6.391,47.9605],[6.4348,47.9429],[6.4783,47.8854],[6.6065,47.9443],[6.6464,47.9032],[6.7826,47.8513],[6.8236,47.8133],[6.8448,47.824],[6.866,47.7839],[7.0158,47.7438],[7.0484,47.6821],[7.0393,47.6505],[7.0059,47.6289],[7.0057,47.6021],[7.0198,47.5886],[7.0808,47.5962],[7.1434,47.5246],[7.1303,47.5029],[7.2013,47.4941],[7.1702,47.443],[7.2334,47.4386],[7.2466,47.4203],[7.3303,47.4418],[7.3856,47.4319],[7.4558,47.4707],[7.4208,47.4804],[7.4331,47.4972],[7.472,47.4804],[7.5111,47.497],[7.4979,47.5213],[7.5312,47.5282],[7.4992,47.5401],[7.5847,47.5755],[7.5929,47.5975],[7.5232,47.6614],[7.5118,47.6977],[7.5479,47.7308],[7.5298,47.7801],[7.5629,47.8424],[7.5566,47.8779],[7.6218,47.9723],[7.569,48.0347],[7.5693,48.0818],[7.6008,48.1578],[7.6669,48.2221],[7.6932,48.3011],[7.7443,48.3268],[7.733,48.397],[7.7678,48.4889],[7.8049,48.5131],[7.8048,48.5927],[7.8394,48.641],[7.9629,48.7212],[7.9721,48.758],[8.0137,48.7608],[8.031,48.7876],[8.0906,48.805],[8.1425,48.8974],[8.1973,48.9572],[8.2325,48.9664],[8.0878,48.9898],[7.934,49.0579],[7.8668,49.033],[7.7944,49.0658],[7.7599,49.0455],[7.6315,49.0549],[7.6297,49.0736],[7.5288,49.0971],[7.4895,49.1365],[7.506,49.1505],[7.4941,49.1696],[7.4325,49.1659],[7.4458,49.1843],[7.3654,49.1721],[7.3627,49.1432],[7.326,49.1434],[7.2936,49.115],[7.2453,49.13],[7.1587,49.1205],[7.104,49.1385],[7.1015,49.156],[7.0525,49.1128],[7.035,49.1914],[6.9382,49.2224],[6.838,49.2135],[6.8619,49.1791],[6.8342,49.1513],[6.7387,49.1636],[6.7113,49.1884],[6.7316,49.2059],[6.7233,49.2189],[6.6958,49.2152],[6.69,49.2496],[6.6614,49.2581],[6.6703,49.2802],[6.5662,49.3472],[6.6023,49.3671],[6.5407,49.4011],[6.5572,49.4194],[6.5412,49.4329],[6.4281,49.477],[6.334,49.4669],[6.2407,49.5149],[6.175,49.5103],[6.1594,49.4918],[6.128,49.4939],[6.1008,49.4529],[6.0581,49.4664],[6.0418,49.4479],[5.9803,49.4519],[5.973,49.4905],[5.9432,49.5002],[5.8663,49.4999],[5.8361,49.52],[5.8371,49.5426],[5.7744,49.5632],[5.7464,49.5395],[5.6426,49.5504],[5.611,49.506],[5.5567,49.5292],[5.465,49.4989],[5.4475,49.5179],[5.4653,49.5389],[5.4414,49.5523],[5.457,49.567],[5.4284,49.5961],[5.3522,49.631],[5.3121,49.6117],[5.3051,49.6303],[5.3322,49.6544],[5.2694,49.6962],[5.1643,49.6934],[5.1655,49.7122],[5.1259,49.7124],[5.0939,49.7638],[5.0131,49.7803],[4.9941,49.8008],[4.8517,49.7935],[4.8763,49.8198],[4.8475,49.868],[4.8902,49.909],[4.8471,49.949],[4.7902,49.969],[4.8417,50.0388],[4.8197,50.0661],[4.8379,50.0672],[4.8496,50.1011],[4.8724,50.0878],[4.867,50.1188],[4.8971,50.138],[4.8253,50.1691],[4.6797,50.068],[4.7,50.053],[4.6846,50.0271],[4.693,49.9955],[4.5818,49.9836],[4.5237,49.9502],[4.4456,49.9372],[4.3094,49.9696],[4.2332,49.9578],[4.2169,49.9141],[4.2558,49.904],[4.2528,49.8696],[4.2059,49.7782],[4.2496,49.7571],[4.1852,49.6989],[4.127,49.6779],[4.1157,49.6329],[4.0411,49.6383],[4.0245,49.6212],[4.0768,49.5707],[4.0487,49.5454],[4.0752,49.5416],[4.0758,49.5183],[4.0402,49.5063],[4.0415,49.4683],[4.0682,49.4456],[4.0372,49.4382],[4.0503,49.4123],[4.0358,49.3599],[3.9615,49.3773],[3.9247,49.4078],[3.8957,49.3929],[3.8226,49.4025],[3.8611,49.386],[3.8528,49.345],[3.7777,49.356],[3.6439,49.3127],[3.6651,49.2694],[3.6527,49.2544],[3.6783,49.2352],[3.6529,49.2155],[3.6817,49.1974],[3.6975,49.2066],[3.7114,49.1782],[3.7513,49.1778],[3.7488,49.1571],[3.7029,49.1415],[3.6215,49.1504],[3.5997,49.1207],[3.6389,49.0775],[3.5877,49.0594],[3.5851,49.039],[3.65,49.043],[3.6778,49.0139],[3.6401,49.0043],[3.5707,48.915],[3.5287,48.9122],[3.4814,48.8664],[3.487,48.8151],[3.4045,48.809],[3.4436,48.7909],[3.4082,48.7842],[3.3991,48.7549],[3.4697,48.7379],[3.4778,48.6979],[3.4406,48.6637],[3.4606,48.653],[3.4509,48.6347],[3.5336,48.6465],[3.5193,48.6331],[3.559,48.6177],[3.503,48.6046],[3.5163,48.5898],[3.4654,48.5705],[3.4818,48.5415],[3.4054,48.5279],[3.4352,48.4969],[3.3837,48.4796],[3.4074,48.4493],[3.3917,48.4232],[3.4223,48.4161],[3.4147,48.3902]]]},"properties":{"iso3":"FRA","shapeId":"19338628B74392602121343","regionId":"FRA.6_1","name":"Grand Est"}},{"type":"Feature","geometry":{"type":"MultiPolygon","coordinates":[[[[-2.3617,47.0432],[-2.3546,47.0382],[-2.3583,47.0428],[-2.3617,47.0432]]],[[[-2.6257,47.4101],[-2.6229,47.4093],[-2.6171,47.4116],[-2.6217,47.4138],[-2.6211,47.412],[-2.6257,47.4101]]],[[[-2.4007,46.7258],[-2.3808,46.6985],[-2.2826,46.6884],[-2.347,46.7298],[-2.4007,46.7258]]],[[[-2.5129,47.2959],[-2.511,47.2959],[-2.5116,47.297],[-2.5129,47.2959]]],[[[-2.1979,46.9511],[-2.1484,46.894],[-2.1569,46.9501],[-2.2304,46.9731],[-2.2247,46.9893],[-2.2466,46.9841],[-2.2339,46.9912],[-2.2476,46.9997],[-2.2193,46.9901],[-2.2222,47.0144],[-2.3075,47.0249],[-2.2923,47.0116],[-2.3022,46.99],[-2.264,46.9604],[-2.1979,46.9511]]],[[[0.7979,48.1948],[0.7577,48.1799],[0.6831,48.255],[0.6402,48.2614],[0.6339,48.2343],[0.5365,48.2493],[0.4935,48.2834],[0.5075,48.2953],[0.4902,48.3096],[0.4805,48.2985],[0.3957,48.3203],[0.3739,48.387],[0.3826,48.4251],[0.3568,48.4578],[0.3006,48.4806],[0.1459,48.4576],[0.1577,48.4408],[0.0705,48.4091],[0.0612,48.3798],[-0.0025,48.3975],[-0.0503,48.3752],[-0.051,48.453],[-0.1475,48.4569],[-0.1733,48.5098],[-0.1444,48.5277],[-0.2082,48.5642],[-0.2462,48.5664],[-0.2627,48.5484],[-0.2409,48.5369],[-0.2715,48.5074],[-0.3201,48.5231],[-0.3532,48.4837],[-0.3958,48.5104],[-0.5099,48.5091],[-0.5512,48.4733],[-0.6511,48.4439],[-0.6661,48.4859],[-0.6922,48.4681],[-0.7308,48.4732],[-0.7148,48.4491],[-0.7591,48.4362],[-0.7798,48.4461],[-0.7779,48.4655],[-0.8132,48.4552],[-0.8466,48.4996],[-0.9073,48.4962],[-0.9554,48.5173],[-1.0029,48.4891],[-1.0602,48.5155],[-1.0786,48.4903],[-1.0652,48.4514],[-1.0836,48.4337],[-1.0451,48.3278],[-1.102,48.2627],[-1.0497,48.09],[-1.0214,48.0684],[-1.035,48.0336],[-1.0156,48.0034],[-1.0493,47.9846],[-1.125,47.9868],[-1.1253,47.9716],[-1.1555,47.9654],[-1.1761,47.8974],[-1.1968,47.8891],[-1.1891,47.8672],[-1.2229,47.8524],[-1.216,47.8317],[-1.2461,47.7767],[-1.365,47.7987],[-1.3935,47.8293],[-1.4786,47.8358],[-1.4713,47.803],[-1.6231,47.7635],[-1.6576,47.7094],[-1.8593,47.7082],[-1.9565,47.6712],[-1.9736,47.6944],[-2.0908,47.6421],[-2.0988,47.5335],[-2.156,47.522],[-2.1642,47.4892],[-2.1922,47.4967],[-2.1846,47.5122],[-2.2438,47.4939],[-2.2656,47.5018],[-2.2549,47.5116],[-2.2985,47.5159],[-2.3172,47.4612],[-2.3986,47.456],[-2.4231,47.4772],[-2.4532,47.4625],[-2.4581,47.4235],[-2.4327,47.4139],[-2.4675,47.422],[-2.5596,47.3741],[-2.5078,47.3429],[-2.5146,47.3036],[-2.4731,47.2994],[-2.47,47.2841],[-2.5248,47.302],[-2.5475,47.2923],[-2.432,47.2581],[-2.4165,47.2607],[-2.4239,47.2837],[-2.3738,47.2783],[-2.2984,47.2332],[-2.187,47.2807],[-2.1704,47.2687],[-2.1815,47.2322],[-2.1579,47.1973],[-2.1697,47.1639],[-2.2471,47.1321],[-2.0988,47.1153],[-1.9755,47.0288],[-2.0292,47.0097],[-2.0462,46.978],[-2.0335,46.969],[-2.1148,46.8993],[-2.1563,46.889],[-2.1433,46.8219],[-2.0216,46.75],[-1.9659,46.6919],[-1.9343,46.6961],[-1.9543,46.691],[-1.8563,46.6089],[-1.803,46.4887],[-1.7894,46.5044],[-1.7918,46.4906],[-1.6454,46.434],[-1.6482,46.4198],[-1.5129,46.4034],[-1.4672,46.3428],[-1.3578,46.348],[-1.2656,46.2822],[-1.2977,46.2939],[-1.2839,46.2947],[-1.3317,46.3493],[-1.2076,46.2669],[-1.2028,46.3161],[-1.1648,46.3331],[-1.1399,46.3115],[-1.1151,46.3293],[-1.0965,46.3121],[-1.0537,46.3495],[-0.9748,46.3512],[-0.9294,46.3715],[-0.9631,46.3227],[-0.9324,46.3105],[-0.8872,46.3269],[-0.85,46.3177],[-0.8403,46.3405],[-0.8033,46.3429],[-0.8028,46.3253],[-0.7488,46.3017],[-0.6973,46.3251],[-0.6482,46.317],[-0.6031,46.3615],[-0.562,46.3596],[-0.5381,46.3864],[-0.6098,46.4137],[-0.6208,46.3907],[-0.6407,46.3972],[-0.6366,46.4323],[-0.6078,46.4546],[-0.6461,46.5121],[-0.6022,46.5334],[-0.6246,46.5752],[-0.614,46.6216],[-0.6589,46.636],[-0.637,46.6634],[-0.6811,46.687],[-0.6562,46.7008],[-0.7263,46.7651],[-0.6985,46.8107],[-0.7823,46.8432],[-0.8323,46.8846],[-0.8074,46.9201],[-0.9035,46.9716],[-0.8583,46.9693],[-0.7867,47.0055],[-0.7159,46.984],[-0.6718,47.0032],[-0.5955,46.9979],[-0.5423,47.0325],[-0.5576,47.0641],[-0.493,47.0834],[-0.4595,47.082],[-0.4803,47.0533],[-0.4071,47.0665],[-0.3962,47.0916],[-0.2626,47.1057],[-0.2061,47.0932],[-0.1803,47.1082],[-0.1401,47.0978],[-0.1792,47.0702],[-0.1288,47.0544],[-0.1021,47.0652],[-0.0859,47.101],[-0.0355,47.0867],[-0.0265,47.1061],[-0.0411,47.1137],[-0.0121,47.1564],[0.0632,47.1763],[0.0527,47.1967],[0.0792,47.2168],[0.0786,47.2839],[0.1475,47.346],[0.1404,47.3619],[0.183,47.3804],[0.1535,47.3988],[0.1809,47.4163],[0.1811,47.4533],[0.22,47.5019],[0.2261,47.5266],[0.1931,47.5381],[0.2346,47.5781],[0.2307,47.6108],[0.3784,47.5684],[0.4024,47.5784],[0.3647,47.6202],[0.3826,47.6434],[0.4501,47.6194],[0.464,47.6456],[0.6148,47.6829],[0.5812,47.7136],[0.6259,47.7515],[0.7038,47.7678],[0.6913,47.7834],[0.7747,47.8397],[0.7596,47.8996],[0.79,47.9121],[0.818,47.8928],[0.8136,47.9319],[0.8489,47.9414],[0.8187,47.9867],[0.8424,48.0302],[0.7975,48.0372],[0.7939,48.0697],[0.8436,48.073],[0.8482,48.0946],[0.8123,48.095],[0.8411,48.1029],[0.8501,48.1333],[0.9167,48.1389],[0.7979,48.1948]]]]},"properties":{"iso3":"FRA","shapeId":"19338628B99642989531496","regionId":"FRA.12_1","name":"Pays De La Loire"}},{"type":"Feature","geometry":{"type":"MultiPolygon","coordinates":[[[[-4.0148,47.7093],[-4.013,47.7087],[-4.0133,47.7099],[-4.0148,47.7093]]],[[[-3.4397,48.8991],[-3.4386,48.8973],[-3.4352,48.8998],[-3.4374,48.901],[-3.4397,48.8991]]],[[[-3.466,48.8904],[-3.4613,48.8912],[-3.464,48.8926],[-3.466,48.8904]]],[[[-4.0132,47.7166],[-4.0112,47.7157],[-4.007,47.7174],[-4.0113,47.7189],[-4.0132,47.7166]]],[[[-4.0408,48.7458],[-4.0355,48.7411],[-4.0332,48.7431],[-4.0302,48.7418],[-4.0287,48.7426],[-4.0226,48.7388],[-4.0201,48.7403],[-4.0185,48.7396],[-4.0172,48.7428],[-4.014,48.7415],[-4.0154,48.7437],[-4.0131,48.7444],[-4.0088,48.7429],[-4.008,48.7406],[-3.9952,48.7415],[-3.9937,48.737],[-3.9888,48.7394],[-3.9919,48.7432],[-3.9901,48.7454],[-3.9996,48.746],[-4.0047,48.7491],[-4.0067,48.753],[-4.0187,48.7519],[-4.0199,48.7535],[-4.0233,48.7534],[-4.0251,48.7493],[-4.027,48.7503],[-4.03,48.7488],[-4.032,48.7494],[-4.0327,48.7472],[-4.038,48.748],[-4.0408,48.7458]]],[[[-3.4949,48.879],[-3.4913,48.8774],[-3.488,48.8788],[-3.4905,48.8802],[-3.4949,48.879]]],[[[-3.4859,48.8819],[-3.475,48.8817],[-3.4765,48.8841],[-3.4821,48.8846],[-3.4856,48.8835],[-3.4859,48.8819]]],[[[-3.5018,48.8827],[-3.495,48.8829],[-3.5007,48.8837],[-3.5018,48.8827]]],[[[-4.0093,47.7232],[-3.9958,47.7232],[-3.9971,47.7254],[-4.0006,47.7259],[-4.0037,47.7238],[-4.0093,47.7232]]],[[[-4.8715,48.0405],[-4.8665,48.0372],[-4.8656,48.0401],[-4.8571,48.0393],[-4.854,48.0362],[-4.8558,48.0327],[-4.8529,48.0351],[-4.8515,48.0342],[-4.8536,48.0366],[-4.8487,48.0354],[-4.8517,48.0407],[-4.8547,48.0384],[-4.8565,48.0411],[-4.8626,48.0411],[-4.8666,48.0442],[-4.8715,48.0405]]],[[[-3.515,47.6475],[-3.4633,47.6203],[-3.4181,47.6256],[-3.4357,47.6446],[-3.515,47.6475]]],[[[-4.8405,48.0317],[-4.8382,48.0304],[-4.8358,48.0322],[-4.8405,48.0317]]],[[[-4.8503,48.0327],[-4.8496,48.0317],[-4.8443,48.0324],[-4.8503,48.0327]]],[[[-3.9719,48.7355],[-3.9704,48.7351],[-3.9698,48.7371],[-3.9719,48.7355]]],[[[-3.5328,48.8317],[-3.5314,48.8309],[-3.5306,48.832],[-3.5328,48.8317]]],[[[-3.4937,48.8359],[-3.4919,48.835],[-3.4922,48.8366],[-3.4937,48.8359]]],[[[-3.3172,47.7051],[-3.3151,47.7023],[-3.3125,47.7025],[-3.3129,47.7051],[-3.3172,47.7051]]],[[[-3.2987,47.7008],[-3.2956,47.6997],[-3.294,47.7007],[-3.2987,47.7008]]],[[[-3.9648,48.7143],[-3.9629,48.7153],[-3.9649,48.7184],[-3.9648,48.7143]]],[[[-3.5582,48.8036],[-3.5553,48.801],[-3.5541,48.8024],[-3.5559,48.8044],[-3.5582,48.8036]]],[[[-3.5331,48.8259],[-3.5307,48.8259],[-3.5325,48.8268],[-3.5331,48.8259]]],[[[-3.5483,48.8063],[-3.5477,48.8049],[-3.5463,48.8063],[-3.5483,48.8063]]],[[[-4.0311,47.7754],[-4.0271,47.7743],[-4.0285,47.7762],[-4.0311,47.7754]]],[[[-5.1413,48.4492],[-5.0956,48.4558],[-5.1182,48.4385],[-5.1028,48.4362],[-5.0343,48.4629],[-5.0744,48.4833],[-5.1413,48.4492]]],[[[-5.1043,48.4811],[-5.1021,48.4791],[-5.0963,48.4778],[-5.0895,48.48],[-5.0924,48.4802],[-5.0945,48.4823],[-5.1023,48.4811],[-5.1017,48.4831],[-5.1043,48.4811]]],[[[-4.7782,48.5293],[-4.7758,48.5269],[-4.773,48.5283],[-4.7738,48.5309],[-4.7782,48.5293]]],[[[-5.0734,48.4846],[-5.0727,48.4834],[-5.0716,48.4842],[-5.0734,48.4846]]],[[[-4.6375,48.6003],[-4.634,48.5988],[-4.6333,48.6001],[-4.6367,48.6023],[-4.6375,48.6003]]],[[[-4.6238,48.6011],[-4.6212,48.5996],[-4.6227,48.6019],[-4.6238,48.6011]]],[[[-4.073,48.7053],[-4.0698,48.7044],[-4.071,48.7053],[-4.0694,48.7057],[-4.0599,48.703],[-4.0598,48.7055],[-4.0645,48.7067],[-4.0708,48.707],[-4.073,48.7053]]],[[[-4.4375,48.6567],[-4.436,48.6561],[-4.4368,48.6584],[-4.4375,48.6567]]],[[[-3.8943,48.6908],[-3.8926,48.6903],[-3.8929,48.6914],[-3.8943,48.6908]]],[[[-3.2534,47.3883],[-3.2505,47.388],[-3.2514,47.3868],[-3.2487,47.3889],[-3.2528,47.3901],[-3.2534,47.3883]]],[[[-3.8029,47.784],[-3.799,47.7834],[-3.7998,47.7852],[-3.8029,47.784]]],[[[-4.4393,48.2247],[-4.4354,48.2238],[-4.4344,48.2279],[-4.4393,48.2247]]],[[[-5.0142,48.4262],[-5.0123,48.4242],[-5.0101,48.4266],[-5.0121,48.428],[-5.0111,48.4313],[-5.0128,48.431],[-5.0142,48.4262]]],[[[-4.9674,48.3982],[-4.9628,48.3912],[-4.959,48.3902],[-4.9538,48.3933],[-4.9548,48.398],[-4.9593,48.3999],[-4.9563,48.4025],[-4.9622,48.4013],[-4.9674,48.3982]]],[[[-4.9878,48.4156],[-4.9863,48.414],[-4.9828,48.4167],[-4.98,48.4158],[-4.9826,48.4207],[-4.9843,48.4185],[-4.9868,48.4187],[-4.9852,48.416],[-4.9878,48.4156]]],[[[-4.9788,48.418],[-4.9778,48.4172],[-4.9759,48.4186],[-4.9788,48.418]]],[[[-4.6199,48.5857],[-4.6169,48.5847],[-4.6148,48.5857],[-4.6158,48.5869],[-4.6199,48.5857]]],[[[-4.6943,48.5748],[-4.6912,48.5756],[-4.6923,48.5763],[-4.6943,48.5748]]],[[[-4.6657,48.5795],[-4.6644,48.5787],[-4.6644,48.5805],[-4.6657,48.5795]]],[[[-4.6703,48.5832],[-4.6721,48.5835],[-4.671,48.5823],[-4.6703,48.5832]]],[[[-3.5911,48.8018],[-3.5858,48.8005],[-3.5858,48.7954],[-3.5835,48.7941],[-3.5804,48.7986],[-3.5772,48.7985],[-3.579,48.7956],[-3.5705,48.7959],[-3.5686,48.7988],[-3.5652,48.7987],[-3.5624,48.8033],[-3.5652,48.8077],[-3.5675,48.8081],[-3.5752,48.8059],[-3.5763,48.8036],[-3.5795,48.8065],[-3.5827,48.8048],[-3.5872,48.8065],[-3.5849,48.8028],[-3.5911,48.8018]]],[[[-3.6028,48.7713],[-3.5993,48.7672],[-3.5911,48.7666],[-3.5976,48.7711],[-3.6028,48.7713]]],[[[-3.6026,48.8],[-3.5995,48.7967],[-3.5971,48.7978],[-3.5935,48.7956],[-3.5905,48.7961],[-3.5904,48.7975],[-3.5948,48.7983],[-3.5927,48.7988],[-3.5934,48.8015],[-3.5995,48.7989],[-3.6026,48.8]]],[[[-3.612,48.7954],[-3.6088,48.794],[-3.6052,48.7945],[-3.6107,48.7979],[-3.6099,48.7963],[-3.612,48.7954]]],[[[-4.0025,47.7078],[-4.0016,47.7064],[-3.9983,47.7071],[-4.0002,47.7047],[-3.9993,47.7015],[-3.9935,47.703],[-3.9909,47.7021],[-3.9926,47.7083],[-3.9961,47.7082],[-4.0,47.7107],[-4.0025,47.7078]]],[[[-3.9588,47.7139],[-3.9575,47.7119],[-3.9551,47.7126],[-3.9562,47.7149],[-3.9509,47.7202],[-3.9552,47.7246],[-3.9545,47.722],[-3.9583,47.7195],[-3.9588,47.7139]]],[[[-3.36,47.725],[-3.3577,47.7246],[-3.357,47.7275],[-3.36,47.725]]],[[[-3.9684,47.7133],[-3.9666,47.7117],[-3.965,47.7128],[-3.9684,47.7133]]],[[[-4.3395,48.1025],[-4.3383,48.1004],[-4.3357,48.1],[-4.3366,48.1027],[-4.3395,48.1025]]],[[[-4.8658,48.3419],[-4.8623,48.3408],[-4.8602,48.3423],[-4.8576,48.3416],[-4.8583,48.345],[-4.8564,48.347],[-4.842,48.3555],[-4.8481,48.357],[-4.8502,48.3536],[-4.858,48.3509],[-4.8594,48.3458],[-4.8632,48.3454],[-4.8658,48.3419]]],[[[-4.9114,48.3741],[-4.905,48.3721],[-4.9017,48.373],[-4.8942,48.3721],[-4.893,48.3733],[-4.8978,48.376],[-4.9035,48.3739],[-4.9083,48.3742],[-4.91,48.3762],[-4.9114,48.3741]]],[[[-4.9453,48.3698],[-4.9369,48.3712],[-4.9326,48.374],[-4.9358,48.3754],[-4.9401,48.3723],[-4.9438,48.372],[-4.9453,48.3698]]],[[[-4.9526,48.4005],[-4.9499,48.398],[-4.949,48.4],[-4.9454,48.4013],[-4.949,48.4027],[-4.9526,48.4005]]],[[[-4.9024,48.3837],[-4.898,48.3785],[-4.896,48.3806],[-4.8999,48.3836],[-4.9024,48.3837]]],[[[-4.8878,48.3748],[-4.8833,48.3743],[-4.8872,48.3773],[-4.8878,48.3748]]],[[[-4.9395,48.3785],[-4.9379,48.3785],[-4.9388,48.38],[-4.9395,48.3785]]],[[[-3.929,48.6922],[-3.9256,48.6899],[-3.9264,48.6858],[-3.9228,48.6837],[-3.9267,48.6808],[-3.9226,48.6799],[-3.9224,48.6831],[-3.9191,48.6838],[-3.9201,48.686],[-3.9225,48.6865],[-3.9211,48.6885],[-3.925,48.6899],[-3.9227,48.6928],[-3.9253,48.6962],[-3.9226,48.6979],[-3.9258,48.6996],[-3.9273,48.6976],[-3.9258,48.6963],[-3.9283,48.6952],[-3.929,48.6922]]],[[[-4.5751,48.6104],[-4.5719,48.6048],[-4.5693,48.6077],[-4.574,48.6114],[-4.5751,48.6104]]],[[[-4.5587,48.6297],[-4.5559,48.6275],[-4.551,48.6284],[-4.552,48.6295],[-4.5554,48.6293],[-4.555,48.6317],[-4.5585,48.631],[-4.5587,48.6297]]],[[[-4.5722,48.6381],[-4.5686,48.6374],[-4.5664,48.6394],[-4.5696,48.6404],[-4.5722,48.6381]]],[[[-4.5955,48.6257],[-4.5933,48.6223],[-4.592,48.6257],[-4.5955,48.6257]]],[[[-4.5763,48.6147],[-4.5745,48.615],[-4.5746,48.6188],[-4.5763,48.6147]]],[[[-4.4066,48.6393],[-4.4044,48.6389],[-4.403,48.6403],[-4.4066,48.6393]]],[[[-4.5878,48.6067],[-4.5863,48.6055],[-4.5848,48.6066],[-4.5878,48.6067]]],[[[-4.5731,48.6212],[-4.5706,48.6209],[-4.5715,48.6226],[-4.5731,48.6212]]],[[[-3.8664,48.6771],[-3.8652,48.6755],[-3.8631,48.6763],[-3.8664,48.6771]]],[[[-4.5742,48.6353],[-4.572,48.6334],[-4.5719,48.635],[-4.5742,48.6353]]],[[[-4.1932,47.8644],[-4.1781,47.8506],[-4.1762,47.855],[-4.1836,47.8634],[-4.1819,47.8674],[-4.1859,47.8673],[-4.1864,47.8659],[-4.1882,47.8672],[-4.1932,47.8644]]],[[[-4.1844,47.8451],[-4.1765,47.8406],[-4.1766,47.8438],[-4.1814,47.8474],[-4.1844,47.8451]]],[[[-3.9165,47.8717],[-3.9129,47.8712],[-3.9116,47.8729],[-3.9165,47.8717]]],[[[-4.1865,47.8504],[-4.1835,47.8491],[-4.1837,47.8507],[-4.1865,47.8504]]],[[[-4.7787,48.4858],[-4.7766,48.4837],[-4.7774,48.487],[-4.7787,48.4858]]],[[[-4.2819,48.2833],[-4.2778,48.2819],[-4.2769,48.2833],[-4.2801,48.2852],[-4.2819,48.2833]]],[[[-4.5321,48.3036],[-4.5293,48.3046],[-4.529,48.307],[-4.5321,48.3036]]],[[[-4.539,48.3022],[-4.5347,48.3032],[-4.5377,48.3043],[-4.539,48.3022]]],[[[-4.4633,48.3243],[-4.4626,48.3228],[-4.4616,48.3242],[-4.4633,48.3243]]],[[[-3.0174,47.4113],[-3.0136,47.4117],[-3.0159,47.4125],[-3.0174,47.4113]]],[[[-2.9992,47.3944],[-2.9973,47.393],[-2.9954,47.3948],[-2.9992,47.3944]]],[[[-1.8276,48.6808],[-1.8261,48.6809],[-1.8265,48.6836],[-1.8276,48.6808]]],[[[-2.9825,48.8469],[-2.9785,48.8455],[-2.9806,48.8483],[-2.9824,48.8485],[-2.9825,48.8469]]],[[[-2.9834,48.8594],[-2.9812,48.8586],[-2.9805,48.8611],[-2.9834,48.8594]]],[[[-2.9734,47.3568],[-2.9698,47.3554],[-2.9688,47.3574],[-2.9708,47.3581],[-2.9734,47.3568]]],[[[-2.8963,48.7022],[-2.8951,48.7015],[-2.8949,48.7029],[-2.8963,48.7022]]],[[[-2.9529,48.7791],[-2.9486,48.7783],[-2.9461,48.7804],[-2.9529,48.7791]]],[[[-2.9509,48.7744],[-2.9483,48.775],[-2.9499,48.7756],[-2.9509,48.7744]]],[[[-2.9856,48.797],[-2.9823,48.7961],[-2.9759,48.7979],[-2.9797,48.7983],[-2.9803,48.7998],[-2.9856,48.797]]],[[[-2.8918,47.3461],[-2.8822,47.3295],[-2.8608,47.3412],[-2.8918,47.3461]]],[[[-2.9492,47.3742],[-2.9479,47.3736],[-2.9483,47.375],[-2.9492,47.3742]]],[[[-2.9951,47.394],[-2.9502,47.3751],[-2.9378,47.3929],[-2.9951,47.394]]],[[[-2.162,48.6382],[-2.1593,48.6372],[-2.1566,48.6411],[-2.162,48.6382]]],[[[-2.0343,48.6523],[-2.0327,48.6513],[-2.0324,48.6528],[-2.0343,48.6523]]],[[[-2.4757,48.63],[-2.4737,48.6291],[-2.4749,48.6308],[-2.4757,48.63]]],[[[-3.0139,48.8502],[-3.0119,48.8479],[-3.0077,48.8473],[-3.0107,48.8443],[-3.0112,48.8416],[-3.0091,48.8402],[-3.0112,48.837],[-3.0082,48.8366],[-3.0039,48.8408],[-3.0017,48.8385],[-3.0023,48.8364],[-2.9962,48.8385],[-2.9987,48.8457],[-2.9933,48.8482],[-2.9943,48.8502],[-3.0024,48.8492],[-3.0076,48.8517],[-3.0136,48.8515],[-3.0139,48.8502]]],[[[-3.0134,48.8574],[-3.0094,48.8536],[-3.0043,48.8527],[-3.0022,48.8549],[-3.0002,48.8546],[-2.9977,48.8507],[-2.9938,48.8553],[-2.9956,48.8597],[-2.9923,48.8609],[-2.9868,48.8593],[-2.9846,48.8621],[-2.9857,48.8655],[-2.9897,48.8635],[-2.9952,48.8644],[-2.9988,48.863],[-2.9999,48.8597],[-3.0048,48.8591],[-3.0063,48.8602],[-3.0134,48.8574]]],[[[-3.0218,48.843],[-3.0197,48.8425],[-3.0202,48.8392],[-3.0168,48.8389],[-3.0152,48.8444],[-3.0188,48.8452],[-3.0218,48.843]]],[[[-2.9936,48.8385],[-2.991,48.8382],[-2.9882,48.8401],[-2.9913,48.8402],[-2.992,48.842],[-2.9936,48.8385]]],[[[-2.9917,48.846],[-2.9871,48.8463],[-2.9868,48.8491],[-2.9917,48.846]]],[[[-3.0216,48.8371],[-3.0197,48.8346],[-3.0178,48.8363],[-3.0216,48.8371]]],[[[-3.2739,48.839],[-3.2714,48.8388],[-3.2727,48.8408],[-3.2739,48.839]]],[[[-3.2953,48.8387],[-3.2917,48.8377],[-3.2936,48.8397],[-3.2953,48.8387]]],[[[-2.9873,48.845],[-2.9834,48.8453],[-2.9864,48.846],[-2.9873,48.845]]],[[[-2.7711,47.6103],[-2.7699,47.6055],[-2.7599,47.6064],[-2.7534,47.6023],[-2.7526,47.6045],[-2.7564,47.6077],[-2.7614,47.6074],[-2.7651,47.6101],[-2.7674,47.6084],[-2.7682,47.6125],[-2.7687,47.6106],[-2.7711,47.6103]]],[[[-2.7866,47.6161],[-2.7742,47.6133],[-2.7748,47.615],[-2.7795,47.6149],[-2.7851,47.6181],[-2.7844,47.6162],[-2.7866,47.6161]]],[[[-2.8524,47.6116],[-2.847,47.6096],[-2.8455,47.6112],[-2.8503,47.6133],[-2.8524,47.6116]]],[[[-2.8131,47.5984],[-2.8106,47.5948],[-2.8065,47.596],[-2.8131,47.5984]]],[[[-2.806,47.6085],[-2.8048,47.6074],[-2.8003,47.6081],[-2.8013,47.6096],[-2.806,47.6085]]],[[[-2.9332,47.5849],[-2.9296,47.5839],[-2.928,47.5857],[-2.9332,47.5849]]],[[[-2.7263,47.5998],[-2.7236,47.5986],[-2.7224,47.6002],[-2.7263,47.5998]]],[[[-2.0754,48.6759],[-2.0724,48.6752],[-2.0679,48.6772],[-2.0689,48.679],[-2.0754,48.6759]]],[[[-1.955,48.6991],[-1.9538,48.6977],[-1.9528,48.6991],[-1.955,48.6991]]],[[[-3.1952,48.874],[-3.1917,48.8715],[-3.1886,48.8726],[-3.1893,48.8735],[-3.1838,48.8722],[-3.1823,48.8655],[-3.184,48.8643],[-3.1879,48.8648],[-3.1838,48.8636],[-3.1802,48.8657],[-3.1829,48.8691],[-3.1806,48.8711],[-3.182,48.8743],[-3.1851,48.8757],[-3.1893,48.8736],[-3.1906,48.8752],[-3.1928,48.8744],[-3.1945,48.8755],[-3.1952,48.874]]],[[[-3.0453,48.8591],[-3.0397,48.8594],[-3.0385,48.8613],[-3.0323,48.8631],[-3.0375,48.8639],[-3.0453,48.8591]]],[[[-3.2889,48.8504],[-3.291,48.8521],[-3.2927,48.8514],[-3.2902,48.8479],[-3.288,48.8469],[-3.2855,48.8466],[-3.2831,48.8469],[-3.2792,48.8487],[-3.2772,48.8469],[-3.2781,48.8446],[-3.2831,48.8461],[-3.284,48.8449],[-3.2817,48.8438],[-3.2757,48.8448],[-3.2788,48.8494],[-3.2828,48.8471],[-3.2869,48.8468],[-3.2886,48.8472],[-3.2905,48.8485],[-3.2889,48.8504]]],[[[-3.1981,48.8641],[-3.1952,48.8631],[-3.1952,48.8665],[-3.1919,48.867],[-3.196,48.8678],[-3.1981,48.8641]]],[[[-3.2048,48.8539],[-3.2028,48.8498],[-3.2015,48.853],[-3.2048,48.8539]]],[[[-3.2624,48.8547],[-3.2593,48.8533],[-3.2615,48.8505],[-3.2602,48.8494],[-3.2578,48.8541],[-3.2617,48.8558],[-3.2624,48.8547]]],[[[-2.8623,47.5688],[-2.824,47.5887],[-2.8378,47.6074],[-2.8623,47.5688]]],[[[-2.8168,47.5853],[-2.7743,47.5948],[-2.7933,47.6061],[-2.8168,47.5853]]],[[[-2.7387,47.5838],[-2.738,47.5807],[-2.7333,47.5788],[-2.7273,47.5728],[-2.7239,47.5771],[-2.7302,47.5816],[-2.737,47.5844],[-2.7387,47.5838]]],[[[-2.7953,47.5711],[-2.7859,47.5687],[-2.7895,47.5714],[-2.7861,47.5755],[-2.7913,47.577],[-2.7895,47.5791],[-2.7911,47.5801],[-2.7941,47.5793],[-2.792,47.5777],[-2.7953,47.5711]]],[[[-2.8914,47.5751],[-2.8896,47.5746],[-2.885,47.5785],[-2.8863,47.5807],[-2.8847,47.5825],[-2.8862,47.5814],[-2.8897,47.5825],[-2.8914,47.5751]]],[[[-2.9114,47.5754],[-2.9098,47.5676],[-2.9081,47.5669],[-2.9064,47.5684],[-2.9085,47.5696],[-2.9089,47.5773],[-2.9114,47.5754]]],[[[-2.9009,47.5721],[-2.8993,47.5711],[-2.8958,47.5726],[-2.8971,47.5773],[-2.9009,47.5721]]],[[[-2.8477,47.5543],[-2.8441,47.5555],[-2.843,47.5608],[-2.8477,47.5543]]],[[[-2.7953,47.5646],[-2.7919,47.5623],[-2.7889,47.5625],[-2.7939,47.5668],[-2.7953,47.5646]]],[[[-2.8899,47.5665],[-2.8888,47.5654],[-2.8865,47.567],[-2.8872,47.5719],[-2.8899,47.5665]]],[[[-2.9305,47.5808],[-2.929,47.5775],[-2.9264,47.5782],[-2.9284,47.5811],[-2.9305,47.5808]]],[[[-2.8327,47.5589],[-2.8311,47.5569],[-2.8289,47.5574],[-2.8309,47.5605],[-2.8327,47.5589]]],[[[-2.8098,47.5636],[-2.807,47.5638],[-2.8051,47.561],[-2.8046,47.5666],[-2.8098,47.5636]]],[[[-2.7501,47.5764],[-2.7472,47.5753],[-2.747,47.5786],[-2.7501,47.5764]]],[[[-2.8509,47.562],[-2.8487,47.5605],[-2.8467,47.5616],[-2.8498,47.563],[-2.8509,47.562]]],[[[-2.8696,47.5771],[-2.8664,47.5781],[-2.8682,47.5791],[-2.8696,47.5771]]],[[[-2.7647,47.5917],[-2.7628,47.5907],[-2.762,47.5921],[-2.7647,47.5917]]],[[[-2.924,47.5746],[-2.9213,47.5722],[-2.9227,47.5754],[-2.924,47.5746]]],[[[-2.9145,47.5794],[-2.9141,47.5777],[-2.9124,47.5781],[-2.9145,47.5794]]],[[[-2.9491,47.5281],[-2.9459,47.5281],[-2.9454,47.5297],[-2.9491,47.5281]]],[[[-2.9378,47.5825],[-2.9365,47.5822],[-2.9372,47.5833],[-2.9378,47.5825]]],[[[-2.1962,48.6206],[-2.194,48.6183],[-2.1929,48.6214],[-2.1874,48.6217],[-2.1868,48.6269],[-2.1893,48.6275],[-2.1911,48.6237],[-2.1962,48.6206]]],[[[-1.9902,48.591],[-1.988,48.5903],[-1.9886,48.5918],[-1.9902,48.591]]],[[[-2.1548,48.6206],[-2.1525,48.6199],[-2.1525,48.6211],[-2.1548,48.6206]]],[[[-3.4108,48.8394],[-3.4086,48.8378],[-3.4066,48.8304],[-3.4046,48.8333],[-3.4086,48.843],[-3.4112,48.8426],[-3.4095,48.8412],[-3.4108,48.8394]]],[[[-3.298,48.8455],[-3.293,48.8436],[-3.2963,48.8466],[-3.298,48.8455]]],[[[-3.3241,48.8417],[-3.3199,48.8406],[-3.3228,48.8431],[-3.3241,48.8417]]],[[[-3.3224,48.845],[-3.3191,48.8448],[-3.3193,48.8459],[-3.3224,48.845]]],[[[-3.3013,48.8468],[-3.3035,48.848],[-3.3024,48.8497],[-3.3037,48.8488],[-3.3069,48.8493],[-3.308,48.8493],[-3.3095,48.8489],[-3.3106,48.8479],[-3.3108,48.8467],[-3.3079,48.8433],[-3.3054,48.8436],[-3.3082,48.8441],[-3.3047,48.8457],[-3.3017,48.8446],[-3.3013,48.8468]],[[-3.3052,48.8476],[-3.3058,48.8453],[-3.3069,48.8473],[-3.3104,48.8466],[-3.3092,48.8471],[-3.3102,48.8479],[-3.3088,48.849],[-3.3083,48.8488],[-3.3082,48.8492],[-3.3071,48.8491],[-3.3067,48.8482],[-3.3043,48.8488],[-3.3052,48.8476]]],[[[-3.3037,48.8505],[-3.3007,48.8492],[-3.3026,48.8525],[-3.3037,48.8505]]],[[[-3.2981,48.8489],[-3.2953,48.8479],[-3.2965,48.8495],[-3.2981,48.8489]]],[[[-3.1583,47.2925],[-3.093,47.2779],[-3.0559,47.3082],[-3.1477,47.3327],[-3.1573,47.3646],[-3.2184,47.3631],[-3.2185,47.3792],[-3.2491,47.3877],[-3.2637,47.3519],[-3.2364,47.3274],[-3.2444,47.3087],[-3.1583,47.2925]]],[[[-3.1974,47.2929],[-3.1953,47.2918],[-3.1944,47.2932],[-3.1974,47.2929]]],[[[-3.1695,47.6869],[-3.1702,47.6889],[-3.1729,47.6873],[-3.1717,47.6856],[-3.1695,47.6869]]],[[[-3.1773,47.6881],[-3.1785,47.6897],[-3.1794,47.6859],[-3.176,47.6866],[-3.1773,47.6881]]],[[[-3.167,47.5572],[-3.1653,47.5548],[-3.1631,47.5552],[-3.1652,47.5576],[-3.167,47.5572]]],[[[-3.1837,47.687],[-3.1861,47.6879],[-3.1854,47.6862],[-3.1837,47.687]]],[[[-3.1995,47.6082],[-3.1981,47.6079],[-3.1995,47.6103],[-3.1995,47.6082]]],[[[-3.1747,47.6864],[-3.175,47.6874],[-3.1761,47.6853],[-3.1747,47.6864]]],[[[-1.5709,48.6262],[-1.8224,48.6102],[-1.8721,48.6465],[-1.8357,48.6806],[-1.8436,48.7126],[-1.9046,48.6899],[-1.9369,48.7027],[-1.96,48.6894],[-1.9369,48.6841],[-1.9891,48.6843],[-1.9897,48.6637],[-2.0319,48.6421],[-2.001,48.6153],[-2.0125,48.5983],[-1.9621,48.5933],[-1.9546,48.5759],[-1.9872,48.5846],[-1.9605,48.5504],[-1.9698,48.5357],[-1.9406,48.5357],[-1.9432,48.5186],[-1.9654,48.5273],[-2.0008,48.4911],[-1.9824,48.5],[-1.9964,48.5229],[-1.9736,48.5449],[-2.0132,48.571],[-1.9956,48.5824],[-2.0358,48.6002],[-2.0297,48.6239],[-2.0546,48.6262],[-2.0474,48.639],[-2.1505,48.6351],[-2.1233,48.6051],[-2.1503,48.6183],[-2.1721,48.5964],[-2.1536,48.5872],[-2.1658,48.577],[-2.1845,48.5784],[-2.1961,48.6104],[-2.2261,48.538],[-2.21,48.5865],[-2.2458,48.6154],[-2.2431,48.6448],[-2.3135,48.61],[-2.3377,48.6198],[-2.2838,48.6688],[-2.3107,48.6704],[-2.3181,48.6885],[-2.4158,48.6322],[-2.4372,48.6525],[-2.4881,48.6454],[-2.4678,48.6357],[-2.4737,48.6221],[-2.5542,48.5995],[-2.5637,48.5761],[-2.6325,48.5375],[-2.6225,48.5203],[-2.6822,48.5323],[-2.6723,48.486],[-2.7103,48.533],[-2.7384,48.5274],[-2.7135,48.5556],[-2.8214,48.5943],[-2.8171,48.6496],[-2.9453,48.7208],[-2.9284,48.7546],[-3.0457,48.7848],[-3.0049,48.7991],[-3.0126,48.8212],[-3.0837,48.8128],[-3.0987,48.7687],[-3.1489,48.7355],[-3.0846,48.7172],[-3.1318,48.7265],[-3.1405,48.7107],[-3.1306,48.7218],[-3.1484,48.7473],[-3.0718,48.8308],[-3.1,48.8309],[-3.0836,48.8478],[-3.0934,48.8611],[-3.0762,48.8563],[-3.1017,48.8668],[-3.0723,48.8837],[-3.1825,48.8436],[-3.2236,48.7964],[-3.1991,48.7644],[-3.2205,48.7719],[-3.2501,48.7511],[-3.2216,48.7847],[-3.2519,48.7888],[-3.2034,48.8245],[-3.2243,48.8698],[-3.2638,48.8344],[-3.3198,48.8386],[-3.4304,48.7972],[-3.4431,48.8034],[-3.4281,48.8215],[-3.4589,48.8163],[-3.4763,48.8379],[-3.5028,48.824],[-3.5047,48.8404],[-3.5259,48.8302],[-3.519,48.8189],[-3.5418,48.8229],[-3.535,48.8018],[-3.5845,48.7904],[-3.5849,48.7576],[-3.5619,48.759],[-3.5503,48.7332],[-3.465,48.7315],[-3.5829,48.7256],[-3.5726,48.6755],[-3.61,48.6697],[-3.6234,48.6866],[-3.6596,48.6561],[-3.6393,48.6734],[-3.6547,48.682],[-3.6436,48.6967],[-3.6805,48.6866],[-3.8212,48.7188],[-3.8208,48.7011],[-3.8312,48.7143],[-3.8551,48.6895],[-3.8462,48.6609],[-3.8647,48.671],[-3.8494,48.6035],[-3.8702,48.6042],[-3.8595,48.632],[-3.9053,48.6581],[-3.8908,48.6711],[-3.9221,48.6758],[-3.9561,48.6465],[-3.9696,48.7275],[-4.0534,48.7062],[-4.0564,48.6868],[-4.0357,48.6879],[-4.07,48.6879],[-4.0561,48.6693],[-4.0829,48.6937],[-4.1299,48.697],[-4.188,48.6864],[-4.2223,48.6588],[-4.1944,48.6519],[-4.2746,48.6498],[-4.2967,48.6326],[-4.3188,48.6465],[-4.2963,48.6648],[-4.3469,48.6784],[-4.4376,48.6529],[-4.3986,48.6362],[-4.4489,48.6435],[-4.5004,48.621],[-4.5422,48.6373],[-4.5686,48.6093],[-4.5152,48.5866],[-4.5956,48.5933],[-4.5981,48.6084],[-4.6123,48.5782],[-4.5051,48.5459],[-4.5949,48.5532],[-4.596,48.5711],[-4.6261,48.5789],[-4.7049,48.5701],[-4.7043,48.5501],[-4.731,48.5562],[-4.778,48.5165],[-4.7636,48.4721],[-4.7167,48.4687],[-4.7715,48.4633],[-4.7953,48.413],[-4.7611,48.3787],[-4.7896,48.3624],[-4.766,48.3636],[-4.7815,48.3587],[-4.7741,48.3308],[-4.7166,48.3291],[-4.691,48.3547],[-4.6145,48.3373],[-4.4907,48.3684],[-4.5238,48.3658],[-4.5054,48.379],[-4.4017,48.3898],[-4.2699,48.4452],[-4.4078,48.3812],[-4.4589,48.3269],[-4.3977,48.3424],[-4.4181,48.3245],[-4.3778,48.3254],[-4.3405,48.3585],[-4.3552,48.3433],[-4.2612,48.3608],[-4.3367,48.3148],[-4.242,48.3287],[-4.282,48.3126],[-4.181,48.2965],[-4.2799,48.279],[-4.24,48.2541],[-4.2139,48.2602],[-4.207,48.2396],[-4.2182,48.2586],[-4.2706,48.2581],[-4.2553,48.263],[-4.2892,48.2813],[-4.2643,48.2925],[-4.2885,48.2988],[-4.3975,48.2747],[-4.4191,48.2938],[-4.5037,48.2812],[-4.5183,48.2945],[-4.5062,48.3109],[-4.5359,48.2841],[-4.5565,48.3003],[-4.5322,48.3417],[-4.5785,48.3249],[-4.5704,48.282],[-4.6306,48.2799],[-4.6154,48.2739],[-4.6225,48.2526],[-4.5441,48.2492],[-4.5735,48.2358],[-4.5521,48.2089],[-4.554,48.1678],[-4.4882,48.2363],[-4.3163,48.2039],[-4.2678,48.1305],[-4.2967,48.092],[-4.416,48.1068],[-4.7146,48.0651],[-4.7068,48.0448],[-4.7411,48.0404],[-4.6325,48.0293],[-4.5661,47.9997],[-4.5354,48.0247],[-4.5349,48.0097],[-4.451,47.9811],[-4.3624,47.8895],[-4.3462,47.8398],[-4.3814,47.821],[-4.3748,47.7974],[-4.224,47.7916],[-4.1735,47.8068],[-4.1591,47.8314],[-4.2222,47.8681],[-4.1967,47.858],[-4.195,47.8762],[-4.1677,47.875],[-4.169,47.8393],[-4.1131,47.8623],[-4.1305,47.89],[-4.1764,47.9072],[-4.1457,47.8973],[-4.141,47.9264],[-4.1116,47.9361],[-4.1232,47.9538],[-4.101,47.9707],[-4.1156,47.9839],[-4.0958,47.9697],[-4.1097,47.9425],[-4.0816,47.9554],[-4.0955,47.9415],[-4.0686,47.9329],[-4.1084,47.9423],[-4.1395,47.9256],[-4.1414,47.9004],[-4.1166,47.8961],[-4.0986,47.8624],[-4.0675,47.8708],[-4.0457,47.8528],[-4.0888,47.8624],[-4.0404,47.8444],[-3.976,47.8542],[-3.9901,47.883],[-3.9725,47.891],[-3.992,47.8967],[-3.946,47.9051],[-3.93,47.8711],[-3.9056,47.8771],[-3.8987,47.8589],[-3.9191,47.8559],[-3.8867,47.8493],[-3.9018,47.8344],[-3.8439,47.8056],[-3.8554,47.7901],[-3.7424,47.797],[-3.7587,47.8164],[-3.7475,47.8532],[-3.7326,47.8031],[-3.6986,47.8319],[-3.6512,47.8217],[-3.7231,47.8028],[-3.6776,47.7755],[-3.6382,47.7929],[-3.6454,47.774],[-3.5395,47.7626],[-3.5232,47.7978],[-3.5301,47.7658],[-3.453,47.6954],[-3.3805,47.705],[-3.3501,47.742],[-3.3649,47.7609],[-3.3333,47.7432],[-3.2761,47.7985],[-3.2929,47.7874],[-3.2849,47.7694],[-3.3631,47.7088],[-3.2896,47.7084],[-3.281,47.6863],[-3.3267,47.7022],[-3.3606,47.6861],[-3.2933,47.6872],[-3.214,47.6439],[-3.2174,47.6739],[-3.1983,47.6831],[-3.2161,47.6958],[-3.1512,47.6927],[-3.2085,47.67],[-3.1871,47.6612],[-3.2065,47.6647],[-3.2104,47.6437],[-3.14,47.5798],[-3.1347,47.5444],[-3.1624,47.5298],[-3.1305,47.4732],[-3.0794,47.469],[-3.1267,47.5135],[-3.1341,47.544],[-3.115,47.5762],[-3.1313,47.5749],[-3.1291,47.598],[-3.0922,47.5796],[-3.1061,47.5772],[-3.0961,47.5636],[-3.0532,47.5693],[-3.0429,47.5878],[-3.0184,47.567],[-3.0249,47.5924],[-2.9875,47.5661],[-2.9949,47.5911],[-2.9757,47.5587],[-2.9284,47.554],[-2.9649,47.5881],[-2.9542,47.5974],[-2.9721,47.6075],[-2.9534,47.6125],[-2.9769,47.6598],[-2.9586,47.6274],[-2.9351,47.6253],[-2.9504,47.6071],[-2.9186,47.5823],[-2.8906,47.5818],[-2.8875,47.6037],[-2.8624,47.5969],[-2.8601,47.623],[-2.8359,47.6126],[-2.745,47.6322],[-2.734,47.6129],[-2.7796,47.6222],[-2.7176,47.5986],[-2.7302,47.5426],[-2.768,47.5357],[-2.7875,47.5528],[-2.7995,47.5372],[-2.824,47.5569],[-2.8178,47.5424],[-2.8537,47.5366],[-2.8785,47.564],[-2.9144,47.5572],[-2.9122,47.5421],[-2.8902,47.5447],[-2.9036,47.5344],[-2.8473,47.5194],[-2.8349,47.4918],[-2.7941,47.4841],[-2.7248,47.5069],[-2.6751,47.4919],[-2.6633,47.5194],[-2.6323,47.5039],[-2.5206,47.5273],[-2.4393,47.4984],[-2.3822,47.5007],[-2.4985,47.4949],[-2.5006,47.4586],[-2.4802,47.4413],[-2.4231,47.4772],[-2.3986,47.456],[-2.3172,47.4612],[-2.2985,47.5159],[-2.2549,47.5116],[-2.2656,47.5018],[-2.2438,47.4939],[-2.1846,47.5122],[-2.1922,47.4967],[-2.1642,47.4892],[-2.156,47.522],[-2.0988,47.5335],[-2.1036,47.5926],[-2.0861,47.6041],[-2.0967,47.6321],[-2.0817,47.65],[-1.9736,47.6944],[-1.9565,47.6712],[-1.8593,47.7082],[-1.6576,47.7094],[-1.6231,47.7635],[-1.4713,47.803],[-1.4786,47.8358],[-1.3935,47.8293],[-1.365,47.7987],[-1.2461,47.7767],[-1.216,47.8317],[-1.2229,47.8524],[-1.1891,47.8672],[-1.1968,47.8891],[-1.1761,47.8974],[-1.1555,47.9654],[-1.1253,47.9716],[-1.125,47.9868],[-1.0199,47.9971],[-1.035,48.0336],[-1.0214,48.0684],[-1.0497,48.09],[-1.102,48.2627],[-1.0451,48.3278],[-1.0836,48.4337],[-1.0652,48.4514],[-1.0701,48.5088],[-1.2519,48.5438],[-1.279,48.5093],[-1.3268,48.4987],[-1.3698,48.4604],[-1.428,48.4617],[-1.4498,48.4875],[-1.4899,48.4893],[-1.533,48.5462],[-1.519,48.5667],[-1.5431,48.5799],[-1.5373,48.5989],[-1.5709,48.6262]]]]},"properties":{"iso3":"FRA","shapeId":"19338628B64983593182368","regionId":"FRA.3_1","name":"Bretagne"}},{"type":"Feature","geometry":{"type":"MultiPolygon","coordinates":[[[[-1.1567,45.6045],[-1.1515,45.5979],[-1.1497,45.5984],[-1.1472,45.6019],[-1.1535,45.6048],[-1.1567,45.6045]]],[[[-1.2568,44.5675],[-1.2552,44.5666],[-1.2544,44.5681],[-1.2536,44.5654],[-1.2454,44.5691],[-1.2447,44.5712],[-1.2462,44.5688],[-1.2508,44.5698],[-1.2529,44.5721],[-1.2482,44.5749],[-1.2473,44.5772],[-1.2443,44.5775],[-1.2468,44.5778],[-1.2439,44.5793],[-1.2376,44.5885],[-1.2539,44.5718],[-1.2568,44.5675]]],[[[-1.2371,44.59],[-1.2361,44.5891],[-1.2343,44.5931],[-1.2291,44.5948],[-1.2292,44.5959],[-1.2279,44.5949],[-1.2283,44.5968],[-1.2268,44.5962],[-1.2275,44.5972],[-1.2234,44.5982],[-1.2281,44.5977],[-1.235,44.593],[-1.2371,44.59]]],[[[-1.2476,44.5969],[-1.2426,44.5952],[-1.2458,44.5975],[-1.2476,44.5969]]],[[[-1.2441,44.5776],[-1.242,44.5777],[-1.2435,44.5786],[-1.2441,44.5776]]],[[[-1.4125,46.1844],[-1.3143,46.1438],[-1.2545,46.162],[-1.3545,46.206],[-1.4394,46.2101],[-1.4146,46.2306],[-1.4651,46.229],[-1.497,46.2033],[-1.5153,46.2349],[-1.4742,46.233],[-1.5005,46.258],[-1.5626,46.2448],[-1.5349,46.2023],[-1.4125,46.1844]]],[[[-1.1887,44.7],[-1.1902,44.6997],[-1.1885,44.698],[-1.1841,44.697],[-1.1846,44.6936],[-1.1806,44.6921],[-1.1785,44.6941],[-1.178,44.6925],[-1.1732,44.6928],[-1.1663,44.6956],[-1.1681,44.6985],[-1.1706,44.6977],[-1.1675,44.6992],[-1.1683,44.7019],[-1.171,44.7011],[-1.1695,44.7025],[-1.176,44.7045],[-1.1846,44.7042],[-1.1887,44.7]]],[[[-1.0163,44.6553],[-1.0263,44.6624],[-1.0289,44.6612],[-1.0286,44.6559],[-1.0327,44.6518],[-1.0321,44.6501],[-1.0298,44.6488],[-1.0238,44.6525],[-1.0206,44.6494],[-1.0145,44.6507],[-1.0131,44.6496],[-1.0111,44.6502],[-1.0163,44.6553]]],[[[-1.0205,44.6473],[-1.0244,44.6503],[-1.0269,44.6503],[-1.0258,44.6442],[-1.0222,44.6446],[-1.0205,44.6473]]],[[[-1.3873,45.9968],[-1.3868,45.9537],[-1.2683,45.8811],[-1.2345,45.804],[-1.1954,45.8291],[-1.2115,45.8503],[-1.1879,45.8866],[-1.2342,45.9247],[-1.2364,45.9849],[-1.3102,45.9919],[-1.3675,46.0381],[-1.4113,46.0479],[-1.3873,45.9968]]],[[[-1.1792,46.0121],[-1.1773,46.011],[-1.1783,46.0089],[-1.1748,46.008],[-1.1751,46.01],[-1.1698,46.0144],[-1.1718,46.0146],[-1.1714,46.0187],[-1.1664,46.0198],[-1.1641,46.0185],[-1.1566,46.0182],[-1.1546,46.0195],[-1.1581,46.0225],[-1.1678,46.0258],[-1.1716,46.024],[-1.1745,46.0243],[-1.1792,46.0121]]],[[[-1.1205,45.9607],[-1.1166,45.9522],[-1.1135,45.9523],[-1.1101,45.9545],[-1.1053,45.954],[-1.1131,45.9619],[-1.1205,45.9607]]],[[[0.0539,47.1637],[0.0189,47.176],[-0.0018,47.1637],[-0.0361,47.1252],[-0.0355,47.0867],[-0.0859,47.101],[-0.1021,47.0652],[-0.1288,47.0544],[-0.1792,47.0702],[-0.1401,47.0978],[-0.1803,47.1082],[-0.2061,47.0932],[-0.2626,47.1057],[-0.3962,47.0916],[-0.4071,47.0665],[-0.4803,47.0533],[-0.4595,47.082],[-0.493,47.0834],[-0.5576,47.0641],[-0.5423,47.0325],[-0.5955,46.9979],[-0.6718,47.0032],[-0.7159,46.984],[-0.7867,47.0055],[-0.8583,46.9693],[-0.9035,46.9716],[-0.8074,46.9201],[-0.8323,46.8846],[-0.7823,46.8432],[-0.6985,46.8107],[-0.7274,46.7676],[-0.6562,46.7008],[-0.6811,46.687],[-0.637,46.6634],[-0.6589,46.636],[-0.614,46.6216],[-0.6246,46.5752],[-0.6018,46.548],[-0.6085,46.5262],[-0.6441,46.5218],[-0.6078,46.4546],[-0.6366,46.4323],[-0.6407,46.3972],[-0.6208,46.3907],[-0.6098,46.4137],[-0.5381,46.3864],[-0.562,46.3596],[-0.6031,46.3615],[-0.6482,46.317],[-0.6973,46.3251],[-0.7219,46.3024],[-0.8028,46.3253],[-0.8033,46.3429],[-0.8403,46.3405],[-0.85,46.3177],[-0.9631,46.3227],[-0.9294,46.3715],[-0.9748,46.3512],[-1.0537,46.3495],[-1.0749,46.3178],[-1.1278,46.3057],[-1.1067,46.2621],[-1.1992,46.2128],[-1.2036,46.1873],[-1.2408,46.163],[-1.2067,46.146],[-1.1508,46.1579],[-1.1742,46.1385],[-1.1272,46.126],[-1.1429,46.1066],[-1.101,46.0943],[-1.0955,46.0605],[-1.0634,46.0487],[-1.0529,46.0123],[-1.0612,45.9941],[-1.1214,46.0025],[-1.0695,45.9496],[-1.1009,45.9455],[-1.0731,45.9176],[-1.1055,45.867],[-1.1696,45.855],[-1.1351,45.8012],[-1.2425,45.7814],[-1.2306,45.6795],[-1.1919,45.676],[-1.2306,45.69],[-1.2009,45.6952],[-1.1152,45.6466],[-1.0226,45.6226],[-0.9885,45.5834],[-1.092,45.5658],[-1.1523,45.484],[-1.1616,45.2962],[-1.2601,44.6307],[-1.2451,44.6213],[-1.2291,44.7007],[-1.173,44.7457],[-1.1623,44.7809],[-0.9977,44.6484],[-1.1438,44.638],[-1.1437,44.6604],[-1.1949,44.6587],[-1.2561,44.5346],[-1.257,44.4399],[-1.3239,44.0893],[-1.4471,43.6424],[-1.5971,43.4318],[-1.6676,43.3879],[-1.7921,43.3698],[-1.7838,43.3486],[-1.7375,43.3303],[-1.7302,43.2958],[-1.6954,43.3123],[-1.6241,43.3061],[-1.6307,43.285],[-1.6088,43.2519],[-1.5752,43.2499],[-1.565,43.288],[-1.5353,43.2947],[-1.3825,43.2531],[-1.3816,43.1896],[-1.4021,43.1782],[-1.4148,43.1275],[-1.4732,43.0867],[-1.4412,43.0463],[-1.3539,43.0283],[-1.3324,43.1078],[-1.2702,43.1183],[-1.3098,43.0692],[-1.263,43.0439],[-1.2297,43.0555],[-1.1642,43.0351],[-1.1419,43.0076],[-1.115,43.024],[-0.945,42.9534],[-0.8105,42.9513],[-0.7529,42.9679],[-0.7307,42.9468],[-0.732,42.8961],[-0.6787,42.8845],[-0.5521,42.7779],[-0.5057,42.8273],[-0.4418,42.7954],[-0.3835,42.801],[-0.3469,42.8378],[-0.3244,42.8346],[-0.3071,42.87],[-0.3272,42.9165],[-0.2793,42.9423],[-0.2876,43.0054],[-0.2594,43.0137],[-0.2607,43.0386],[-0.182,43.0525],[-0.1989,43.0644],[-0.194,43.1151],[-0.1461,43.1281],[-0.1177,43.1803],[-0.106,43.1666],[-0.0681,43.1773],[-0.0737,43.2234],[-0.0498,43.2173],[-0.0169,43.2717],[-0.0449,43.3041],[-0.0256,43.3298],[0.01,43.3252],[0.0298,43.3461],[-0.0059,43.3732],[0.0097,43.4222],[-0.0009,43.4451],[-0.0671,43.4104],[-0.0505,43.4192],[-0.0708,43.4354],[-0.065,43.4636],[-0.0174,43.4721],[-0.0497,43.4919],[-0.04,43.5126],[-0.0658,43.5484],[-0.0938,43.5435],[-0.0965,43.5818],[-0.1609,43.5806],[-0.1766,43.5968],[-0.2421,43.5833],[-0.2472,43.6158],[-0.2802,43.6192],[-0.2818,43.6433],[-0.2637,43.636],[-0.2631,43.653],[-0.2424,43.6551],[-0.2396,43.6711],[-0.2581,43.6737],[-0.2386,43.6931],[-0.2505,43.708],[-0.194,43.7368],[-0.2185,43.7504],[-0.2064,43.7593],[-0.2272,43.8086],[-0.1917,43.8104],[-0.2087,43.8576],[-0.1857,43.8669],[-0.2386,43.8939],[-0.2291,43.9115],[-0.1797,43.9389],[-0.0954,43.9292],[-0.0935,43.9484],[-0.0702,43.945],[-0.0362,43.9837],[0.0067,43.9538],[-0.0239,43.9298],[0.0586,43.8968],[0.0765,43.9157],[0.056,43.9613],[0.1273,44.0023],[0.1568,43.9726],[0.2142,44.0231],[0.3029,43.991],[0.3157,44.01],[0.3814,44.0064],[0.4426,44.0287],[0.4596,44.0555],[0.5554,44.0547],[0.5919,44.08],[0.6634,44.0241],[0.7392,44.0611],[0.756,44.1069],[0.7986,44.1106],[0.7883,44.1444],[0.8672,44.1263],[0.8942,44.138],[0.8896,44.1724],[0.8531,44.184],[0.9062,44.1904],[0.9278,44.2672],[0.9509,44.2751],[0.869,44.3096],[0.8945,44.3425],[0.8964,44.3819],[0.9345,44.3724],[0.9411,44.3445],[0.9515,44.3617],[1.0622,44.3655],[1.0575,44.4278],[1.0208,44.4452],[1.0164,44.5055],[0.9815,44.5444],[1.0131,44.5362],[1.0744,44.5773],[1.1032,44.5717],[1.0946,44.5923],[1.1528,44.6366],[1.1467,44.6708],[1.2246,44.6843],[1.3158,44.7405],[1.3228,44.7651],[1.2964,44.7767],[1.2985,44.7965],[1.3641,44.8116],[1.3658,44.8458],[1.4423,44.8788],[1.4107,44.9089],[1.4425,44.9162],[1.4091,45.0069],[1.5373,45.0467],[1.5445,45.029],[1.6299,45.0335],[1.7507,44.9559],[1.7488,44.9379],[1.8002,44.9203],[1.9081,44.9781],[1.9392,44.9733],[1.9493,44.9526],[1.9908,44.9761],[2.1332,44.9856],[2.1409,45.0067],[2.0952,45.056],[2.1408,45.0868],[2.1756,45.0814],[2.1903,45.1155],[2.1791,45.1363],[2.2328,45.1653],[2.2011,45.18],[2.1894,45.2225],[2.3159,45.3221],[2.3593,45.3361],[2.3695,45.3871],[2.35,45.4127],[2.4802,45.3697],[2.5287,45.3924],[2.4875,45.4188],[2.517,45.5522],[2.4611,45.5963],[2.4843,45.6402],[2.5209,45.6418],[2.5236,45.7111],[2.4848,45.7485],[2.4448,45.7582],[2.3881,45.8274],[2.4476,45.8456],[2.4432,45.8663],[2.4922,45.8642],[2.5021,45.8886],[2.5576,45.9125],[2.5414,45.9206],[2.5632,45.9562],[2.6112,45.9717],[2.5932,45.9905],[2.6027,46.0332],[2.5704,46.0474],[2.5505,46.0858],[2.5659,46.1549],[2.5258,46.1877],[2.516,46.2396],[2.4895,46.2475],[2.4699,46.2882],[2.4215,46.2843],[2.4205,46.3101],[2.3919,46.33],[2.3648,46.3108],[2.3011,46.3423],[2.3377,46.3644],[2.2875,46.3824],[2.2811,46.4205],[2.1972,46.4283],[2.089,46.4089],[1.9096,46.4438],[1.8397,46.4258],[1.7849,46.4554],[1.748,46.4504],[1.7601,46.427],[1.7272,46.3892],[1.6837,46.4182],[1.6277,46.3883],[1.6093,46.4231],[1.5464,46.3932],[1.5443,46.4191],[1.5227,46.4267],[1.4169,46.3471],[1.3562,46.4002],[1.3132,46.3949],[1.3229,46.3851],[1.3037,46.3711],[1.219,46.3656],[1.21,46.3899],[1.1822,46.3759],[1.2132,46.4331],[1.1518,46.4486],[1.1352,46.471],[1.1576,46.4695],[1.1334,46.4977],[1.1463,46.5058],[1.0921,46.5375],[1.0223,46.5361],[1.0144,46.5678],[0.9638,46.5715],[0.9107,46.6017],[0.8939,46.6278],[0.9179,46.6505],[0.9025,46.6796],[0.928,46.6927],[0.9132,46.7257],[0.8151,46.7884],[0.796,46.8501],[0.7678,46.8512],[0.7709,46.8644],[0.7527,46.8602],[0.7049,46.9028],[0.6929,46.9741],[0.6333,46.9869],[0.6183,47.0076],[0.5676,47.0065],[0.5994,46.9562],[0.5052,46.96],[0.4386,46.9295],[0.3665,46.9499],[0.325,46.9305],[0.2914,46.9903],[0.313,46.9981],[0.3053,47.0527],[0.2682,47.0424],[0.2678,47.0677],[0.2442,47.0715],[0.2139,47.0541],[0.1761,47.0606],[0.2012,47.0913],[0.1824,47.1151],[0.1619,47.1001],[0.1352,47.1071],[0.1407,47.1247],[0.0812,47.1185],[0.0784,47.1464],[0.0539,47.1637]],[[-0.0752,43.3072],[-0.1106,43.3124],[-0.11,43.3379],[-0.0867,43.3352],[-0.1073,43.371],[-0.065,43.355],[-0.0752,43.3072]],[[-0.1375,43.2856],[-0.112,43.3107],[-0.0891,43.3012],[-0.0798,43.2631],[-0.1217,43.2411],[-0.1375,43.2856]]]]},"properties":{"iso3":"FRA","shapeId":"19338628B12418907782041","regionId":"FRA.10_1","name":"Nouvelle-Aquitaine"}},{"type":"Feature","geometry":{"type":"MultiPolygon","coordinates":[[[[-0.0752,43.3072],[-0.065,43.355],[-0.1073,43.371],[-0.0867,43.3352],[-0.11,43.3379],[-0.1106,43.3124],[-0.0752,43.3072]]],[[[-0.1375,43.2856],[-0.1217,43.2411],[-0.0798,43.2631],[-0.0891,43.3012],[-0.112,43.3107],[-0.1375,43.2856]]],[[[3.4994,43.2787],[3.5049,43.2761],[3.5072,43.2781],[3.5059,43.2804],[3.5027,43.2806],[3.4994,43.2787]]],[[[3.0349,42.6081],[3.0377,42.6065],[3.0379,42.6088],[3.0349,42.6081]]],[[[4.1268,43.5154],[4.1287,43.5152],[4.1269,43.5149],[4.1274,43.5136],[4.1294,43.5147],[4.1292,43.513],[4.1328,43.513],[4.1307,43.5139],[4.1328,43.5155],[4.1298,43.5152],[4.1302,43.5175],[4.1281,43.5167],[4.1298,43.516],[4.1268,43.5154]]],[[[-0.3133,42.8494],[-0.1887,42.7869],[-0.1602,42.798],[-0.1065,42.721],[-0.0162,42.6851],[0.1758,42.7371],[0.26,42.7163],[0.2952,42.6732],[0.3602,42.7242],[0.4222,42.6905],[0.5971,42.7056],[0.6767,42.6908],[0.6787,42.7261],[0.6393,42.7549],[0.6672,42.7751],[0.6448,42.783],[0.6708,42.8045],[0.6593,42.8387],[0.7091,42.8614],[0.8555,42.8269],[0.9263,42.7894],[0.9601,42.8059],[0.984,42.7867],[1.0789,42.7883],[1.166,42.7089],[1.2292,42.7278],[1.3574,42.7197],[1.3511,42.7028],[1.3892,42.6871],[1.4379,42.6028],[1.4767,42.6131],[1.4789,42.6517],[1.5492,42.6559],[1.6005,42.6257],[1.7358,42.6157],[1.7268,42.5889],[1.7867,42.5742],[1.7349,42.55],[1.7301,42.4924],[1.8234,42.4866],[1.8912,42.4477],[1.937,42.4537],[1.9653,42.3809],[2.0161,42.3471],[2.0847,42.3618],[2.1489,42.4209],[2.2014,42.4164],[2.2568,42.4387],[2.4325,42.3936],[2.4835,42.34],[2.5262,42.3335],[2.5708,42.3582],[2.6703,42.3405],[2.6514,42.3866],[2.6739,42.4047],[2.7335,42.4248],[2.8008,42.4185],[2.8391,42.4594],[2.9183,42.4561],[2.947,42.4821],[2.9674,42.4655],[3.0404,42.4742],[3.0859,42.4256],[3.1747,42.435],[3.1555,42.4774],[3.1276,42.488],[3.1413,42.5158],[3.0478,42.5404],[3.0418,42.6209],[3.0394,42.6027],[3.0288,42.6099],[3.0426,42.7027],[3.0245,42.7038],[3.0417,42.7028],[3.054,42.8738],[3.0313,42.8608],[3.0528,42.8737],[3.0606,42.9174],[3.0392,42.9334],[3.0495,42.9801],[3.0875,43.0609],[3.1787,43.1733],[3.3888,43.2846],[3.5049,43.2686],[3.4955,43.2798],[3.5105,43.285],[3.5063,43.2678],[3.6445,43.3845],[3.7776,43.4294],[3.975,43.5467],[4.1018,43.5546],[4.1389,43.54],[4.1226,43.5208],[4.1383,43.5136],[4.1164,43.5108],[4.1381,43.5103],[4.11,43.509],[4.1294,43.4871],[4.2302,43.4605],[4.2397,43.4992],[4.3247,43.5282],[4.3139,43.5556],[4.3343,43.5354],[4.4603,43.5889],[4.4731,43.6113],[4.4263,43.625],[4.4856,43.6986],[4.5394,43.7076],[4.6273,43.6854],[4.6125,43.7261],[4.6516,43.7825],[4.6423,43.8311],[4.6668,43.8466],[4.6413,43.8511],[4.6421,43.8675],[4.7789,43.9379],[4.8142,43.9644],[4.8131,43.9881],[4.8456,43.9966],[4.7606,44.087],[4.7205,44.0818],[4.7061,44.1078],[4.7225,44.1873],[4.7064,44.2145],[4.6743,44.2144],[4.6779,44.2344],[4.6349,44.2848],[4.5599,44.302],[4.5486,44.326],[4.5044,44.3443],[4.4531,44.3389],[4.4393,44.2834],[4.3952,44.291],[4.3914,44.3468],[4.3258,44.3383],[4.2882,44.3148],[4.289,44.2921],[4.2585,44.2643],[4.1775,44.3178],[4.1429,44.3132],[4.1299,44.3369],[4.0469,44.319],[4.0357,44.33],[4.0573,44.3637],[4.0402,44.3916],[4.0684,44.405],[3.9879,44.4725],[3.9551,44.5666],[3.9051,44.5926],[3.8979,44.6442],[3.8693,44.6784],[3.8843,44.697],[3.8611,44.7113],[3.8759,44.7403],[3.8352,44.7483],[3.8333,44.7767],[3.8089,44.7653],[3.743,44.8388],[3.6632,44.8298],[3.6727,44.8566],[3.6302,44.8809],[3.5935,44.8766],[3.5896,44.8266],[3.5707,44.8358],[3.4798,44.809],[3.4207,44.8949],[3.4153,44.9415],[3.3717,44.9602],[3.3727,44.9758],[3.2863,44.9264],[3.2674,44.9426],[3.2417,44.9354],[3.2499,44.9163],[3.2267,44.9098],[3.2382,44.8868],[3.1917,44.8623],[3.1423,44.903],[3.1029,44.8864],[3.0993,44.8333],[3.0723,44.8376],[3.0479,44.8041],[3.0493,44.763],[3.0269,44.7296],[3.0391,44.7151],[3.0162,44.7141],[2.9814,44.6446],[2.9384,44.6785],[2.9337,44.7499],[2.9116,44.7617],[2.9375,44.7751],[2.9204,44.7943],[2.8877,44.7891],[2.8546,44.8507],[2.8598,44.8744],[2.8032,44.8741],[2.7736,44.8548],[2.7755,44.9113],[2.7384,44.9414],[2.6027,44.8432],[2.6004,44.7935],[2.5499,44.7551],[2.5443,44.7253],[2.5606,44.7207],[2.4996,44.6898],[2.4838,44.6507],[2.3534,44.6401],[2.3268,44.6699],[2.2852,44.6669],[2.2159,44.6507],[2.2078,44.6158],[2.1687,44.6389],[2.1616,44.6636],[2.1793,44.6745],[2.1596,44.6974],[2.13,44.6985],[2.1545,44.7364],[2.149,44.7697],[2.1698,44.7778],[2.168,44.8107],[2.0837,44.8861],[2.1082,44.9104],[2.0765,44.9341],[2.0629,44.9766],[1.9908,44.9761],[1.9493,44.9526],[1.9392,44.9733],[1.9081,44.9781],[1.8261,44.9289],[1.8002,44.9203],[1.7857,44.9369],[1.7746,44.9235],[1.6462,45.0286],[1.5445,45.029],[1.5277,45.0453],[1.4091,45.0069],[1.4425,44.9162],[1.4107,44.9089],[1.4423,44.8788],[1.3658,44.8458],[1.3641,44.8116],[1.2985,44.7965],[1.2964,44.7767],[1.3228,44.7651],[1.3158,44.7405],[1.2246,44.6843],[1.1467,44.6708],[1.1528,44.6366],[1.0946,44.5923],[1.1032,44.5717],[1.0744,44.5773],[1.0131,44.5362],[0.9815,44.5444],[1.0164,44.5055],[1.0208,44.4452],[1.0575,44.4278],[1.0622,44.3655],[0.9515,44.3617],[0.9411,44.3445],[0.9345,44.3724],[0.8964,44.3819],[0.8945,44.3425],[0.869,44.3096],[0.9509,44.2751],[0.9278,44.2672],[0.9062,44.1904],[0.8531,44.184],[0.8896,44.1724],[0.8942,44.138],[0.8672,44.1263],[0.7883,44.1444],[0.7986,44.1106],[0.756,44.1069],[0.7392,44.0611],[0.6634,44.0241],[0.5919,44.08],[0.5554,44.0547],[0.4596,44.0555],[0.4426,44.0287],[0.3814,44.0064],[0.3157,44.01],[0.3029,43.991],[0.2142,44.0231],[0.1568,43.9726],[0.1273,44.0023],[0.056,43.9613],[0.0765,43.9157],[0.0586,43.8968],[-0.0239,43.9298],[0.0067,43.9538],[-0.0362,43.9837],[-0.0702,43.945],[-0.0935,43.9484],[-0.0954,43.9292],[-0.1797,43.9389],[-0.2291,43.9115],[-0.2386,43.8939],[-0.1857,43.8669],[-0.2087,43.8576],[-0.1917,43.8104],[-0.2272,43.8086],[-0.2064,43.7593],[-0.2185,43.7504],[-0.194,43.7368],[-0.2505,43.708],[-0.2386,43.6931],[-0.2581,43.6737],[-0.2396,43.6711],[-0.2424,43.6551],[-0.2631,43.653],[-0.2637,43.636],[-0.2818,43.6433],[-0.2802,43.6192],[-0.2472,43.6158],[-0.2421,43.5833],[-0.1766,43.5968],[-0.1609,43.5806],[-0.0965,43.5818],[-0.0938,43.5435],[-0.0658,43.5484],[-0.04,43.5126],[-0.0497,43.4919],[-0.0174,43.4721],[-0.065,43.4636],[-0.0708,43.4354],[-0.0505,43.4192],[-0.0671,43.4104],[-0.0009,43.4451],[0.0097,43.4222],[-0.0059,43.3732],[0.0298,43.3461],[0.01,43.3252],[-0.0256,43.3298],[-0.0449,43.3041],[-0.0169,43.2717],[-0.0498,43.2173],[-0.0737,43.2234],[-0.0681,43.1773],[-0.106,43.1666],[-0.1177,43.1803],[-0.1461,43.1281],[-0.194,43.1151],[-0.1989,43.0644],[-0.182,43.0525],[-0.2607,43.0386],[-0.2594,43.0137],[-0.2876,43.0054],[-0.2812,42.9343],[-0.3272,42.9165],[-0.3133,42.8494]],[[1.9602,42.4704],[1.9896,42.4937],[1.9874,42.4696],[2.0144,42.4518],[1.9598,42.4533],[1.9602,42.4704]]],[[[3.725,43.4038],[3.7259,43.4008],[3.7258,43.4056],[3.7322,43.4139],[3.7482,43.4199],[3.7324,43.4143],[3.7251,43.4052],[3.725,43.4038]]],[[[3.7008,43.393],[3.7052,43.3935],[3.7087,43.3958],[3.7315,43.3989],[3.708,43.3961],[3.7055,43.3939],[3.7008,43.393]]]]},"properties":{"iso3":"FRA","shapeId":"19338628B57683459369229","regionId":"FRA.11_1","name":"Occitanie"}},{"type":"Feature","geometry":{"type":"Polygon","coordinates":[[[2.2811,46.4205],[2.2875,46.3824],[2.3377,46.3644],[2.3011,46.3423],[2.3648,46.3108],[2.3919,46.33],[2.4205,46.3101],[2.4215,46.2843],[2.4699,46.2882],[2.4895,46.2475],[2.516,46.2396],[2.5258,46.1877],[2.5659,46.1549],[2.5505,46.0858],[2.5704,46.0474],[2.6027,46.0332],[2.5932,45.9905],[2.6112,45.9717],[2.5632,45.9562],[2.5414,45.9206],[2.5576,45.9125],[2.5021,45.8886],[2.4922,45.8642],[2.4432,45.8663],[2.4476,45.8456],[2.3881,45.8274],[2.4448,45.7582],[2.4848,45.7485],[2.5236,45.7111],[2.5209,45.6418],[2.4843,45.6402],[2.4611,45.5963],[2.517,45.5522],[2.4875,45.4188],[2.5222,45.4027],[2.5234,45.3815],[2.4802,45.3697],[2.35,45.4127],[2.3695,45.3871],[2.3593,45.3361],[2.3159,45.3221],[2.1894,45.2225],[2.2011,45.18],[2.2328,45.1653],[2.1791,45.1363],[2.1903,45.1155],[2.1756,45.0814],[2.1408,45.0868],[2.0952,45.056],[2.1389,44.9934],[2.0629,44.9766],[2.0765,44.9341],[2.1082,44.9104],[2.0837,44.8861],[2.168,44.8107],[2.1698,44.7778],[2.149,44.7697],[2.1545,44.7364],[2.13,44.6985],[2.1596,44.6974],[2.1793,44.6745],[2.1616,44.6636],[2.1687,44.6389],[2.2078,44.6158],[2.2159,44.6507],[2.2852,44.6669],[2.3268,44.6699],[2.3534,44.6401],[2.4838,44.6507],[2.4996,44.6898],[2.5606,44.7207],[2.5443,44.7253],[2.5499,44.7551],[2.6004,44.7935],[2.6027,44.8432],[2.7384,44.9414],[2.7755,44.9113],[2.7736,44.8548],[2.8032,44.8741],[2.8598,44.8744],[2.8546,44.8507],[2.8877,44.7891],[2.9204,44.7943],[2.9375,44.7751],[2.9116,44.7617],[2.9337,44.7499],[2.9384,44.6785],[2.9814,44.6446],[3.0162,44.7141],[3.0391,44.7151],[3.0269,44.7296],[3.0493,44.763],[3.0479,44.8041],[3.0723,44.8376],[3.0993,44.8333],[3.1029,44.8864],[3.1423,44.903],[3.1917,44.8623],[3.2382,44.8868],[3.2267,44.9098],[3.2499,44.9163],[3.2417,44.9354],[3.2674,44.9426],[3.2863,44.9264],[3.3727,44.9758],[3.3717,44.9602],[3.4153,44.9415],[3.4207,44.8949],[3.4798,44.809],[3.5707,44.8358],[3.5896,44.8266],[3.5935,44.8766],[3.6302,44.8809],[3.6727,44.8566],[3.6632,44.8298],[3.743,44.8388],[3.8089,44.7653],[3.8333,44.7767],[3.8352,44.7483],[3.8759,44.7403],[3.8611,44.7113],[3.8843,44.697],[3.8693,44.6784],[3.8979,44.6442],[3.9051,44.5926],[3.9551,44.5666],[3.9879,44.4725],[4.0684,44.405],[4.0402,44.3916],[4.0573,44.3637],[4.0357,44.33],[4.0517,44.317],[4.1299,44.3369],[4.1429,44.3132],[4.1775,44.3178],[4.2585,44.2643],[4.2906,44.3166],[4.3873,44.3471],[4.4033,44.3336],[4.3895,44.301],[4.4009,44.2873],[4.4393,44.2834],[4.4531,44.3389],[4.5044,44.3443],[4.5486,44.326],[4.5599,44.302],[4.6495,44.2703],[4.6506,44.3298],[4.7629,44.3255],[4.8046,44.3038],[4.8269,44.2285],[4.8741,44.2597],[4.933,44.2622],[5.0605,44.3082],[5.1081,44.2773],[5.167,44.3149],[5.1684,44.2901],[5.1463,44.272],[5.1607,44.2667],[5.1548,44.2305],[5.2304,44.2118],[5.2529,44.2313],[5.3033,44.2057],[5.3552,44.2146],[5.3847,44.2011],[5.3832,44.1554],[5.436,44.1525],[5.4506,44.1213],[5.5019,44.1156],[5.5786,44.152],[5.5645,44.1709],[5.5838,44.1887],[5.6397,44.1676],[5.6313,44.1504],[5.6789,44.1461],[5.6829,44.1636],[5.6433,44.1706],[5.6517,44.1896],[5.6864,44.1946],[5.6727,44.2456],[5.6873,44.2668],[5.6468,44.2672],[5.6371,44.3003],[5.608,44.3065],[5.6304,44.3337],[5.5409,44.3311],[5.5216,44.3511],[5.4928,44.3371],[5.4317,44.3711],[5.4431,44.3916],[5.4184,44.4249],[5.4768,44.4195],[5.4985,44.4367],[5.4644,44.4479],[5.4584,44.4994],[5.6108,44.469],[5.629,44.5008],[5.6647,44.5019],[5.5971,44.5434],[5.6472,44.6116],[5.6417,44.6514],[5.728,44.6392],[5.7544,44.6631],[5.7898,44.6532],[5.8304,44.6902],[5.8012,44.7073],[5.8271,44.7597],[5.8819,44.7467],[5.9511,44.7596],[5.9803,44.7813],[5.9495,44.8044],[6.0165,44.8357],[6.0565,44.8158],[6.1329,44.8645],[6.25,44.8519],[6.2886,44.8741],[6.354,44.8535],[6.3588,44.9413],[6.3229,44.953],[6.3235,44.9991],[6.2039,45.0125],[6.2189,45.0645],[6.244,45.0704],[6.2324,45.1113],[6.2606,45.1268],[6.2992,45.1086],[6.3342,45.1229],[6.3651,45.102],[6.3649,45.0702],[6.4528,45.0517],[6.4871,45.0564],[6.4805,45.0942],[6.5613,45.1053],[6.5764,45.1231],[6.6299,45.1094],[6.6804,45.1403],[6.7405,45.1368],[6.768,45.1598],[6.848,45.1273],[6.8939,45.137],[6.8917,45.1671],[6.9472,45.1704],[6.9659,45.2082],[7.0472,45.2258],[7.0765,45.2106],[7.13,45.2481],[7.1362,45.281],[7.11,45.3268],[7.164,45.3607],[7.1856,45.4033],[7.114,45.4334],[7.105,45.4684],[7.0486,45.4725],[7.054,45.4952],[6.9999,45.5049],[6.9954,45.5758],[6.978,45.5904],[7.0012,45.6399],[6.9149,45.6517],[6.9032,45.6806],[6.8477,45.6893],[6.8086,45.7251],[6.8034,45.8159],[6.8181,45.8359],[6.8674,45.8241],[6.8802,45.8496],[6.9426,45.8479],[6.9991,45.8737],[7.0079,45.9039],[7.0445,45.9225],[7.0374,45.9549],[7.0085,45.969],[7.0236,45.9791],[7.0105,45.9974],[6.9372,46.0644],[6.8913,46.0427],[6.8717,46.0512],[6.8999,46.1239],[6.798,46.1364],[6.8035,46.2046],[6.865,46.2811],[6.7721,46.3503],[6.8053,46.3941],[6.513,46.4049],[6.3899,46.3404],[6.3441,46.37],[6.3021,46.3659],[6.2556,46.3234],[6.2376,46.2777],[6.2668,46.2477],[6.3098,46.2562],[6.2947,46.2252],[6.2219,46.2007],[6.1364,46.1416],[6.0523,46.1513],[6.0354,46.1343],[5.9941,46.1446],[5.9568,46.1288],[5.9949,46.1818],[5.9637,46.197],[5.9734,46.2137],[6.1208,46.248],[6.1024,46.2849],[6.1699,46.3661],[6.1593,46.3797],[6.0601,46.4179],[5.9414,46.3088],[5.9218,46.3124],[5.9091,46.2838],[5.8529,46.2614],[5.7252,46.2607],[5.7146,46.309],[5.644,46.325],[5.6434,46.3448],[5.5417,46.2698],[5.4737,46.2643],[5.4565,46.2748],[5.4669,46.3233],[5.4371,46.3151],[5.4235,46.3477],[5.4048,46.3101],[5.402,46.339],[5.3624,46.3699],[5.3779,46.3822],[5.2988,46.4131],[5.3246,46.4285],[5.3152,46.445],[5.2146,46.4687],[5.2019,46.5082],[5.1675,46.5191],[5.1665,46.5031],[5.0564,46.4837],[4.9841,46.5154],[4.9507,46.5003],[4.9419,46.5199],[4.7804,46.1769],[4.7275,46.1795],[4.7358,46.2119],[4.7192,46.2277],[4.7368,46.2326],[4.6792,46.2587],[4.7101,46.2784],[4.6797,46.3065],[4.6353,46.3002],[4.6183,46.265],[4.5828,46.2696],[4.5602,46.2952],[4.5464,46.2741],[4.504,46.2672],[4.4584,46.2972],[4.4061,46.2962],[4.3894,46.213],[4.3628,46.1999],[4.3742,46.1869],[4.3268,46.185],[4.281,46.1561],[4.2499,46.1582],[4.2547,46.1881],[4.2249,46.1777],[4.2078,46.1949],[4.185,46.19],[4.187,46.1746],[4.1332,46.1773],[4.1038,46.1986],[3.9899,46.1691],[3.9727,46.2028],[3.8901,46.2145],[3.91,46.2479],[3.8912,46.2852],[3.9451,46.3005],[3.9458,46.3212],[4.0047,46.3276],[3.9848,46.3297],[3.9772,46.3992],[4.0057,46.4431],[3.9993,46.4645],[3.954,46.4773],[3.9555,46.4917],[3.867,46.4887],[3.8379,46.5317],[3.8051,46.5193],[3.7419,46.5391],[3.7375,46.601],[3.7129,46.6102],[3.7241,46.6265],[3.638,46.707],[3.626,46.7527],[3.5894,46.7619],[3.5757,46.7497],[3.5976,46.724],[3.5477,46.7226],[3.561,46.6889],[3.4569,46.6518],[3.4344,46.7124],[3.379,46.7125],[3.3466,46.6845],[3.2696,46.7167],[3.1981,46.6797],[3.0637,46.7476],[3.0321,46.7949],[2.9596,46.8043],[2.8766,46.7688],[2.8454,46.7267],[2.793,46.7343],[2.7587,46.7175],[2.7151,46.7452],[2.7021,46.7182],[2.6233,46.6896],[2.6283,46.6591],[2.6058,46.6714],[2.5668,46.6536],[2.593,46.6466],[2.5883,46.616],[2.5685,46.6091],[2.604,46.5958],[2.6149,46.5533],[2.5366,46.5197],[2.4969,46.5336],[2.3599,46.5159],[2.3238,46.4901],[2.3227,46.4695],[2.3008,46.4724],[2.2811,46.4205]],[[4.8693,44.3449],[4.9182,44.4077],[4.9716,44.4315],[5.0186,44.4158],[5.0158,44.3927],[5.0722,44.3808],[5.0235,44.3603],[4.9871,44.2927],[4.8893,44.304],[4.8954,44.3382],[4.8693,44.3449]]]},"properties":{"iso3":"FRA","shapeId":"19338628B73800214047876","regionId":"FRA.1_1","name":"Auvergne-Rhône-Alpes"}},{"type":"Feature","geometry":{"type":"MultiPolygon","coordinates":[[[[5.2287,43.1977],[5.2314,43.199],[5.2288,43.1991],[5.2287,43.1977]]],[[[6.1399,43.0206],[6.1437,43.0155],[6.1451,43.0187],[6.1482,43.0184],[6.1452,43.0204],[6.1399,43.0206]]],[[[5.7459,43.1286],[5.7501,43.1265],[5.7532,43.1282],[5.7459,43.1286]]],[[[4.8693,44.3449],[4.8954,44.3382],[4.8893,44.304],[4.9871,44.2927],[5.0235,44.3603],[5.0722,44.3808],[5.0158,44.3927],[5.0186,44.4158],[4.9716,44.4315],[4.9182,44.4077],[4.8693,44.3449]]],[[[5.7771,43.0789],[5.7786,43.077],[5.7776,43.0738],[5.7802,43.0736],[5.7786,43.0703],[5.7806,43.0698],[5.7905,43.0748],[5.792,43.0775],[5.7897,43.08],[5.7878,43.0785],[5.786,43.079],[5.7871,43.0767],[5.7844,43.0778],[5.7855,43.0791],[5.7822,43.0781],[5.7817,43.08],[5.7854,43.0799],[5.7807,43.0824],[5.7774,43.0819],[5.7796,43.0803],[5.7771,43.0789]]],[[[5.7869,43.0722],[5.7894,43.071],[5.7886,43.0692],[5.7921,43.0688],[5.7902,43.0725],[5.7869,43.0722]]],[[[5.7651,43.0798],[5.7673,43.0788],[5.7696,43.0805],[5.7678,43.0821],[5.7651,43.0798]]],[[[5.7923,43.0685],[5.7933,43.0677],[5.7935,43.0697],[5.7923,43.0685]]],[[[5.2857,43.2659],[5.2883,43.2633],[5.2873,43.2611],[5.2896,43.2605],[5.2894,43.2626],[5.2919,43.2624],[5.292,43.2648],[5.2943,43.2646],[5.2977,43.2677],[5.2993,43.2671],[5.3014,43.2721],[5.3085,43.2729],[5.3112,43.2746],[5.312,43.2759],[5.3098,43.2767],[5.3042,43.2765],[5.3036,43.2788],[5.3067,43.2789],[5.3089,43.2815],[5.3121,43.2809],[5.3131,43.2803],[5.3108,43.2772],[5.3166,43.2823],[5.3156,43.2841],[5.3198,43.2827],[5.3219,43.2839],[5.3206,43.2848],[5.324,43.2864],[5.3192,43.2861],[5.3189,43.2847],[5.3168,43.2853],[5.3169,43.287],[5.3128,43.2874],[5.3142,43.285],[5.3123,43.2843],[5.3059,43.2854],[5.3002,43.2843],[5.3054,43.2818],[5.2923,43.2807],[5.2933,43.2793],[5.298,43.2784],[5.3033,43.2801],[5.3035,43.2762],[5.3008,43.273],[5.2973,43.2723],[5.2966,43.2695],[5.2953,43.27],[5.2926,43.2674],[5.2922,43.269],[5.2896,43.2686],[5.2901,43.267],[5.2857,43.2659]]],[[[5.3285,43.2123],[5.3384,43.2079],[5.3401,43.2091],[5.338,43.2128],[5.3285,43.2123]]],[[[5.3244,43.2803],[5.3245,43.279],[5.3279,43.2801],[5.3244,43.2803]]],[[[5.3552,43.2012],[5.3585,43.1994],[5.3575,43.2013],[5.3552,43.2012]]],[[[5.3251,43.2137],[5.3274,43.2133],[5.3279,43.2146],[5.3256,43.215],[5.3251,43.2137]]],[[[5.0502,43.4046],[5.0572,43.4057],[5.0548,43.4068],[5.0502,43.4046]]],[[[5.3184,43.3475],[5.3281,43.3421],[5.3335,43.3377],[5.3394,43.3346],[5.361,43.309],[5.3579,43.2996],[5.3528,43.2972],[5.358,43.299],[5.3616,43.3091],[5.3515,43.3232],[5.3401,43.3356],[5.339,43.3353],[5.3339,43.3378],[5.3283,43.3422],[5.3184,43.3475]]],[[[4.8735,43.3682],[4.8757,43.362],[4.877,43.3667],[4.8735,43.3682]]],[[[4.8766,43.3597],[4.8779,43.3564],[4.8799,43.359],[4.8766,43.3597]]],[[[5.3019,43.3598],[5.3079,43.36],[5.3132,43.3575],[5.3081,43.3601],[5.3019,43.3598]]],[[[5.3718,43.1795],[5.3729,43.1769],[5.3816,43.1763],[5.3814,43.1747],[5.3866,43.174],[5.3847,43.1736],[5.3864,43.1726],[5.3987,43.1737],[5.3962,43.176],[5.3864,43.1792],[5.3839,43.1786],[5.3845,43.1795],[5.3807,43.1808],[5.3749,43.1795],[5.3751,43.1783],[5.3718,43.1795]]],[[[5.3585,43.1996],[5.3622,43.1969],[5.3717,43.1939],[5.3629,43.1999],[5.3585,43.1996]]],[[[5.3812,43.1898],[5.3871,43.186],[5.3916,43.1862],[5.387,43.1884],[5.3844,43.1881],[5.3853,43.1892],[5.3833,43.1903],[5.3812,43.1898]]],[[[5.6149,43.1614],[5.6161,43.1584],[5.6177,43.1596],[5.6174,43.1581],[5.6195,43.1584],[5.6193,43.1574],[5.621,43.1592],[5.6194,43.1592],[5.6188,43.1616],[5.6154,43.1625],[5.6149,43.1614]]],[[[6.5776,43.2691],[6.5831,43.2694],[6.582,43.2707],[6.5796,43.2696],[6.58,43.2708],[6.5776,43.2691]]],[[[6.583,43.2712],[6.5835,43.2694],[6.5871,43.2696],[6.586,43.2715],[6.5847,43.2716],[6.5846,43.2698],[6.583,43.2712]]],[[[6.5812,43.2747],[6.5828,43.2731],[6.5826,43.275],[6.5812,43.2747]]],[[[6.5761,43.2734],[6.5777,43.273],[6.5774,43.274],[6.5761,43.2734]]],[[[6.4324,43.01],[6.4709,43.0167],[6.5083,43.0528],[6.4686,43.0456],[6.4324,43.01]]],[[[6.8929,43.4275],[6.8953,43.427],[6.8951,43.4281],[6.8929,43.4275]]],[[[6.7815,43.408],[6.7824,43.4072],[6.7831,43.4085],[6.7815,43.408]]],[[[7.0313,43.5222],[7.0345,43.5192],[7.0344,43.5172],[7.037,43.5181],[7.0432,43.5158],[7.0616,43.5163],[7.0672,43.5142],[7.0674,43.516],[7.0709,43.5172],[7.0635,43.5204],[7.0531,43.5212],[7.0463,43.5245],[7.0423,43.5242],[7.0387,43.5219],[7.0324,43.5237],[7.0313,43.5222]]],[[[7.0365,43.5074],[7.0476,43.5048],[7.0556,43.508],[7.0471,43.5096],[7.0376,43.5091],[7.0365,43.5074]]],[[[7.0722,43.516],[7.0738,43.5146],[7.0729,43.5169],[7.0722,43.516]]],[[[6.3936,42.9876],[6.3959,42.9874],[6.3968,42.9892],[6.3936,42.9876]]],[[[6.252,42.9994],[6.2532,42.9979],[6.2537,42.9993],[6.252,42.9994]]],[[[6.3592,43.0086],[6.3641,43.0041],[6.364,43.0087],[6.3657,43.0098],[6.3637,43.0101],[6.3643,43.0129],[6.3677,43.015],[6.3687,43.0189],[6.3619,43.0175],[6.3592,43.0086]]],[[[4.2302,43.4605],[4.5324,43.4524],[4.5878,43.4232],[4.5952,43.4063],[4.5515,43.3854],[4.5836,43.3623],[4.8354,43.3287],[4.9178,43.3822],[4.8829,43.3552],[4.8286,43.3756],[4.8717,43.3903],[4.8076,43.3838],[4.861,43.4003],[4.8282,43.4299],[4.8766,43.4106],[4.8501,43.451],[4.8822,43.4195],[4.9057,43.4301],[4.8933,43.4044],[4.9314,43.4332],[4.9694,43.4253],[4.9824,43.3963],[5.0594,43.4067],[5.0517,43.4639],[5.0002,43.4749],[5.0213,43.5564],[5.0458,43.5213],[5.1142,43.5228],[5.1416,43.4593],[5.2054,43.4922],[5.2299,43.4653],[5.1371,43.3995],[4.9971,43.4024],[4.9861,43.3926],[5.0415,43.3274],[5.2292,43.3287],[5.3142,43.3603],[5.374,43.2943],[5.3457,43.2825],[5.3758,43.2578],[5.3371,43.2136],[5.5004,43.1972],[5.5371,43.2148],[5.6047,43.1603],[5.6236,43.1868],[5.6863,43.1799],[5.6952,43.1436],[5.7717,43.1388],[5.7663,43.1154],[5.8095,43.114],[5.7934,43.0699],[5.8292,43.0493],[5.8592,43.0459],[5.8889,43.078],[5.9509,43.072],[5.8946,43.0819],[5.9106,43.1006],[5.8805,43.108],[5.9141,43.1249],[5.9344,43.1187],[5.9262,43.1011],[6.0181,43.099],[6.0216,43.0785],[6.114,43.0838],[6.132,43.0486],[6.0955,43.0287],[6.1557,43.0261],[6.1732,43.0328],[6.1522,43.037],[6.1547,43.0805],[6.2012,43.1161],[6.2754,43.1209],[6.3645,43.0865],[6.3601,43.1203],[6.3864,43.145],[6.4939,43.1505],[6.5618,43.1891],[6.601,43.1828],[6.6209,43.158],[6.6468,43.1676],[6.6429,43.1873],[6.6812,43.2001],[6.6643,43.2412],[6.6977,43.2666],[6.5743,43.2712],[6.7166,43.3467],[6.7417,43.4274],[6.7889,43.4078],[6.8553,43.4117],[6.8569,43.432],[6.8898,43.4281],[6.923,43.4508],[6.9307,43.4836],[6.9568,43.497],[6.937,43.5174],[6.9598,43.5407],[7.0165,43.551],[7.0378,43.535],[7.0972,43.571],[7.1216,43.5597],[7.1195,43.5426],[7.1385,43.5459],[7.133,43.5907],[7.1216,43.5868],[7.1553,43.6527],[7.2,43.6641],[7.2126,43.6477],[7.2402,43.6875],[7.2842,43.6982],[7.3043,43.685],[7.3146,43.7067],[7.3319,43.6748],[7.3498,43.6867],[7.3296,43.702],[7.3557,43.721],[7.4063,43.7187],[7.4586,43.7599],[7.4875,43.7493],[7.4909,43.768],[7.5299,43.7842],[7.4977,43.8716],[7.5612,43.8988],[7.5693,43.9474],[7.6527,43.974],[7.6705,43.9984],[7.6627,44.029],[7.7004,44.0407],[7.719,44.0825],[7.6664,44.1308],[7.6779,44.1771],[7.6361,44.1771],[7.6199,44.1495],[7.5638,44.1565],[7.43,44.1304],[7.4258,44.1123],[7.3577,44.1162],[7.3446,44.1453],[7.2805,44.1409],[7.1884,44.2009],[7.0084,44.2352],[6.9958,44.2802],[6.9573,44.2954],[6.922,44.3516],[6.8874,44.3613],[6.8928,44.4209],[6.9482,44.4297],[6.8766,44.4813],[6.8535,44.5279],[6.8787,44.5544],[6.9158,44.5591],[6.9488,44.6187],[6.9683,44.6196],[6.9476,44.6537],[6.9628,44.6781],[7.0771,44.681],[6.9996,44.7897],[7.0241,44.823],[6.9314,44.8637],[6.912,44.8448],[6.8635,44.8506],[6.7508,44.9058],[6.7608,44.9336],[6.7438,44.9367],[6.7653,44.9621],[6.7378,44.9894],[6.7445,45.0148],[6.6733,45.0196],[6.6621,45.0717],[6.6155,45.1215],[6.5764,45.1231],[6.5392,45.0991],[6.5104,45.109],[6.4805,45.0942],[6.4871,45.0564],[6.4528,45.0517],[6.3649,45.0702],[6.3651,45.102],[6.3342,45.1229],[6.2992,45.1086],[6.2606,45.1268],[6.2287,45.1073],[6.244,45.0704],[6.2189,45.0645],[6.2039,45.0125],[6.3235,44.9991],[6.3229,44.953],[6.3588,44.9413],[6.354,44.8535],[6.2886,44.8741],[6.25,44.8519],[6.1329,44.8645],[6.0565,44.8158],[6.0165,44.8357],[5.9495,44.8044],[5.9803,44.7813],[5.9511,44.7596],[5.8819,44.7467],[5.8271,44.7597],[5.8012,44.7073],[5.8304,44.6902],[5.7898,44.6532],[5.7544,44.6631],[5.728,44.6392],[5.6417,44.6514],[5.6472,44.6116],[5.5971,44.5434],[5.6647,44.5019],[5.629,44.5008],[5.6108,44.469],[5.4584,44.4994],[5.4644,44.4479],[5.4985,44.4367],[5.4768,44.4195],[5.4184,44.4249],[5.4431,44.3916],[5.4317,44.3711],[5.4928,44.3371],[5.5216,44.3511],[5.5409,44.3311],[5.6304,44.3337],[5.608,44.3065],[5.6371,44.3003],[5.6468,44.2672],[5.6873,44.2668],[5.6727,44.2456],[5.6864,44.1946],[5.6517,44.1896],[5.6433,44.1706],[5.6829,44.1636],[5.6789,44.1461],[5.6313,44.1504],[5.6397,44.1676],[5.602,44.1917],[5.5749,44.1871],[5.5645,44.1709],[5.5833,44.1578],[5.541,44.1327],[5.4549,44.1191],[5.436,44.1525],[5.3832,44.1554],[5.3847,44.2011],[5.3552,44.2146],[5.3033,44.2057],[5.2529,44.2313],[5.2304,44.2118],[5.1548,44.2305],[5.1607,44.2667],[5.1463,44.272],[5.1684,44.2901],[5.167,44.3149],[5.1081,44.2773],[5.0605,44.3082],[4.933,44.2622],[4.8741,44.2597],[4.8269,44.2285],[4.8046,44.3038],[4.7796,44.3194],[4.6506,44.3298],[4.6494,44.263],[4.6779,44.2344],[4.6743,44.2144],[4.7064,44.2145],[4.7225,44.1873],[4.7086,44.1022],[4.7269,44.0783],[4.7606,44.087],[4.7872,44.0659],[4.8444,43.9893],[4.8131,43.9881],[4.8142,43.9644],[4.7789,43.9379],[4.6421,43.8675],[4.6413,43.8511],[4.6668,43.8466],[4.6423,43.8311],[4.6516,43.7825],[4.6125,43.7261],[4.6273,43.6854],[4.5394,43.7076],[4.4856,43.6986],[4.4263,43.625],[4.4731,43.6113],[4.4603,43.5889],[4.3343,43.5354],[4.3139,43.5556],[4.3247,43.5282],[4.2397,43.4992],[4.2302,43.4605]]],[[[6.1599,43.0017],[6.199,42.9821],[6.2525,43.0044],[6.2421,43.0267],[6.2107,43.0024],[6.1599,43.0017]]],[[[6.3689,43.0021],[6.4025,42.9935],[6.4213,43.0141],[6.3689,43.0021]]]]},"properties":{"iso3":"FRA","shapeId":"19338628B95725112529620","regionId":"FRA.13_1","name":"Provence-Alpes-Côte D'azur"}},{"type":"Feature","geometry":{"type":"MultiPolygon","coordinates":[[[[8.5856,41.8757],[8.5861,41.874],[8.5935,41.874],[8.5933,41.8761],[8.5987,41.8804],[8.5984,41.882],[8.5957,41.882],[8.5924,41.8784],[8.5856,41.8757]]],[[[9.4701,42.9838],[9.4719,42.9835],[9.4712,42.9846],[9.4701,42.9838]]],[[[9.2477,41.337],[9.2484,41.336],[9.2486,41.3378],[9.2477,41.337]]],[[[9.2548,41.3496],[9.2564,41.3492],[9.2564,41.351],[9.2548,41.3496]]],[[[9.3705,41.5616],[9.3713,41.5595],[9.3745,41.5587],[9.3744,41.5621],[9.3725,41.5632],[9.3736,41.5654],[9.3705,41.5616]]],[[[9.4041,43.0262],[9.409,43.0223],[9.4063,43.0276],[9.4041,43.0262]]],[[[9.4659,42.9855],[9.4667,42.9846],[9.4666,42.9864],[9.4659,42.9855]]],[[[9.2488,41.34],[9.2533,41.3397],[9.2539,41.337],[9.2566,41.3383],[9.2581,41.337],[9.2574,41.3341],[9.2599,41.3339],[9.2615,41.3385],[9.2601,41.339],[9.2617,41.3401],[9.2599,41.3406],[9.2585,41.3388],[9.2588,41.3412],[9.2561,41.3416],[9.2574,41.3454],[9.2591,41.3459],[9.2586,41.3481],[9.257,41.348],[9.2563,41.3451],[9.2535,41.3456],[9.2538,41.3441],[9.2498,41.3433],[9.2488,41.34]]],[[[9.3654,41.5559],[9.3659,41.5542],[9.3674,41.5558],[9.3662,41.5569],[9.3654,41.5559]]],[[[9.2262,41.3709],[9.2302,41.3721],[9.2291,41.3738],[9.2271,41.3733],[9.2262,41.3709]]],[[[9.2434,41.3751],[9.2469,41.3747],[9.2479,41.3765],[9.2434,41.3751]]],[[[8.5347,42.3722],[8.5416,42.3664],[8.5415,42.3716],[8.5347,42.3722]]],[[[9.3403,42.9649],[9.3409,42.9633],[9.3439,42.9635],[9.3415,42.9656],[9.3403,42.9649]]],[[[9.2504,41.3684],[9.2535,41.3682],[9.2533,41.367],[9.2554,41.3683],[9.2555,41.3664],[9.2623,41.366],[9.2611,41.3645],[9.2634,41.3636],[9.2603,41.3625],[9.2653,41.363],[9.2643,41.3609],[9.268,41.3627],[9.2683,41.3646],[9.2661,41.3656],[9.2684,41.3668],[9.2704,41.3653],[9.2731,41.3656],[9.2747,41.3692],[9.2732,41.3704],[9.2675,41.368],[9.2655,41.3693],[9.2688,41.3713],[9.2681,41.373],[9.2641,41.3737],[9.2636,41.3712],[9.2615,41.3708],[9.2593,41.3744],[9.2575,41.3718],[9.2504,41.3684]]],[[[9.2598,41.3611],[9.2605,41.36],[9.2618,41.3612],[9.2598,41.3611]]],[[[9.3582,41.5493],[9.3603,41.5482],[9.3632,41.5493],[9.3645,41.5528],[9.3615,41.5536],[9.3582,41.5493]]],[[[9.3519,41.5409],[9.355,41.5394],[9.3545,41.5415],[9.3519,41.5409]]],[[[9.0197,41.4611],[9.0206,41.4597],[9.0219,41.4605],[9.0197,41.4611]]],[[[9.3888,41.6707],[9.3896,41.6684],[9.3916,41.668],[9.3964,41.6701],[9.3941,41.6727],[9.3888,41.6707]]],[[[9.3609,41.6335],[9.3626,41.6325],[9.3631,41.6341],[9.3609,41.6335]]],[[[8.7441,41.8123],[8.7468,41.8104],[8.7462,41.8126],[8.7441,41.8123]]],[[[8.6794,42.4673],[8.6484,42.4425],[8.6643,42.4346],[8.6552,42.4153],[8.6061,42.4165],[8.6093,42.3871],[8.5431,42.3685],[8.5579,42.3605],[8.5532,42.3332],[8.6167,42.3491],[8.6283,42.3323],[8.5984,42.3195],[8.6048,42.306],[8.6602,42.3026],[8.6962,42.2661],[8.5399,42.2365],[8.5732,42.2291],[8.5665,42.2053],[8.5817,42.206],[8.5868,42.1809],[8.5614,42.1715],[8.5938,42.1678],[8.5583,42.1458],[8.5859,42.1515],[8.5802,42.129],[8.613,42.1344],[8.6593,42.1009],[8.7006,42.1123],[8.7191,42.0638],[8.7474,42.0497],[8.6562,42.0094],[8.67,41.9875],[8.6563,41.9726],[8.5913,41.9621],[8.6235,41.9348],[8.6083,41.8941],[8.7178,41.9079],[8.7474,41.9336],[8.7815,41.924],[8.8036,41.8932],[8.7789,41.8832],[8.7884,41.8505],[8.7509,41.8452],[8.784,41.8323],[8.7716,41.8114],[8.7119,41.8019],[8.7291,41.7744],[8.6588,41.7405],[8.7046,41.7395],[8.7072,41.7217],[8.7752,41.7415],[8.7828,41.6992],[8.812,41.7144],[8.9139,41.6909],[8.8718,41.6466],[8.7906,41.6289],[8.7898,41.5967],[8.7744,41.5918],[8.8043,41.575],[8.7869,41.5561],[8.8538,41.5469],[8.8424,41.5181],[8.8767,41.5243],[8.9202,41.4891],[8.9608,41.4926],[8.9827,41.4738],[8.9954,41.4856],[9.0404,41.4569],[9.0798,41.4774],[9.0692,41.4451],[9.1222,41.4413],[9.0937,41.3938],[9.1331,41.3998],[9.1807,41.3659],[9.2199,41.3664],[9.2657,41.4249],[9.2202,41.405],[9.2235,41.4427],[9.2876,41.4841],[9.2681,41.5006],[9.2844,41.5173],[9.2728,41.5302],[9.3431,41.5592],[9.3694,41.5941],[9.3181,41.6048],[9.2952,41.5837],[9.2792,41.5969],[9.3082,41.6287],[9.3546,41.6167],[9.3476,41.6369],[9.3889,41.6554],[9.3726,41.6791],[9.4066,41.7134],[9.3943,41.798],[9.4139,41.9547],[9.5551,42.1254],[9.5601,42.2825],[9.5323,42.3698],[9.5335,42.5454],[9.4465,42.6747],[9.4927,42.8065],[9.4516,42.9623],[9.4635,42.9866],[9.422,43.0117],[9.3433,42.9997],[9.3617,42.9245],[9.3221,42.9002],[9.3405,42.8659],[9.3095,42.8333],[9.3426,42.7977],[9.3452,42.7366],[9.299,42.6765],[9.2221,42.7354],[9.123,42.7313],[9.0573,42.6966],[9.0595,42.6606],[9.0144,42.6408],[8.9224,42.6395],[8.88,42.6291],[8.8677,42.6082],[8.8058,42.604],[8.8053,42.571],[8.7832,42.5568],[8.7093,42.5768],[8.7203,42.5253],[8.667,42.516],[8.6497,42.4775],[8.6794,42.4673]]]]},"properties":{"iso3":"FRA","shapeId":"19338628B22604203385446","regionId":"FRA.5_1","name":"Corse"}}]}