{"type":"FeatureCollection","features":[{"type":"Feature","geometry":{"type":"MultiPolygon","coordinates":[[[[-5.9765,55.0566],[-6.0557,55.0689],[-6.0285,55.1618],[-6.1393,55.2243],[-6.2356,55.2055],[-6.3358,55.2391],[-6.4799,55.251],[-6.5387,55.2202],[-6.7134,55.1917],[-6.738,55.1708],[-6.8813,55.1694],[-6.9592,55.1931],[-6.9941,55.11],[-7.0476,55.0522],[-7.2481,55.0469],[-7.2561,55.067],[-7.3903,55.0183],[-7.4058,54.9496],[-7.4455,54.9238],[-7.4495,54.8673],[-7.5393,54.794],[-7.5497,54.7466],[-7.6415,54.7474],[-7.7494,54.7088],[-7.8299,54.7315],[-7.9115,54.693],[-7.9002,54.6664],[-7.85,54.6386],[-7.7141,54.628],[-7.7034,54.6083],[-7.85,54.5368],[-7.9993,54.5438],[-8.0485,54.4901],[-8.1602,54.4648],[-8.1514,54.4369],[-8.0544,54.368],[-8.0028,54.3556],[-7.9517,54.3088],[-7.8725,54.2903],[-7.8457,54.2135],[-7.6927,54.2047],[-7.5547,54.1247],[-7.4813,54.1239],[-7.4137,54.155],[-7.421,54.14],[-7.3819,54.1388],[-7.388,54.1239],[-7.2807,54.1244],[-7.2394,54.2059],[-7.1474,54.2274],[-7.1482,54.2573],[-7.2083,54.2987],[-7.1805,54.3139],[-7.188,54.3361],[-7.1163,54.3525],[-7.0281,54.4181],[-6.9229,54.3785],[-6.8703,54.3361],[-6.8546,54.2911],[-6.8746,54.2781],[-6.8323,54.2628],[-6.7943,54.21],[-6.7374,54.1838],[-6.697,54.1994],[-6.6439,54.18],[-6.6333,54.1512],[-6.6626,54.0699],[-6.6278,54.0417],[-6.4745,54.0727],[-6.3958,54.0615],[-6.364,54.081],[-6.3597,54.1122],[-6.324,54.0931],[-6.2919,54.1116],[-6.0963,54.0603],[-6.0957,54.039],[-6.0654,54.0279],[-5.8966,54.1104],[-5.8752,54.1651],[-5.8842,54.2066],[-5.8573,54.2287],[-5.7355,54.2514],[-5.6556,54.2342],[-5.5442,54.2911],[-5.5589,54.3697],[-5.668,54.3723],[-5.6373,54.4378],[-5.6634,54.5177],[-5.7032,54.5388],[-5.6809,54.5783],[-5.5589,54.5238],[-5.5361,54.4519],[-5.5749,54.4043],[-5.5046,54.3387],[-5.4646,54.3895],[-5.4741,54.4283],[-5.4382,54.4835],[-5.5408,54.6494],[-5.5873,54.6748],[-5.7447,54.6744],[-5.8553,54.6338],[-5.9129,54.648],[-5.8683,54.6888],[-5.7123,54.7476],[-5.6933,54.8],[-5.7171,54.8368],[-5.7603,54.8545],[-5.7816,54.8487],[-5.7725,54.8246],[-5.8001,54.8285],[-5.8362,54.889],[-5.979,54.9845],[-5.9765,55.0566]],[[-7.2861,54.1402],[-7.3122,54.13],[-7.338,54.1458],[-7.2907,54.1706],[-7.2861,54.1402]]],[[[-5.5195,54.6704],[-5.5206,54.6768],[-5.5341,54.6823],[-5.5425,54.6769],[-5.5308,54.6692],[-5.5195,54.6704]]],[[[-5.6311,54.497],[-5.6413,54.521],[-5.6411,54.4882],[-5.6311,54.497]]],[[[-6.1688,55.2983],[-6.2395,55.3124],[-6.2845,55.294],[-6.1955,55.2921],[-6.1907,55.2597],[-6.1688,55.2983]]]]},"properties":{"iso3":"GBR","shapeId":"14339913B6930312138089","regionId":"GBR.2_1","name":"Northern Ireland"}},{"type":"Feature","geometry":{"type":"MultiPolygon","coordinates":[[[[-6.3284,49.8887],[-6.327,49.8951],[-6.3517,49.8992],[-6.3526,49.8963],[-6.3435,49.8848],[-6.3284,49.8887]]],[[[-6.276,49.9229],[-6.2992,49.9375],[-6.3314,49.9126],[-6.276,49.9229]]],[[[-6.3349,49.9635],[-6.3618,49.9458],[-6.3468,49.9587],[-6.3227,49.9451],[-6.3349,49.9635]]],[[[-6.2902,49.9676],[-6.3048,49.9649],[-6.2629,49.9623],[-6.2902,49.9676]]],[[[-4.2241,50.466],[-4.2264,50.4709],[-4.2369,50.4656],[-4.237,50.4589],[-4.2298,50.4564],[-4.2241,50.466]]],[[[-2.4433,50.5203],[-2.4161,50.5502],[-2.4561,50.5716],[-2.46,50.5172],[-2.4433,50.5203]]],[[[-1.9575,50.6951],[-1.975,50.6975],[-1.9885,50.6923],[-1.9841,50.687],[-1.9601,50.6861],[-1.9575,50.6951]]],[[[-1.2997,50.7659],[-1.3957,50.7293],[-1.3935,50.7168],[-1.4255,50.7264],[-1.5206,50.7071],[-1.5716,50.6638],[-1.4868,50.6669],[-1.2948,50.5753],[-1.1846,50.5979],[-1.1521,50.6545],[-1.0705,50.6843],[-1.1098,50.7215],[-1.2997,50.7659]]],[[[-0.9425,50.7816],[-0.9573,50.7895],[-0.9516,50.8249],[-0.9777,50.8328],[-0.9899,50.8035],[-1.0217,50.7908],[-0.9425,50.7816]]],[[[-4.6597,51.1615],[-4.6756,51.2014],[-4.6799,51.1727],[-4.6597,51.1615]]],[[[0.6916,51.4122],[0.6644,51.4228],[0.6743,51.3999],[0.6913,51.3964],[0.6916,51.4122]]],[[[0.7862,51.7219],[0.7812,51.7297],[0.7614,51.7231],[0.7726,51.7155],[0.7862,51.7219]]],[[[-3.166,54.0582],[-3.1792,54.0579],[-3.1872,54.05],[-3.1688,54.0448],[-3.166,54.0582]]],[[[-3.2105,54.0626],[-3.2719,54.1435],[-3.2688,54.1107],[-3.2065,54.0496],[-3.2105,54.0626]]],[[[-1.7798,55.6693],[-1.7803,55.6858],[-1.8122,55.6832],[-1.7798,55.6693]]],[[[-1.8286,55.6824],[-1.838,55.6905],[-1.8521,55.6839],[-1.841,55.6751],[-1.8286,55.6824]]],[[[-2.6661,51.6394],[-2.6515,51.6159],[-2.6087,51.6719],[-2.5105,51.7089],[-2.4013,51.779],[-2.3831,51.7716],[-2.4786,51.7242],[-2.6605,51.5747],[-2.7113,51.5066],[-2.6796,51.4802],[-2.7193,51.4995],[-2.8027,51.4829],[-2.9107,51.3979],[-2.9687,51.3897],[-2.9929,51.3203],[-3.0152,51.3171],[-3.0024,51.2332],[-3.028,51.1977],[-3.033,51.2128],[-3.1415,51.209],[-3.2769,51.1812],[-3.3989,51.1834],[-3.5406,51.2309],[-3.6194,51.2192],[-3.789,51.2428],[-4.2001,51.1969],[-4.2484,51.1395],[-4.2074,51.0759],[-4.172,51.0721],[-4.1858,51.0492],[-4.2255,51.0568],[-4.3456,50.9907],[-4.5151,51.0194],[-4.5663,50.905],[-4.5546,50.8316],[-4.5683,50.7795],[-4.6833,50.6981],[-4.7579,50.6685],[-4.7959,50.6024],[-4.9244,50.5879],[-4.9159,50.5319],[-4.9507,50.5626],[-5.0301,50.5454],[-5.0532,50.4346],[-5.1427,50.4034],[-5.1581,50.3503],[-5.2294,50.3168],[-5.2694,50.2735],[-5.3873,50.2395],[-5.4334,50.1961],[-5.5329,50.2151],[-5.6742,50.1617],[-5.7032,50.1293],[-5.6938,50.0893],[-5.71,50.0645],[-5.6728,50.038],[-5.581,50.0532],[-5.5424,50.0746],[-5.5271,50.1208],[-5.4729,50.1233],[-5.3114,50.0782],[-5.2653,50.0336],[-5.2479,49.9833],[-5.1981,49.9634],[-5.1632,50.0018],[-5.1074,50.0063],[-5.0667,50.0442],[-5.0779,50.0781],[-5.1082,50.0969],[-5.0542,50.1474],[-5.0618,50.1989],[-5.0356,50.2034],[-5.0027,50.1471],[-4.9514,50.2008],[-4.8502,50.2332],[-4.7992,50.2248],[-4.7523,50.3308],[-4.6938,50.3446],[-4.6763,50.3174],[-4.5365,50.3246],[-4.3869,50.3643],[-4.2829,50.3566],[-4.2287,50.333],[-4.224,50.3123],[-4.1905,50.318],[-4.1994,50.3326],[-4.1666,50.3498],[-4.2235,50.3645],[-4.1944,50.375],[-4.2263,50.393],[-4.2007,50.4367],[-4.2168,50.4628],[-4.2381,50.4591],[-4.2186,50.4752],[-4.187,50.4244],[-4.2018,50.3997],[-4.1828,50.3694],[-4.1296,50.3624],[-4.1159,50.3209],[-4.0292,50.295],[-3.9501,50.3086],[-3.8819,50.282],[-3.8619,50.2385],[-3.7946,50.2144],[-3.7701,50.2295],[-3.7186,50.2063],[-3.6581,50.2202],[-3.6326,50.2986],[-3.5269,50.3454],[-3.4966,50.3982],[-3.5457,50.406],[-3.5568,50.4278],[-3.5417,50.4557],[-3.4979,50.4646],[-3.509,50.5165],[-3.4391,50.5999],[-3.4639,50.6776],[-3.4142,50.6144],[-3.3674,50.6076],[-3.254,50.6736],[-2.8909,50.7306],[-2.7721,50.7116],[-2.4788,50.5828],[-2.4131,50.6332],[-2.1985,50.6196],[-2.0484,50.5813],[-1.9643,50.5957],[-1.9385,50.6352],[-1.9476,50.6605],[-2.0653,50.6981],[-2.0406,50.72],[-1.9298,50.6956],[-1.8667,50.7168],[-1.7527,50.7135],[-1.692,50.7366],[-1.5736,50.7183],[-1.5233,50.7543],[-1.3482,50.7857],[-1.3118,50.8146],[-1.475,50.9171],[-1.3839,50.8952],[-1.289,50.8335],[-1.1471,50.7779],[-1.1223,50.7947],[-1.1533,50.8393],[-1.1065,50.8435],[-1.1077,50.793],[-1.0869,50.7787],[-1.0421,50.786],[-1.0426,50.8287],[-1.0182,50.8432],[-0.9328,50.8432],[-0.9389,50.825],[-0.9145,50.8102],[-0.9055,50.8356],[-0.8706,50.8103],[-0.9041,50.776],[-0.792,50.7267],[-0.7652,50.7464],[-0.7708,50.7675],[-0.216,50.8276],[0.2507,50.7369],[0.3662,50.8166],[0.6203,50.8605],[0.7836,50.9321],[0.974,50.9117],[0.9657,50.9712],[1.0086,51.0323],[1.0734,51.0625],[1.2683,51.102],[1.3985,51.1633],[1.4039,51.2316],[1.3627,51.3167],[1.4231,51.3301],[1.4402,51.387],[1.1072,51.3723],[0.8992,51.3427],[0.7656,51.3711],[0.9026,51.356],[0.9465,51.3751],[0.8951,51.4175],[0.7521,51.4449],[0.7312,51.4093],[0.6998,51.4175],[0.712,51.385],[0.672,51.3787],[0.6482,51.3946],[0.6269,51.3752],[0.5643,51.4009],[0.6342,51.4425],[0.7117,51.4387],[0.7148,51.4604],[0.6829,51.4742],[0.4911,51.486],[0.4589,51.4549],[0.4102,51.4439],[0.3125,51.4643],[0.2731,51.4554],[0.1108,51.5092],[-0.0247,51.4856],[-0.0392,51.5053],[-0.1089,51.5084],[-0.1919,51.4633],[-0.2438,51.4889],[-0.2007,51.4659],[-0.1115,51.5108],[-0.0353,51.5075],[-0.0137,51.4882],[-0.0028,51.5046],[0.0634,51.499],[0.097,51.5157],[0.1587,51.5126],[0.2761,51.464],[0.4136,51.4561],[0.4518,51.5025],[0.5293,51.51],[0.5197,51.5289],[0.5723,51.5087],[0.652,51.5393],[0.7833,51.5227],[0.9077,51.5826],[0.9272,51.6072],[0.7584,51.6333],[0.6076,51.6301],[0.9254,51.6302],[0.9472,51.6874],[0.9319,51.7427],[0.762,51.6978],[0.7148,51.7272],[0.8499,51.7437],[0.8692,51.7566],[0.8446,51.7814],[0.9807,51.7873],[0.9789,51.8383],[1.0444,51.7738],[1.1206,51.7763],[1.2264,51.8159],[1.2862,51.863],[1.246,51.8913],[1.2871,51.9447],[1.0564,51.9515],[1.2718,51.9622],[1.2631,51.9852],[1.1912,52.0159],[1.2677,51.9935],[1.3303,51.9466],[1.4785,52.0551],[1.5736,52.0907],[1.6366,52.2759],[1.7179,52.3842],[1.7549,52.4762],[1.7328,52.5628],[1.7417,52.6337],[1.6755,52.7427],[1.4374,52.8785],[1.2998,52.9309],[0.9783,52.9772],[0.5496,52.9732],[0.4833,52.9343],[0.4389,52.8474],[0.3672,52.8],[0.2202,52.8205],[0.1707,52.8731],[0.0372,52.9062],[0.1665,53.0175],[0.3356,53.0976],[0.3544,53.1874],[0.3214,53.2674],[0.1555,53.4857],[0.0174,53.5254],[-0.0545,53.5783],[-0.2028,53.6381],[-0.2968,53.7128],[-0.5189,53.6792],[-0.619,53.7128],[-0.6984,53.6847],[-0.6982,53.7034],[-0.6369,53.7278],[-0.5367,53.7091],[-0.2946,53.7426],[-0.2501,53.7333],[-0.0953,53.637],[0.123,53.6351],[0.0943,53.6816],[-0.1454,53.8956],[-0.2069,54.0048],[-0.2096,54.0491],[-0.1861,54.081],[-0.0898,54.1172],[-0.2714,54.1822],[-0.2836,54.2204],[-0.3601,54.2448],[-0.4554,54.3784],[-0.524,54.4188],[-0.5258,54.4476],[-0.5666,54.4765],[-0.7909,54.5595],[-0.998,54.5928],[-1.1351,54.6364],[-1.1564,54.6028],[-1.1997,54.5819],[-1.2511,54.5883],[-1.2613,54.5719],[-1.1644,54.6144],[-1.1849,54.6257],[-1.167,54.6423],[-1.1946,54.6784],[-1.1852,54.6992],[-1.3043,54.7765],[-1.3474,54.8607],[-1.3604,54.9676],[-1.4264,55.0082],[-1.4202,55.021],[-1.5239,55.1576],[-1.5041,55.1941],[-1.5681,55.2692],[-1.5512,55.3191],[-1.6049,55.3721],[-1.5785,55.4286],[-1.5933,55.488],[-1.6346,55.5397],[-1.6272,55.5539],[-1.7224,55.616],[-1.77,55.6082],[-1.7857,55.6425],[-1.8379,55.6431],[-1.9965,55.7619],[-2.0343,55.8112],[-2.1658,55.723],[-2.2395,55.6432],[-2.3311,55.6361],[-2.1764,55.4702],[-2.1974,55.4442],[-2.3316,55.4072],[-2.3419,55.3667],[-2.3815,55.3501],[-2.4883,55.3502],[-2.6117,55.2801],[-2.6354,55.2256],[-2.6696,55.2168],[-2.7175,55.1693],[-2.8228,55.1356],[-2.9566,55.0521],[-3.0444,55.053],[-3.0302,55.0317],[-3.0574,54.9869],[-3.1057,54.9649],[-3.1191,54.9279],[-3.2082,54.9536],[-3.2816,54.9412],[-3.3099,54.9154],[-3.2582,54.9081],[-3.2615,54.8955],[-3.2913,54.8809],[-3.3468,54.8967],[-3.3959,54.8693],[-3.435,54.8038],[-3.4374,54.76],[-3.5753,54.648],[-3.5841,54.567],[-3.6356,54.5158],[-3.4404,54.3486],[-3.4117,54.355],[-3.4186,54.2832],[-3.3273,54.1956],[-3.2505,54.1954],[-3.2298,54.2601],[-3.2154,54.2565],[-3.1943,54.2291],[-3.2216,54.1762],[-3.2534,54.1668],[-3.225,54.0963],[-3.1933,54.1008],[-3.1733,54.0819],[-3.1491,54.0936],[-3.0699,54.1598],[-3.0365,54.2166],[-3.0012,54.1402],[-2.8604,54.2001],[-2.8695,54.1767],[-2.8108,54.113],[-2.9058,54.0299],[-2.893,53.9982],[-2.8597,53.9977],[-2.8691,53.9616],[-2.9837,53.9321],[-2.9955,53.9001],[-3.0121,53.922],[-3.0366,53.9203],[-3.0574,53.7765],[-3.0073,53.7378],[-2.8397,53.7257],[-2.9298,53.7238],[-3.0342,53.6437],[-3.1037,53.5585],[-2.9719,53.3778],[-2.8742,53.3332],[-2.791,53.3259],[-2.7584,53.3443],[-2.7524,53.3148],[-2.8706,53.2915],[-2.9286,53.3083],[-3.051,53.4402],[-3.1977,53.3852],[-3.1243,53.3254],[-3.0891,53.2786],[-3.1013,53.2669],[-3.0002,53.2364],[-2.9252,53.1898],[-2.9283,53.1724],[-2.9876,53.1549],[-2.9418,53.122],[-2.8848,53.1186],[-2.8972,53.091],[-2.8326,52.9981],[-2.7268,52.9833],[-2.7301,52.9276],[-2.7972,52.8985],[-2.8477,52.9433],[-2.9318,52.9409],[-2.9761,52.9653],[-3.0411,52.9291],[-3.0969,52.9279],[-3.1175,52.8971],[-3.1475,52.8902],[-3.1564,52.7992],[-3.0245,52.7644],[-2.9751,52.7267],[-3.0231,52.7148],[-3.0866,52.6105],[-3.1298,52.5838],[-3.1201,52.5359],[-3.0228,52.569],[-3.0006,52.5437],[-3.0429,52.5027],[-3.1953,52.474],[-3.2277,52.4368],[-3.0657,52.3527],[-2.9547,52.3493],[-3.0012,52.3069],[-2.989,52.2669],[-3.0644,52.2348],[-3.1108,52.1718],[-3.0915,52.1517],[-3.127,52.1298],[-3.1181,52.0751],[-3.0674,51.9831],[-2.9671,51.9067],[-2.8775,51.932],[-2.7761,51.8816],[-2.7412,51.8401],[-2.6502,51.8262],[-2.6743,51.8024],[-2.6665,51.75],[-2.6837,51.7279],[-2.6661,51.6394]]]]},"properties":{"iso3":"GBR","shapeId":"14339913B95766344400054","regionId":"GBR.1_1","name":"England"}},{"type":"Feature","geometry":{"type":"MultiPolygon","coordinates":[[[[-0.7381,60.4208],[-0.7479,60.4309],[-0.773,60.4301],[-0.7764,60.4217],[-0.7606,60.4182],[-0.7381,60.4208]]],[[[-0.8679,60.6329],[-0.9361,60.6302],[-0.9485,60.6127],[-0.8879,60.5626],[-0.8642,60.568],[-0.8935,60.592],[-0.8009,60.569],[-0.766,60.6035],[-0.7752,60.6152],[-0.8084,60.5998],[-0.8338,60.6289],[-0.8679,60.6329]]],[[[-0.8712,60.8169],[-0.8838,60.8434],[-0.9462,60.7958],[-0.9375,60.7751],[-0.9578,60.7193],[-0.9789,60.7174],[-0.9766,60.6865],[-0.8428,60.6817],[-0.8641,60.7073],[-0.8192,60.7377],[-0.8301,60.7589],[-0.8086,60.7612],[-0.8228,60.7845],[-0.785,60.7839],[-0.7968,60.8092],[-0.7771,60.8197],[-0.8401,60.8384],[-0.8712,60.8169]]],[[[-0.7819,60.7474],[-0.7904,60.7533],[-0.7987,60.7438],[-0.7909,60.7394],[-0.7819,60.7474]]],[[[-0.7883,60.7549],[-0.7885,60.7601],[-0.7932,60.7611],[-0.797,60.7562],[-0.791,60.7531],[-0.7883,60.7549]]],[[[-0.8819,60.6632],[-0.885,60.6714],[-0.9084,60.6798],[-0.9153,60.6759],[-0.8993,60.6612],[-0.8819,60.6632]]],[[[-0.9837,60.3315],[-0.9195,60.3832],[-1.0022,60.3672],[-1.0339,60.3369],[-0.9837,60.3315]]],[[[-0.9643,60.6635],[-0.9792,60.6715],[-0.9849,60.6634],[-0.977,60.654],[-0.9643,60.6635]]],[[[-0.9677,60.6128],[-0.9994,60.6191],[-1.0132,60.5998],[-0.9677,60.6128]]],[[[-0.9925,60.6578],[-1.0152,60.7256],[-1.1214,60.7256],[-1.1437,60.6321],[-1.1619,60.6512],[-1.1989,60.6007],[-1.1639,60.499],[-1.1062,60.4846],[-1.0343,60.4959],[-1.0253,60.5291],[-1.044,60.5452],[-1.0055,60.5765],[-1.0408,60.5984],[-1.0222,60.6229],[-1.0506,60.6555],[-0.9977,60.6368],[-0.9925,60.6578]]],[[[-1.0021,60.1393],[-1.0047,60.1515],[-1.0417,60.1512],[-1.0332,60.141],[-1.0135,60.1309],[-1.0021,60.1393]]],[[[-1.0327,60.3545],[-1.0273,60.3671],[-1.0345,60.3696],[-1.0452,60.3627],[-1.0418,60.3517],[-1.0327,60.3545]]],[[[-1.0775,60.1884],[-1.1472,60.1735],[-1.1159,60.1488],[-1.1203,60.1217],[-1.0818,60.1059],[-1.0496,60.153],[-1.0736,60.1629],[-1.0775,60.1884]]],[[[-1.3064,60.611],[-1.321,60.6267],[-1.3494,60.6081],[-1.4189,60.6125],[-1.4862,60.5428],[-1.4827,60.5231],[-1.5409,60.5492],[-1.6204,60.4897],[-1.5143,60.481],[-1.4947,60.4631],[-1.4648,60.4797],[-1.4467,60.4234],[-1.4005,60.3872],[-1.4457,60.3864],[-1.466,60.3716],[-1.4563,60.3568],[-1.3941,60.3544],[-1.3589,60.3894],[-1.3134,60.3657],[-1.3637,60.3352],[-1.3636,60.2979],[-1.4736,60.3363],[-1.4662,60.3101],[-1.4831,60.2967],[-1.513,60.3156],[-1.5707,60.2949],[-1.6682,60.3029],[-1.6895,60.293],[-1.693,60.2571],[-1.6223,60.2122],[-1.5495,60.2093],[-1.5142,60.2325],[-1.5013,60.2143],[-1.5381,60.1887],[-1.4646,60.1559],[-1.4135,60.1762],[-1.3946,60.2038],[-1.3675,60.2029],[-1.3835,60.2435],[-1.3461,60.2143],[-1.3103,60.2253],[-1.3185,60.1771],[-1.2932,60.1774],[-1.2981,60.125],[-1.3343,60.1047],[-1.3474,60.0631],[-1.3296,60.0716],[-1.328,60.0535],[-1.2733,60.121],[-1.3424,59.9979],[-1.337,59.9487],[-1.3596,59.9516],[-1.3877,59.907],[-1.3752,59.8911],[-1.3229,59.8964],[-1.312,59.8637],[-1.276,59.8576],[-1.2827,59.9189],[-1.2577,59.9586],[-1.2713,59.9878],[-1.2067,59.9777],[-1.2258,60.0324],[-1.1876,60.0393],[-1.2148,60.0865],[-1.1989,60.1248],[-1.1461,60.1543],[-1.1592,60.1913],[-1.1862,60.1928],[-1.1818,60.2119],[-1.2129,60.2348],[-1.1988,60.2628],[-1.1669,60.2432],[-1.1059,60.2621],[-1.1456,60.2819],[-1.0884,60.3112],[-1.1697,60.3311],[-1.1777,60.3486],[-1.0852,60.3586],[-1.0834,60.3868],[-1.1337,60.3868],[-1.0556,60.4413],[-1.1614,60.3931],[-1.2157,60.4142],[-1.1753,60.4423],[-1.2392,60.4896],[-1.2841,60.479],[-1.2768,60.4458],[-1.3679,60.4039],[-1.3289,60.457],[-1.3489,60.5327],[-1.3182,60.5519],[-1.3064,60.611]]],[[[-1.141,60.4646],[-1.1514,60.476],[-1.1628,60.4679],[-1.1496,60.4591],[-1.141,60.4646]]],[[[-1.1436,60.4377],[-1.1494,60.4519],[-1.1645,60.4388],[-1.1436,60.4377]]],[[[-1.162,59.9987],[-1.1975,60.0054],[-1.1749,59.9882],[-1.162,59.9987]]],[[[-1.216,60.5136],[-1.223,60.5233],[-1.2378,60.5153],[-1.2204,60.5064],[-1.216,60.5136]]],[[[-1.3114,60.4828],[-1.3168,60.4973],[-1.3347,60.4846],[-1.3114,60.4828]]],[[[-1.3375,59.9701],[-1.3549,59.9812],[-1.362,59.9694],[-1.3422,59.9667],[-1.3375,59.9701]]],[[[-1.3468,60.0514],[-1.3506,60.0618],[-1.3716,60.0469],[-1.3587,60.0428],[-1.3468,60.0514]]],[[[-1.3473,60.0281],[-1.3523,60.0306],[-1.3571,60.0265],[-1.3515,60.0215],[-1.3473,60.0281]]],[[[-1.3505,60.151],[-1.3623,60.1542],[-1.3715,60.1431],[-1.352,60.1406],[-1.3505,60.151]]],[[[-1.3515,60.353],[-1.3524,60.3637],[-1.3719,60.3602],[-1.3695,60.352],[-1.3515,60.353]]],[[[-1.3565,60.0282],[-1.3646,60.0369],[-1.3731,60.0334],[-1.3685,60.021],[-1.3599,60.0196],[-1.3565,60.0282]]],[[[-1.3587,60.1189],[-1.3653,60.1255],[-1.3812,60.119],[-1.3736,60.1095],[-1.3587,60.1189]]],[[[-1.3812,60.328],[-1.3859,60.3422],[-1.4043,60.3275],[-1.3812,60.328]]],[[[-1.5685,60.1947],[-1.587,60.2109],[-1.6068,60.2015],[-1.5685,60.1947]]],[[[-1.6094,59.5499],[-1.6389,59.5523],[-1.6527,59.5131],[-1.6109,59.5245],[-1.6094,59.5499]]],[[[-1.6914,60.3403],[-1.736,60.3372],[-1.7006,60.3164],[-1.6689,60.3226],[-1.6708,60.3425],[-1.6914,60.3403]]],[[[-2.0343,55.8112],[-2.1436,55.9158],[-2.319,55.9304],[-2.5168,56.005],[-2.5953,56.0006],[-2.587,56.0203],[-2.6716,56.0607],[-2.8151,56.0611],[-2.9135,55.9772],[-3.0776,55.9469],[-3.1768,55.9878],[-3.2863,55.9795],[-3.3519,55.9994],[-3.6665,56.014],[-3.6881,56.0352],[-3.7166,56.0276],[-3.7377,56.0649],[-3.8007,56.1032],[-3.8668,56.1207],[-3.6878,56.0508],[-3.5779,56.0557],[-3.3977,56.0121],[-3.2777,56.0559],[-3.1801,56.0662],[-3.1456,56.1143],[-2.9678,56.2043],[-2.8027,56.1903],[-2.6922,56.2242],[-2.6065,56.2766],[-2.6723,56.3166],[-2.8461,56.3632],[-2.8108,56.4197],[-2.83,56.4418],[-2.9156,56.4485],[-3.1942,56.365],[-3.2778,56.3602],[-3.0519,56.4585],[-2.8049,56.4796],[-2.7373,56.4657],[-2.7098,56.4974],[-2.5442,56.565],[-2.4843,56.6259],[-2.504,56.6552],[-2.4428,56.6866],[-2.4253,56.7552],[-2.3191,56.8013],[-2.2199,56.8781],[-2.1997,56.9114],[-2.1993,56.9688],[-2.0575,57.1201],[-2.0742,57.1815],[-1.9913,57.3196],[-1.8741,57.3821],[-1.782,57.4639],[-1.7788,57.5036],[-1.8338,57.614],[-1.9251,57.6721],[-2.0128,57.6965],[-2.5116,57.6675],[-2.8783,57.7033],[-3.0258,57.6651],[-3.2902,57.7224],[-3.3799,57.7197],[-3.4803,57.701],[-3.525,57.6669],[-3.5955,57.6612],[-3.595,57.6344],[-3.6615,57.6609],[-3.8571,57.5936],[-4.0485,57.5908],[-4.0499,57.5573],[-4.1788,57.4881],[-4.4321,57.4944],[-4.2327,57.5161],[-4.1118,57.5875],[-4.0342,57.6663],[-4.2179,57.6671],[-4.3628,57.624],[-4.3189,57.6575],[-4.0547,57.7276],[-3.9793,57.7061],[-3.8016,57.8455],[-4.0597,57.8237],[-4.2824,57.866],[-4.0381,57.8678],[-3.9645,57.9702],[-3.529,58.1651],[-3.3808,58.2657],[-3.1767,58.3338],[-3.1133,58.3767],[-3.0653,58.4437],[-3.065,58.4682],[-3.1087,58.4841],[-3.1236,58.51],[-3.04,58.6345],[-3.3776,58.664],[-3.3982,58.6504],[-3.3659,58.6165],[-3.3818,58.6017],[-3.6346,58.6182],[-3.7776,58.5707],[-3.8851,58.5634],[-4.0287,58.584],[-4.2332,58.5342],[-4.3323,58.5391],[-4.4423,58.4782],[-4.4366,58.5441],[-4.5574,58.5758],[-4.7278,58.4613],[-4.6726,58.5251],[-4.6787,58.5523],[-4.7617,58.5845],[-4.8043,58.5586],[-4.8568,58.6023],[-4.9915,58.6163],[-5.1092,58.5078],[-5.0876,58.4594],[-5.0905,58.4064],[-5.1795,58.3766],[-5.1106,58.266],[-5.2555,58.2566],[-5.3068,58.2366],[-5.3792,58.246],[-5.3764,58.2241],[-5.2851,58.1496],[-5.2866,58.0955],[-5.3457,58.0716],[-5.4187,58.0937],[-5.4414,58.0805],[-5.4094,58.04],[-5.2106,57.9441],[-5.1246,57.8713],[-5.3503,57.9265],[-5.3713,57.9176],[-5.3124,57.8779],[-5.4061,57.8958],[-5.4858,57.8628],[-5.5734,57.9076],[-5.6158,57.9096],[-5.6373,57.8869],[-5.6292,57.8359],[-5.5944,57.8127],[-5.6182,57.7852],[-5.7097,57.8596],[-5.7521,57.8635],[-5.7961,57.8398],[-5.7934,57.7569],[-5.699,57.7094],[-5.7759,57.6902],[-5.7956,57.6423],[-5.6747,57.5593],[-5.5448,57.5397],[-5.6643,57.5262],[-5.8197,57.5716],[-5.8616,57.5036],[-5.8531,57.4541],[-5.8192,57.432],[-5.8179,57.3746],[-5.7908,57.356],[-5.621,57.4016],[-5.6165,57.3698],[-5.5721,57.3615],[-5.4593,57.4107],[-5.5044,57.3669],[-5.6682,57.3376],[-5.7125,57.3061],[-5.7077,57.288],[-5.6122,57.2674],[-5.6703,57.159],[-5.5341,57.0989],[-5.6626,57.1214],[-5.7668,57.0795],[-5.7672,57.0505],[-5.6906,57.0284],[-5.6553,56.9885],[-5.7457,57.0103],[-5.8285,56.9923],[-5.8884,56.8861],[-5.7834,56.8779],[-5.7733,56.8623],[-5.8489,56.8185],[-5.8494,56.7857],[-5.8741,56.7604],[-5.9691,56.7753],[-6.1284,56.7613],[-6.1796,56.7461],[-6.2049,56.7141],[-6.1662,56.6916],[-5.9185,56.6728],[-5.9826,56.6424],[-5.9863,56.6194],[-5.9582,56.5902],[-5.9009,56.5571],[-5.7699,56.5408],[-5.6814,56.508],[-5.5807,56.54],[-5.4927,56.6134],[-5.2632,56.7176],[-5.2186,56.7704],[-5.1189,56.8263],[-5.2272,56.7191],[-5.2074,56.6883],[-5.303,56.6499],[-5.4357,56.5136],[-5.4203,56.4581],[-5.4746,56.428],[-5.5429,56.3498],[-5.6368,56.2939],[-5.642,56.2146],[-5.6034,56.2747],[-5.5468,56.2448],[-5.5791,56.1683],[-5.5441,56.156],[-5.5482,56.096],[-5.6054,56.0662],[-5.6864,55.9664],[-5.6068,56.007],[-5.6705,55.9185],[-5.6179,55.9078],[-5.6504,55.8143],[-5.5631,55.7689],[-5.6625,55.6755],[-5.7089,55.565],[-5.7233,55.4531],[-5.7917,55.3768],[-5.7869,55.3121],[-5.7542,55.2976],[-5.6062,55.3127],[-5.5439,55.349],[-5.5411,55.3933],[-5.5692,55.4303],[-5.4769,55.5738],[-5.4668,55.6547],[-5.4235,55.7225],[-5.3306,55.7797],[-5.3442,55.8242],[-5.4235,55.919],[-5.4372,56.0103],[-5.3685,56.0191],[-5.0623,56.2311],[-5.0159,56.2363],[-5.1066,56.1622],[-5.2001,56.1215],[-5.3231,56.0],[-5.3373,55.9031],[-5.3028,55.858],[-5.2196,55.8389],[-5.2231,55.9014],[-5.1937,55.9462],[-5.1081,55.9113],[-5.0818,55.9486],[-5.0334,55.8834],[-4.9859,55.8726],[-4.9238,55.9515],[-4.9278,55.9854],[-4.9025,56.0],[-4.9061,56.0476],[-4.8852,56.0892],[-4.9067,56.154],[-4.86,56.1103],[-4.7487,56.2033],[-4.8749,56.0627],[-4.8494,55.9931],[-4.7774,55.9938],[-4.8284,56.0394],[-4.8308,56.0741],[-4.784,56.02],[-4.7068,55.9925],[-4.6926,55.9687],[-4.4764,55.9267],[-4.3584,55.8757],[-4.4788,55.9225],[-4.6703,55.934],[-4.7909,55.9614],[-4.8743,55.9401],[-4.8932,55.8901],[-4.86,55.7639],[-4.8982,55.7042],[-4.8141,55.6396],[-4.7092,55.6111],[-4.6583,55.5703],[-4.6762,55.5442],[-4.6227,55.5008],[-4.6487,55.4465],[-4.7629,55.4061],[-4.7748,55.3628],[-4.8423,55.3243],[-4.8373,55.2839],[-4.8658,55.2248],[-4.9876,55.1436],[-5.0519,55.0471],[-5.0564,55.025],[-5.0004,54.9372],[-5.0082,54.9128],[-5.0589,54.9273],[-5.0748,54.9878],[-5.106,55.014],[-5.1724,54.9911],[-5.1822,54.9707],[-5.1826,54.9226],[-5.1378,54.8541],[-5.0163,54.7812],[-4.9631,54.7259],[-4.9593,54.6644],[-4.881,54.6392],[-4.8748,54.6807],[-4.9054,54.7053],[-4.9548,54.8093],[-4.8418,54.8655],[-4.6014,54.7739],[-4.5161,54.7131],[-4.3936,54.6802],[-4.3548,54.7076],[-4.3652,54.7799],[-4.3484,54.8014],[-4.4148,54.838],[-4.4236,54.8733],[-4.3971,54.8973],[-4.3007,54.8441],[-4.2178,54.8584],[-4.2122,54.8226],[-4.1559,54.7824],[-4.0972,54.7743],[-4.0665,54.8315],[-4.0549,54.7796],[-3.9851,54.7711],[-3.8408,54.8192],[-3.8517,54.8445],[-3.8209,54.8552],[-3.8201,54.8851],[-3.7788,54.8572],[-3.7015,54.8837],[-3.597,54.878],[-3.5693,54.9081],[-3.586,54.939],[-3.5807,55.003],[-3.5121,54.9667],[-3.4347,54.9875],[-3.1503,54.9664],[-3.0574,54.9869],[-3.0302,55.0317],[-3.0444,55.053],[-2.9566,55.0521],[-2.8228,55.1356],[-2.7175,55.1693],[-2.6696,55.2168],[-2.6354,55.2256],[-2.6337,55.2584],[-2.5524,55.3165],[-2.4883,55.3502],[-2.3815,55.3501],[-2.3419,55.3667],[-2.3316,55.4072],[-2.1974,55.4442],[-2.1764,55.4702],[-2.3311,55.6361],[-2.2395,55.6432],[-2.1658,55.723],[-2.0343,55.8112]]],[[[-2.0508,60.1182],[-2.0409,60.1408],[-2.0544,60.1558],[-2.1137,60.137],[-2.0508,60.1182]]],[[[-2.3742,59.3835],[-2.3826,59.3955],[-2.3991,59.3853],[-2.3948,59.3818],[-2.3742,59.3835]]],[[[-2.4076,59.3576],[-2.4123,59.389],[-2.4454,59.3594],[-2.4076,59.3576]]],[[[-2.4734,59.2763],[-2.412,59.2855],[-2.4307,59.3086],[-2.5551,59.2634],[-2.5725,59.2702],[-2.5548,59.2978],[-2.603,59.2916],[-2.6076,59.262],[-2.6926,59.2184],[-2.6982,59.1952],[-2.629,59.2332],[-2.5838,59.2388],[-2.5706,59.2186],[-2.5657,59.2407],[-2.4734,59.2763]]],[[[-2.4972,59.2275],[-2.501,59.2357],[-2.5111,59.2358],[-2.5167,59.2279],[-2.5082,59.2213],[-2.4972,59.2275]]],[[[-2.6039,59.1222],[-2.6016,59.1404],[-2.6348,59.1586],[-2.6627,59.1515],[-2.6214,59.12],[-2.6874,59.0859],[-2.651,59.0767],[-2.6526,59.1007],[-2.6362,59.1061],[-2.6047,59.0957],[-2.6021,59.072],[-2.5273,59.0932],[-2.5481,59.101],[-2.5468,59.1218],[-2.6039,59.1222]]],[[[-2.5608,59.035],[-2.577,59.0402],[-2.5805,59.0336],[-2.5721,59.0222],[-2.5608,59.035]]],[[[-2.5815,59.1595],[-2.5929,59.1452],[-2.5778,59.1448],[-2.5815,59.1595]]],[[[-2.6682,58.8943],[-2.6674,58.9028],[-2.6882,58.9012],[-2.6817,58.8895],[-2.6682,58.8943]]],[[[-2.7174,58.9227],[-2.7138,58.9722],[-2.7929,58.9466],[-2.7751,58.9174],[-2.7174,58.9227]]],[[[-2.7618,59.2336],[-2.7582,59.2502],[-2.7896,59.235],[-2.7801,59.1902],[-2.8273,59.1873],[-2.7893,59.1394],[-2.7435,59.1432],[-2.7609,59.1935],[-2.7379,59.2308],[-2.7162,59.2327],[-2.737,59.2476],[-2.7618,59.2336]]],[[[-3.005,59.0645],[-3.0568,59.1107],[-3.2047,59.1526],[-3.3155,59.1363],[-3.3523,59.1053],[-3.3386,59.0546],[-3.365,58.9962],[-3.3245,58.9541],[-3.2497,58.977],[-3.2071,58.9168],[-3.1301,58.9182],[-2.9785,58.9622],[-2.9077,58.8848],[-2.8775,58.8979],[-2.8289,58.8764],[-2.7904,58.9141],[-2.8291,58.9268],[-2.8459,58.9591],[-2.7983,58.9684],[-2.8045,58.9888],[-2.8976,58.963],[-2.916,58.9671],[-2.9161,59.0081],[-2.96,58.9866],[-3.0089,59.0092],[-3.1033,59.0052],[-3.0527,59.0466],[-3.015,59.0441],[-3.005,59.0645]]],[[[-2.8151,59.0598],[-2.8044,59.0867],[-2.8572,59.057],[-2.9023,59.0713],[-2.9325,59.0352],[-2.8999,59.0143],[-2.8904,59.0316],[-2.8293,59.02],[-2.8082,59.0295],[-2.8151,59.0598]]],[[[-2.8142,59.2149],[-2.8252,59.2277],[-2.8238,59.2016],[-2.8142,59.2149]]],[[[-2.8208,59.124],[-2.8247,59.1378],[-2.8393,59.1291],[-2.8208,59.124]]],[[[-2.9023,59.2984],[-2.9774,59.3171],[-2.9578,59.3567],[-3.0002,59.3299],[-3.0567,59.3261],[-2.9881,59.2637],[-2.95,59.288],[-2.8803,59.2539],[-2.8813,59.2337],[-2.8443,59.2507],[-2.9023,59.2984]]],[[[-2.8779,59.3331],[-2.8796,59.387],[-2.9113,59.348],[-2.9067,59.3249],[-2.8779,59.3331]]],[[[-2.8879,58.8556],[-2.8892,58.8741],[-2.9645,58.8509],[-2.8706,58.8531],[-2.8879,58.8556]]],[[[-2.8888,58.8338],[-3.0314,58.8213],[-2.98,58.8125],[-3.021,58.8055],[-2.9821,58.7855],[-2.9916,58.7546],[-2.9613,58.7298],[-2.9201,58.7348],[-2.9092,58.7532],[-2.9383,58.7664],[-2.8888,58.8338]]],[[[-3.0761,59.2003],[-3.1143,59.1622],[-3.0432,59.1273],[-2.9674,59.1348],[-2.9659,59.1748],[-2.9203,59.1288],[-2.908,59.1627],[-3.0761,59.2003]]],[[[-2.9427,59.0794],[-2.9595,59.0814],[-2.9633,59.092],[-2.9941,59.0869],[-2.994,59.0809],[-2.9774,59.0785],[-2.9716,59.0723],[-2.9588,59.0757],[-2.951,59.0714],[-2.9427,59.0794]]],[[[-2.9493,59.1186],[-2.9571,59.1283],[-2.9876,59.1213],[-2.991,59.1174],[-2.9665,59.1101],[-2.9493,59.1186]]],[[[-2.9698,58.8524],[-2.9733,58.8617],[-2.9915,58.854],[-2.9824,58.8457],[-2.9698,58.8524]]],[[[-3.0491,58.7406],[-3.0506,58.7504],[-3.0653,58.7461],[-3.067,58.7386],[-3.0604,58.7348],[-3.0491,58.7406]]],[[[-3.0896,58.8212],[-3.1029,58.8435],[-3.1475,58.829],[-3.1304,58.8142],[-3.0896,58.8212]]],[[[-3.0928,58.7998],[-3.096,58.807],[-3.1108,58.8028],[-3.1142,58.7968],[-3.1005,58.7929],[-3.0928,58.7998]]],[[[-3.1078,58.672],[-3.1237,58.694],[-3.1334,58.6713],[-3.1078,58.672]]],[[[-3.1095,59.1458],[-3.1282,59.1513],[-3.1326,59.1411],[-3.1202,59.1372],[-3.1095,59.1458]]],[[[-3.2157,58.8794],[-3.3537,58.9318],[-3.4029,58.9221],[-3.4356,58.8762],[-3.3761,58.864],[-3.3691,58.8371],[-3.2915,58.7768],[-3.2333,58.7727],[-3.25,58.7981],[-3.2111,58.8048],[-3.2249,58.7859],[-3.1473,58.7839],[-3.1396,58.8033],[-3.2061,58.8007],[-3.1712,58.8209],[-3.1967,58.8265],[-3.2157,58.8794]]],[[[-3.1526,58.8344],[-3.1492,58.8423],[-3.1756,58.8554],[-3.1827,58.8467],[-3.1708,58.8329],[-3.1526,58.8344]]],[[[-3.1593,58.8807],[-3.1755,58.8863],[-3.1806,58.8795],[-3.1703,58.8695],[-3.1593,58.8807]]],[[[-3.3063,58.9411],[-3.3084,58.9262],[-3.2664,58.9238],[-3.3063,58.9411]]],[[[-4.326,58.5574],[-4.328,58.5616],[-4.3532,58.5601],[-4.3511,58.5504],[-4.3395,58.5482],[-4.326,58.5574]]],[[[-4.3941,58.5336],[-4.4012,58.5439],[-4.4149,58.5345],[-4.3985,58.5263],[-4.3941,58.5336]]],[[[-4.9012,55.7537],[-4.8986,55.7911],[-4.9154,55.7921],[-4.9511,55.7517],[-4.9012,55.7537]]],[[[-4.945,55.7146],[-4.9443,55.7338],[-4.969,55.7186],[-4.945,55.7146]]],[[[-5.0126,55.7396],[-5.0239,55.832],[-5.181,55.9222],[-5.2135,55.9014],[-5.137,55.8443],[-5.1195,55.7796],[-5.0422,55.7309],[-5.0126,55.7396]]],[[[-5.0587,55.5176],[-5.0739,55.536],[-5.0911,55.5353],[-5.088,55.5253],[-5.0767,55.521],[-5.0703,55.5109],[-5.0587,55.5176]]],[[[-5.1141,55.442],[-5.082,55.4636],[-5.0841,55.5093],[-5.1258,55.5299],[-5.09,55.5557],[-5.1505,55.5836],[-5.1307,55.6119],[-5.1574,55.671],[-5.2065,55.7035],[-5.28,55.7195],[-5.3712,55.6716],[-5.3956,55.6121],[-5.3491,55.5707],[-5.3548,55.5072],[-5.3267,55.4972],[-5.3136,55.4654],[-5.2429,55.4385],[-5.1141,55.442]]],[[[-5.1141,55.2478],[-5.1089,55.2496],[-5.1085,55.2547],[-5.1201,55.2608],[-5.128,55.2522],[-5.1215,55.2453],[-5.1141,55.2478]]],[[[-5.1472,55.7846],[-5.1645,55.8057],[-5.1644,55.782],[-5.1472,55.7846]]],[[[-5.1676,58.3005],[-5.1612,58.308],[-5.1632,58.3165],[-5.1771,58.308],[-5.1787,58.298],[-5.1676,58.3005]]],[[[-5.3368,57.9907],[-5.3471,57.9948],[-5.3562,57.9797],[-5.346,57.9766],[-5.3368,57.9907]]],[[[-5.3823,56.5951],[-5.4064,56.5862],[-5.391,56.5787],[-5.3823,56.5951]]],[[[-5.3984,58.002],[-5.4005,58.0217],[-5.4202,58.0204],[-5.3984,58.002]]],[[[-5.4201,57.9784],[-5.4333,57.9821],[-5.442,57.9727],[-5.4355,57.9649],[-5.4201,57.9784]]],[[[-5.4326,58.0182],[-5.4399,58.0107],[-5.4532,58.0134],[-5.4522,58.0041],[-5.4378,58.0047],[-5.427,58.0102],[-5.4326,58.0182]]],[[[-5.4285,58.0475],[-5.4488,58.0505],[-5.456,58.0566],[-5.4725,58.047],[-5.4611,58.0391],[-5.4576,58.0435],[-5.4306,58.0376],[-5.4285,58.0475]]],[[[-5.5088,56.4987],[-5.4428,56.5572],[-5.5676,56.4972],[-5.5817,56.4715],[-5.5088,56.4987]]],[[[-5.4671,57.8999],[-5.4828,57.8937],[-5.4585,57.8785],[-5.4671,57.8999]]],[[[-5.4673,58.0218],[-5.459,58.0292],[-5.4729,58.0355],[-5.4786,58.0313],[-5.478,58.0216],[-5.4673,58.0218]]],[[[-5.4966,56.4234],[-5.564,56.4079],[-5.5884,56.3817],[-5.5466,56.3758],[-5.4966,56.4234]]],[[[-5.5059,57.9552],[-5.5085,57.9693],[-5.5224,57.9596],[-5.5059,57.9552]]],[[[-5.5311,55.4225],[-5.5382,55.4315],[-5.5587,55.425],[-5.5502,55.4194],[-5.5311,55.4225]]],[[[-5.5641,55.2815],[-5.5714,55.2865],[-5.5883,55.2858],[-5.5976,55.2796],[-5.5833,55.2751],[-5.5641,55.2815]]],[[[-5.5911,56.2047],[-5.6124,56.2269],[-5.6118,56.1951],[-5.5911,56.2047]]],[[[-5.7901,56.5081],[-5.9531,56.5241],[-6.0369,56.6178],[-6.1267,56.6507],[-6.217,56.6309],[-6.2312,56.6077],[-6.3131,56.6024],[-6.2963,56.5741],[-6.3293,56.539],[-6.217,56.5234],[-6.1253,56.4766],[-6.0027,56.4899],[-6.0591,56.4518],[-6.1276,56.4468],[-6.2011,56.3869],[-6.1977,56.3632],[-6.027,56.3925],[-6.0115,56.3776],[-6.1469,56.3391],[-6.2403,56.3402],[-6.2485,56.32],[-6.3443,56.3451],[-6.371,56.2957],[-6.2768,56.2691],[-6.0469,56.2949],[-5.8758,56.3537],[-5.8555,56.3476],[-5.8671,56.3152],[-5.7901,56.3262],[-5.7041,56.3655],[-5.6499,56.4391],[-5.7901,56.5081]]],[[[-6.1477,57.5036],[-6.1549,57.5899],[-6.2643,57.6763],[-6.3268,57.702],[-6.4089,57.638],[-6.379,57.5835],[-6.3837,57.5492],[-6.3348,57.4881],[-6.3888,57.5133],[-6.4567,57.5036],[-6.6216,57.5974],[-6.6385,57.5524],[-6.5862,57.5099],[-6.621,57.4902],[-6.61,57.448],[-6.7213,57.5033],[-6.7734,57.4389],[-6.6965,57.3723],[-6.5998,57.3455],[-6.5376,57.3854],[-6.3995,57.3424],[-6.3872,57.3262],[-6.4457,57.3204],[-6.4636,57.2875],[-6.2914,57.1676],[-6.1432,57.1875],[-6.0907,57.1418],[-6.0231,57.2017],[-5.9294,57.1702],[-6.0196,57.0685],[-6.004,57.0304],[-5.918,57.0527],[-5.8106,57.1261],[-5.7909,57.1682],[-5.6935,57.1999],[-5.6656,57.2343],[-5.6699,57.2597],[-5.7423,57.2709],[-5.8977,57.2474],[-5.9485,57.2668],[-5.9263,57.2988],[-5.9706,57.3213],[-6.0127,57.3152],[-6.0026,57.2856],[-6.0161,57.2775],[-6.0497,57.2791],[-6.0636,57.3037],[-6.1088,57.3149],[-6.1396,57.393],[-6.1732,57.4076],[-6.1438,57.4564],[-6.1477,57.5036]]],[[[-5.6997,56.1604],[-5.6716,56.1753],[-5.6951,56.2281],[-5.7118,56.2135],[-5.6925,56.1993],[-5.751,56.1687],[-5.6997,56.1604]]],[[[-5.9618,55.8045],[-5.9359,55.8578],[-5.8769,55.8963],[-5.832,55.9676],[-5.6971,56.1049],[-5.7,56.141],[-5.9481,56.0365],[-5.9926,55.9828],[-5.9641,55.9579],[-6.0432,55.9349],[-6.0818,55.9003],[-6.076,55.8208],[-6.0242,55.7982],[-5.9618,55.8045]]],[[[-5.71,56.2288],[-5.7245,56.2378],[-5.734,56.2265],[-5.7247,56.2226],[-5.71,56.2288]]],[[[-5.7546,55.6506],[-5.7186,55.7269],[-5.7718,55.6788],[-5.7546,55.6506]]],[[[-5.7417,55.6409],[-5.7485,55.6425],[-5.7622,55.627],[-5.751,55.623],[-5.7417,55.6409]]],[[[-5.753,56.243],[-5.7553,56.2497],[-5.7719,56.2467],[-5.7799,56.2405],[-5.7751,56.2366],[-5.753,56.243]]],[[[-5.7957,57.7378],[-5.8191,57.7306],[-5.7986,57.7243],[-5.7957,57.7378]]],[[[-5.8174,57.3379],[-5.8337,57.3515],[-5.8545,57.3481],[-5.8453,57.3345],[-5.826,57.3326],[-5.8174,57.3379]]],[[[-5.819,59.1338],[-5.8296,59.1248],[-5.8391,59.1252],[-5.835,59.1173],[-5.8175,59.1192],[-5.819,59.1338]]],[[[-5.8467,57.2743],[-5.8544,57.2829],[-5.8723,57.2763],[-5.8662,57.2685],[-5.8467,57.2743]]],[[[-5.8846,57.3061],[-5.8837,57.3112],[-5.8969,57.3201],[-5.9012,57.3131],[-5.8979,57.3032],[-5.8846,57.3061]]],[[[-5.9704,57.529],[-5.9617,57.5796],[-5.9985,57.5407],[-5.9883,57.5193],[-5.9704,57.529]]],[[[-5.9891,57.5012],[-6.0299,57.4892],[-6.0207,57.4592],[-6.0621,57.4552],[-6.0826,57.4227],[-6.0841,57.3569],[-6.0624,57.3334],[-6.0186,57.3364],[-5.9962,57.3579],[-6.0292,57.4317],[-5.9832,57.4836],[-5.9891,57.5012]]],[[[-6.1037,55.841],[-6.1382,55.9349],[-6.3098,55.8728],[-6.3243,55.8264],[-6.3451,55.8351],[-6.3324,55.8863],[-6.446,55.8547],[-6.4806,55.7944],[-6.4593,55.7724],[-6.519,55.6877],[-6.4851,55.6742],[-6.4282,55.699],[-6.343,55.7832],[-6.2636,55.7808],[-6.2618,55.7668],[-6.3393,55.724],[-6.2943,55.7065],[-6.2654,55.671],[-6.2672,55.6547],[-6.3219,55.6316],[-6.3349,55.5966],[-6.2824,55.5801],[-6.2082,55.6303],[-6.1481,55.6282],[-6.1402,55.6059],[-6.1417,55.629],[-6.0257,55.682],[-6.0505,55.7624],[-6.0902,55.7936],[-6.1037,55.841]]],[[[-6.0702,56.4693],[-6.0927,56.473],[-6.0977,56.4674],[-6.0741,56.461],[-6.0702,56.4693]]],[[[-6.1119,56.9242],[-6.1511,56.9422],[-6.1604,56.9146],[-6.2081,56.9073],[-6.2102,56.8886],[-6.1405,56.8713],[-6.1169,56.8875],[-6.1119,56.9242]]],[[[-6.1629,58.2293],[-6.1378,58.2597],[-6.2023,58.2477],[-6.2823,58.2018],[-6.2455,58.1813],[-6.1615,58.2151],[-6.1629,58.2293]]],[[[-6.1877,56.0419],[-6.193,56.0619],[-6.139,56.1171],[-6.146,56.1307],[-6.2601,56.0648],[-6.2503,56.0351],[-6.1877,56.0419]]],[[[-6.2202,56.4992],[-6.308,56.4955],[-6.3028,56.4809],[-6.2002,56.4618],[-6.1434,56.4735],[-6.2202,56.4992]]],[[[-6.3199,58.205],[-6.3158,58.2621],[-6.191,58.3389],[-6.2071,58.3723],[-6.1771,58.4213],[-6.1935,58.4693],[-6.2442,58.5061],[-6.559,58.365],[-6.6659,58.3481],[-6.8031,58.296],[-6.8059,58.26],[-6.7465,58.1911],[-6.866,58.2624],[-6.8801,58.2442],[-6.8561,58.2014],[-6.8767,58.1851],[-6.9178,58.193],[-6.9497,58.2259],[-7.0369,58.2287],[-7.0511,58.1878],[-7.0969,58.1741],[-7.1198,58.1244],[-7.0955,58.077],[-7.055,58.0647],[-7.0361,58.0338],[-7.09,57.9877],[-6.8687,57.9195],[-7.0556,57.8264],[-7.1109,57.8262],[-6.9665,57.743],[-6.8433,57.8134],[-6.7571,57.8318],[-6.7841,57.888],[-6.6673,57.8615],[-6.733,57.9977],[-6.7153,58.0013],[-6.6498,57.927],[-6.614,57.9403],[-6.5627,57.9218],[-6.4747,57.9497],[-6.4607,57.9782],[-6.4797,58.0008],[-6.4013,58.0075],[-6.3752,58.0273],[-6.3931,58.0933],[-6.4415,58.1154],[-6.3837,58.1409],[-6.3751,58.1954],[-6.3199,58.205]]],[[[-6.1799,57.1589],[-6.2569,57.1487],[-6.2176,57.1302],[-6.1799,57.1589]]],[[[-6.2374,56.0074],[-6.2125,56.0265],[-6.2676,56.0221],[-6.2554,56.0008],[-6.2374,56.0074]]],[[[-6.2243,56.8451],[-6.2778,56.8349],[-6.2343,56.8248],[-6.215,56.8364],[-6.2243,56.8451]]],[[[-6.2637,56.9624],[-6.2457,56.9949],[-6.2612,57.0346],[-6.3338,57.0583],[-6.4521,57.0077],[-6.3216,56.936],[-6.2637,56.9624]]],[[[-6.2473,56.4481],[-6.2525,56.4576],[-6.2692,56.4533],[-6.2581,56.4423],[-6.2473,56.4481]]],[[[-6.2987,57.734],[-6.314,57.7262],[-6.2891,57.7208],[-6.2987,57.734]]],[[[-6.3282,57.9021],[-6.339,57.9113],[-6.3508,57.8996],[-6.3388,57.8952],[-6.3282,57.9021]]],[[[-6.338,56.4293],[-6.337,56.445],[-6.3512,56.4355],[-6.338,56.4293]]],[[[-6.3477,57.8922],[-6.3579,57.8951],[-6.3571,57.9054],[-6.3715,57.9013],[-6.3494,57.8826],[-6.3477,57.8922]]],[[[-6.3808,56.5068],[-6.3969,56.5209],[-6.4002,56.5099],[-6.3873,56.5007],[-6.3808,56.5068]]],[[[-6.4072,56.3148],[-6.382,56.3485],[-6.4266,56.3387],[-6.4445,56.3141],[-6.4072,56.3148]]],[[[-6.4157,56.4874],[-6.4213,56.4993],[-6.4346,56.4938],[-6.429,56.4827],[-6.4157,56.4874]]],[[[-6.5509,56.5969],[-6.4983,56.6243],[-6.4558,56.6871],[-6.5275,56.6761],[-6.7048,56.5754],[-6.5509,56.5969]]],[[[-6.5068,57.0712],[-6.6104,57.0515],[-6.4651,57.0422],[-6.5068,57.0712]]],[[[-6.4822,57.3563],[-6.4969,57.3701],[-6.5014,57.3663],[-6.5022,57.3608],[-6.4954,57.3527],[-6.4822,57.3563]]],[[[-6.4899,57.3314],[-6.4934,57.3465],[-6.5103,57.3348],[-6.4899,57.3314]]],[[[-6.5184,57.3701],[-6.5347,57.362],[-6.5184,57.3551],[-6.5184,57.3701]]],[[[-6.6403,57.5103],[-6.6454,57.525],[-6.6584,57.5227],[-6.6483,57.5069],[-6.6403,57.5103]]],[[[-6.7318,56.5419],[-6.755,56.555],[-6.8723,56.5208],[-6.9436,56.528],[-6.9853,56.5035],[-6.9779,56.4566],[-6.9011,56.4441],[-6.878,56.4858],[-6.8154,56.4906],[-6.8047,56.5217],[-6.7311,56.5276],[-6.7318,56.5419]]],[[[-6.8816,58.2068],[-6.8963,58.2151],[-6.9042,58.1974],[-6.8816,58.2068]]],[[[-6.9048,58.2236],[-6.9084,58.2345],[-6.9167,58.2356],[-6.9227,58.2279],[-6.912,58.219],[-6.9048,58.2236]]],[[[-6.9303,58.2294],[-6.9355,58.2413],[-6.9468,58.2442],[-6.9516,58.2392],[-6.9374,58.2284],[-6.9303,58.2294]]],[[[-6.9579,57.9319],[-6.9557,57.9391],[-6.9645,57.9463],[-6.9744,57.9393],[-6.9684,57.9308],[-6.9579,57.9319]]],[[[-6.9881,57.9041],[-6.9979,57.9214],[-7.0306,57.9189],[-7.0825,57.8837],[-7.014,57.8823],[-6.9881,57.9041]]],[[[-7.0432,57.6588],[-7.0579,57.6653],[-7.0762,57.6682],[-7.0788,57.6641],[-7.0712,57.6518],[-7.0594,57.6569],[-7.056,57.6489],[-7.047,57.6502],[-7.0432,57.6588]]],[[[-7.0717,57.6468],[-7.0951,57.6679],[-7.1067,57.6504],[-7.1751,57.6449],[-7.1648,57.6284],[-7.123,57.63],[-7.1498,57.617],[-7.1341,57.6075],[-7.0929,57.6143],[-7.0717,57.6468]]],[[[-7.0707,57.7599],[-7.0808,57.7741],[-7.0971,57.7678],[-7.0952,57.7638],[-7.0729,57.753],[-7.0707,57.7599]]],[[[-7.072,57.7395],[-7.0858,57.7503],[-7.0972,57.7451],[-7.0816,57.7344],[-7.072,57.7395]]],[[[-7.1001,58.0061],[-7.1293,58.0373],[-7.1701,58.0291],[-7.1507,58.0096],[-7.1001,58.0061]]],[[[-7.1656,57.6692],[-7.1948,57.6901],[-7.2813,57.6498],[-7.2836,57.6697],[-7.3045,57.6561],[-7.328,57.6796],[-7.3872,57.6405],[-7.4762,57.6583],[-7.5263,57.5992],[-7.4778,57.5731],[-7.4188,57.5772],[-7.3119,57.514],[-7.2595,57.5055],[-7.2656,57.4729],[-7.3581,57.4882],[-7.3984,57.4701],[-7.4034,57.4479],[-7.3184,57.4052],[-7.2287,57.4065],[-7.2174,57.3917],[-7.1963,57.4118],[-7.2453,57.443],[-7.2187,57.4774],[-7.1633,57.4893],[-7.2143,57.5017],[-7.1512,57.5179],[-7.1156,57.5839],[-7.192,57.6249],[-7.1656,57.6692]]],[[[-7.1182,58.0841],[-7.1343,58.0853],[-7.137,58.0761],[-7.1179,58.0727],[-7.1182,58.0841]]],[[[-7.1468,57.7334],[-7.1997,57.7344],[-7.2246,57.7076],[-7.1831,57.7034],[-7.1468,57.7334]]],[[[-7.2096,57.7649],[-7.2145,57.7851],[-7.2666,57.7739],[-7.2096,57.7649]]],[[[-7.2243,57.1169],[-7.3117,57.1471],[-7.2539,57.1653],[-7.2525,57.19],[-7.2843,57.2206],[-7.2039,57.2861],[-7.2061,57.3033],[-7.2541,57.3273],[-7.239,57.3429],[-7.2759,57.3769],[-7.3414,57.3989],[-7.4224,57.3844],[-7.4,57.3023],[-7.4357,57.2343],[-7.3957,57.1299],[-7.3605,57.1057],[-7.2386,57.1025],[-7.2243,57.1169]]],[[[-7.2391,57.6878],[-7.2515,57.6941],[-7.2629,57.6869],[-7.2531,57.6788],[-7.2391,57.6878]]],[[[-7.2478,57.8062],[-7.2655,57.8028],[-7.2574,57.7901],[-7.2478,57.8062]]],[[[-7.2802,57.0622],[-7.2695,57.0908],[-7.3114,57.0847],[-7.3077,57.0623],[-7.2802,57.0622]]],[[[-7.2774,57.7154],[-7.3008,57.717],[-7.2775,57.7022],[-7.2774,57.7154]]],[[[-7.3269,57.0295],[-7.3597,57.0143],[-7.3175,57.0148],[-7.3269,57.0295]]],[[[-7.3566,57.5054],[-7.3533,57.5405],[-7.3887,57.5389],[-7.3566,57.5054]]],[[[-7.3625,57.0023],[-7.3829,56.9993],[-7.3599,56.9897],[-7.3625,57.0023]]],[[[-7.3843,57.0448],[-7.3884,57.0594],[-7.4028,57.0481],[-7.3843,57.0448]]],[[[-7.3779,56.9867],[-7.4391,57.0211],[-7.428,57.0422],[-7.4485,57.0534],[-7.4593,57.0283],[-7.5055,57.013],[-7.5173,56.979],[-7.5553,56.9671],[-7.5686,56.936],[-7.5484,56.9116],[-7.5153,56.9137],[-7.5282,56.9458],[-7.4518,56.9469],[-7.3779,56.9867]]],[[[-7.3876,57.6639],[-7.3889,57.6693],[-7.4151,57.6679],[-7.4186,57.6617],[-7.4139,57.6568],[-7.3876,57.6639]]],[[[-7.436,57.5712],[-7.4251,57.5521],[-7.4034,57.5614],[-7.436,57.5712]]],[[[-7.4333,56.9169],[-7.4402,56.9247],[-7.4542,56.9196],[-7.4474,56.9082],[-7.4333,56.9169]]],[[[-7.5002,56.8814],[-7.5002,56.8987],[-7.5388,56.8974],[-7.5002,56.8814]]],[[[-7.5688,56.8495],[-7.5754,56.8622],[-7.5992,56.849],[-7.5688,56.8495]]],[[[-7.5659,56.8742],[-7.5822,56.8812],[-7.5872,56.8733],[-7.5841,56.8685],[-7.5679,56.8685],[-7.5659,56.8742]]],[[[-7.601,57.5292],[-7.606,57.5335],[-7.6252,57.5235],[-7.6376,57.5292],[-7.6393,57.518],[-7.6173,57.513],[-7.601,57.5292]]],[[[-7.6246,56.8037],[-7.6191,56.8289],[-7.658,56.8202],[-7.6464,56.7967],[-7.6246,56.8037]]],[[[-7.6195,56.7826],[-7.6201,56.7886],[-7.6457,56.7903],[-7.6523,56.786],[-7.6345,56.7782],[-7.6195,56.7826]]],[[[-7.6413,57.5382],[-7.6579,57.5354],[-7.6613,57.5279],[-7.645,57.5238],[-7.6413,57.5382]]],[[[-7.661,57.5267],[-7.6793,57.5268],[-7.685,57.5196],[-7.6599,57.5174],[-7.661,57.5267]]],[[[-8.4785,57.8665],[-8.4837,57.8698],[-8.4849,57.8755],[-8.4903,57.8784],[-8.5013,57.8665],[-8.4874,57.8627],[-8.4785,57.8665]]],[[[-8.5486,57.8128],[-8.6125,57.8199],[-8.5744,57.8018],[-8.5486,57.8128]]],[[[-8.6226,57.8267],[-8.6233,57.8357],[-8.6454,57.8291],[-8.6421,57.8218],[-8.6226,57.8267]]]]},"properties":{"iso3":"GBR","shapeId":"14339913B23556801435424","regionId":"GBR.3_1","name":"Scotland"}},{"type":"Feature","geometry":{"type":"MultiPolygon","coordinates":[[[[-3.1013,53.2669],[-3.1075,53.2517],[-3.3178,53.3525],[-3.6147,53.2911],[-3.7213,53.2971],[-3.7762,53.3265],[-3.8674,53.3399],[-3.8479,53.2948],[-4.1844,53.2114],[-4.3358,53.1024],[-4.3685,53.028],[-4.5114,52.9488],[-4.6464,52.9033],[-4.7163,52.853],[-4.75,52.7986],[-4.5962,52.8179],[-4.5189,52.7879],[-4.4731,52.8533],[-4.4006,52.8882],[-4.2466,52.9148],[-4.1025,52.9141],[-4.1348,52.8875],[-4.1363,52.8039],[-4.0647,52.7321],[-4.0278,52.7198],[-4.1008,52.6535],[-4.1144,52.6036],[-4.0593,52.5494],[-3.931,52.5536],[-4.0509,52.5248],[-4.1014,52.383],[-4.2196,52.2593],[-4.3774,52.2115],[-4.5173,52.1386],[-4.6704,52.1298],[-4.6925,52.1009],[-4.7346,52.1093],[-4.8523,52.0247],[-4.9049,52.0289],[-4.9729,52.0026],[-5.0011,52.0223],[-5.0685,52.0255],[-5.096,51.9711],[-5.2925,51.9085],[-5.3094,51.87],[-5.1379,51.8575],[-5.1094,51.8172],[-5.1127,51.7786],[-5.229,51.727],[-5.1746,51.6894],[-5.1588,51.7133],[-5.1118,51.7191],[-4.9553,51.7028],[-4.965,51.6794],[-5.1076,51.681],[-5.046,51.6212],[-4.9481,51.6008],[-4.857,51.6425],[-4.7218,51.6554],[-4.6654,51.7279],[-4.4398,51.7385],[-4.4462,51.7713],[-4.4095,51.7617],[-4.3717,51.7765],[-4.3545,51.7366],[-4.3702,51.7183],[-4.3029,51.6733],[-4.2105,51.6824],[-4.1112,51.6609],[-4.0525,51.7033],[-4.0811,51.6585],[-4.1709,51.6264],[-4.2452,51.644],[-4.3028,51.6098],[-4.3036,51.5621],[-4.2161,51.5395],[-4.1529,51.544],[-4.1339,51.5684],[-3.9931,51.565],[-3.9801,51.6054],[-3.8501,51.6151],[-3.7171,51.4799],[-3.6379,51.4698],[-3.5526,51.4006],[-3.3425,51.3823],[-3.1774,51.4045],[-3.1743,51.4567],[-2.9858,51.55],[-2.9031,51.5338],[-2.7151,51.5833],[-2.6661,51.6135],[-2.6801,51.6661],[-2.6627,51.6752],[-2.6837,51.7279],[-2.6665,51.75],[-2.6743,51.8024],[-2.6502,51.8262],[-2.7412,51.8401],[-2.7761,51.8816],[-2.8775,51.932],[-2.9671,51.9067],[-3.0674,51.9831],[-3.1181,52.0751],[-3.127,52.1298],[-3.0915,52.1517],[-3.1108,52.1718],[-3.0644,52.2348],[-2.989,52.2669],[-3.0012,52.3069],[-2.9547,52.3493],[-3.0657,52.3527],[-3.2277,52.4368],[-3.1953,52.474],[-3.0429,52.5027],[-3.0006,52.5437],[-3.0228,52.569],[-3.1201,52.5359],[-3.1298,52.5838],[-3.0866,52.6105],[-3.0231,52.7148],[-2.9751,52.7267],[-3.0245,52.7644],[-3.1564,52.7992],[-3.1475,52.8902],[-3.1175,52.8971],[-3.0969,52.9279],[-3.0411,52.9291],[-2.9761,52.9653],[-2.9318,52.9409],[-2.8477,52.9433],[-2.7972,52.8985],[-2.7301,52.9276],[-2.7268,52.9833],[-2.8326,52.9981],[-2.8972,53.091],[-2.8848,53.1186],[-2.9418,53.122],[-2.9876,53.1549],[-2.9283,53.1724],[-2.9252,53.1898],[-3.0002,53.2364],[-3.1013,53.2669]]],[[[-4.2077,53.3125],[-4.2338,53.3559],[-4.2763,53.3751],[-4.2908,53.4138],[-4.4237,53.4283],[-4.5721,53.4005],[-4.558,53.3723],[-4.5797,53.331],[-4.5676,53.2931],[-4.6492,53.3214],[-4.6921,53.3075],[-4.6799,53.2835],[-4.6226,53.2779],[-4.6062,53.2453],[-4.553,53.2464],[-4.5022,53.2112],[-4.5013,53.188],[-4.3574,53.1339],[-4.2225,53.186],[-4.2027,53.2135],[-4.0932,53.2609],[-4.0451,53.31],[-4.116,53.3186],[-4.2071,53.2973],[-4.2077,53.3125]]],[[[-4.6745,51.6376],[-4.6869,51.6421],[-4.7017,51.6383],[-4.7002,51.6337],[-4.6849,51.6297],[-4.6745,51.6376]]],[[[-4.7806,52.7673],[-4.7956,52.7682],[-4.7974,52.7555],[-4.7855,52.7529],[-4.7806,52.7673]]],[[[-5.268,51.6948],[-5.2713,51.7056],[-5.283,51.7027],[-5.288,51.6952],[-5.2843,51.6914],[-5.268,51.6948]]],[[[-5.281,51.7411],[-5.3134,51.7397],[-5.2931,51.7272],[-5.281,51.7411]]],[[[-5.3326,51.8756],[-5.3539,51.8653],[-5.334,51.8487],[-5.3326,51.8756]]]]},"properties":{"iso3":"GBR","shapeId":"14339913B89763821047858","regionId":"GBR.4_1","name":"Wales"}}]}