{"type":"FeatureCollection","features":[{"type":"Feature","geometry":{"type":"Polygon","coordinates":[[[42.1273,43.2135],[42.0433,43.1909],[42.0103,43.2138],[41.9481,43.2074],[41.8795,43.2444],[41.843,43.2078],[41.7976,43.2028],[41.7248,43.2388],[41.6129,43.227],[41.4689,43.3058],[41.4199,43.3139],[41.4035,43.3648],[41.3623,43.3668],[41.316,43.3418],[41.1419,43.3993],[41.061,43.3887],[41.0043,43.4335],[40.9314,43.433],[40.8877,43.4868],[40.8214,43.4944],[40.6668,43.562],[40.564,43.5194],[40.2516,43.5872],[40.1046,43.5647],[40.0088,43.4212],[40.0075,43.3865],[40.2417,43.3182],[40.2799,43.1859],[40.3432,43.1461],[40.3932,43.1737],[40.4707,43.1402],[40.5185,43.1426],[40.5828,43.092],[40.6482,43.1007],[40.8648,43.0752],[40.9691,42.9819],[41.0472,42.9923],[41.0837,42.9364],[41.1061,42.8445],[41.15,42.7977],[41.2279,42.802],[41.4312,42.7359],[41.4977,42.6024],[41.5424,42.4211],[41.6517,42.4426],[41.6338,42.4861],[41.7822,42.5457],[41.9417,42.647],[41.9312,42.699],[41.8989,42.7386],[41.9405,42.7497],[41.9477,42.7733],[41.8965,42.779],[41.8683,42.8537],[41.9389,42.8976],[41.9005,42.9078],[41.8833,42.9393],[41.8982,42.9655],[41.8538,42.9979],[41.8889,43.0255],[42.0382,43.0571],[42.1412,43.1701],[42.1273,43.2135]]]},"properties":{"iso3":"GEO","shapeId":"13066534B27338241074695","regionId":null,"name":"Abkhazia"}},{"type":"Feature","geometry":{"type":"Polygon","coordinates":[[[45.3044,41.4692],[45.3924,41.4289],[45.4681,41.4532],[45.5735,41.4123],[45.6057,41.3788],[45.7471,41.3701],[45.7548,41.3524],[45.7174,41.3421],[45.6968,41.3129],[45.743,41.258],[45.8077,41.2235],[45.8881,41.211],[45.9515,41.178],[46.0624,41.1893],[46.0999,41.1735],[46.1453,41.2044],[46.2801,41.1886],[46.3784,41.1029],[46.4514,41.0994],[46.4949,41.055],[46.5494,41.1121],[46.6288,41.0962],[46.6565,41.1986],[46.7371,41.2878],[46.7013,41.3054],[46.6949,41.3369],[46.636,41.3879],[46.4841,41.4287],[46.3507,41.4955],[46.301,41.5639],[46.3433,41.5704],[46.3345,41.6019],[46.2811,41.6016],[46.2701,41.6278],[46.2448,41.598],[46.2144,41.6144],[46.1899,41.7238],[46.2014,41.7707],[46.2323,41.7589],[46.2923,41.7765],[46.395,41.8428],[46.4244,41.9134],[46.4017,41.9398],[46.2864,41.9458],[46.2477,41.9842],[46.2577,42.0056],[46.2284,42.0153],[46.1614,41.9957],[46.1443,42.0107],[46.1086,41.9907],[46.0792,42.0361],[46.041,42.0214],[45.9878,42.0445],[45.9523,42.026],[45.9001,42.105],[45.7845,42.1045],[45.7412,42.1329],[45.7411,42.1539],[45.6084,42.2246],[45.6511,42.2882],[45.7538,42.3049],[45.7429,42.3829],[45.781,42.4443],[45.7762,42.4897],[45.7084,42.4781],[45.6888,42.504],[45.6003,42.5129],[45.5746,42.5464],[45.4067,42.5497],[45.3425,42.5254],[45.3007,42.5746],[45.2698,42.5265],[45.2676,42.4716],[45.2104,42.4304],[45.2324,42.3386],[45.1168,42.2867],[45.0819,42.223],[45.0694,42.1407],[45.0287,42.1226],[45.0638,42.0975],[45.0433,42.0597],[45.0869,42.0253],[45.0524,41.9831],[45.08,41.9563],[45.168,41.9455],[45.1908,41.9163],[45.1364,41.8923],[45.0821,41.9228],[45.0104,41.8978],[45.0538,41.8725],[45.04,41.8457],[45.0655,41.8423],[45.1148,41.755],[45.1462,41.7747],[45.1672,41.7662],[45.1591,41.7409],[45.2084,41.6986],[45.1794,41.6914],[45.2038,41.6369],[45.1646,41.5997],[45.221,41.5445],[45.3151,41.5106],[45.2958,41.4963],[45.3044,41.4692]]]},"properties":{"iso3":"GEO","shapeId":"13066534B18810562533194","regionId":"GEO.5_1","name":"Kakheti"}},{"type":"Feature","geometry":{"type":"Polygon","coordinates":[[[45.04,41.8458],[44.9453,41.8593],[44.9003,41.8347],[44.8561,41.8379],[44.8879,41.8166],[44.8352,41.757],[44.8813,41.724],[44.8772,41.708],[45.006,41.7051],[44.9879,41.6647],[44.9493,41.6418],[44.9001,41.6484],[44.8928,41.6292],[44.874,41.6529],[44.7908,41.654],[44.6734,41.7146],[44.5974,41.6972],[44.5053,41.7618],[44.3839,41.7388],[44.3172,41.7774],[44.2516,41.748],[44.1594,41.7576],[44.0889,41.7409],[43.9375,41.7432],[43.8668,41.7677],[43.8136,41.7024],[43.7462,41.7285],[43.6992,41.7081],[43.6997,41.6087],[43.6607,41.5398],[43.7231,41.526],[43.8182,41.5385],[43.8843,41.4827],[43.8892,41.4019],[43.9231,41.3875],[43.9521,41.3382],[43.9195,41.2614],[43.9622,41.2082],[43.9579,41.161],[44.0624,41.1915],[44.1621,41.1941],[44.1796,41.2433],[44.2362,41.2427],[44.2433,41.2173],[44.3163,41.2093],[44.3575,41.2323],[44.4556,41.1859],[44.5769,41.2026],[44.587,41.1882],[44.6181,41.2349],[44.7278,41.2104],[44.8031,41.2216],[44.8901,41.2078],[44.8135,41.2434],[44.8102,41.2939],[44.9481,41.2581],[44.9718,41.2862],[45.1042,41.342],[45.1788,41.4176],[45.2616,41.4661],[45.3044,41.4692],[45.2958,41.4963],[45.3171,41.5018],[45.1778,41.5773],[45.1653,41.6047],[45.204,41.6421],[45.1794,41.6914],[45.2084,41.6986],[45.1591,41.7409],[45.1672,41.7662],[45.1462,41.7747],[45.1148,41.755],[45.0655,41.8423],[45.04,41.8458]]]},"properties":{"iso3":"GEO","shapeId":"13066534B60595656675538","regionId":"GEO.6_1","name":"Kvemo Kartli"}},{"type":"Feature","geometry":{"type":"Polygon","coordinates":[[[44.8352,41.757],[44.8071,41.7828],[44.8188,41.814],[44.7066,41.8157],[44.7075,41.8009],[44.748,41.7918],[44.7481,41.7647],[44.7075,41.7472],[44.7235,41.7339],[44.6701,41.7282],[44.7178,41.6862],[44.7908,41.654],[44.874,41.6529],[44.8928,41.6292],[44.9001,41.6484],[44.9493,41.6418],[44.9879,41.6647],[45.0047,41.6957],[44.8796,41.7067],[44.8813,41.724],[44.8352,41.757]]]},"properties":{"iso3":"GEO","shapeId":"13066534B93111814336300","regionId":"GEO.12_1","name":"Tbilisi"}},{"type":"Feature","geometry":{"type":"Polygon","coordinates":[[[45.3007,42.5746],[45.1582,42.7113],[45.0399,42.6959],[44.9623,42.7498],[44.8841,42.7475],[44.8031,42.6187],[44.7612,42.6441],[44.7419,42.7213],[44.6878,42.7515],[44.5122,42.7539],[44.4931,42.7389],[44.5094,42.702],[44.3095,42.719],[44.232,42.6677],[44.2099,42.6102],[44.2705,42.5982],[44.3269,42.5462],[44.2718,42.4822],[44.3011,42.4147],[44.3389,42.399],[44.3111,42.3519],[44.3462,42.277],[44.2385,42.1944],[44.2612,42.1694],[44.2363,42.1539],[44.2529,42.1079],[44.229,42.0665],[44.2488,42.0509],[44.2814,42.0726],[44.2822,42.029],[44.3357,42.0648],[44.4612,42.0501],[44.4841,41.9829],[44.5486,41.9002],[44.5407,41.8689],[44.4956,41.8782],[44.4642,41.8585],[44.4877,41.8406],[44.4546,41.767],[44.5336,41.7551],[44.6091,41.6937],[44.6734,41.7145],[44.6745,41.7327],[44.7235,41.7339],[44.7075,41.7472],[44.7454,41.761],[44.748,41.7918],[44.7075,41.8009],[44.7066,41.8157],[44.8188,41.814],[44.8071,41.7828],[44.8352,41.757],[44.8879,41.8166],[44.8561,41.8379],[44.9003,41.8347],[44.9453,41.8593],[45.04,41.8458],[45.0538,41.8725],[45.0104,41.8978],[45.0662,41.9208],[45.1364,41.8923],[45.1858,41.9093],[45.1919,41.9257],[45.168,41.9455],[45.08,41.9563],[45.0524,41.9831],[45.0869,42.0253],[45.0433,42.0597],[45.0638,42.0975],[45.0287,42.1226],[45.0694,42.1407],[45.0819,42.223],[45.1168,42.2867],[45.2324,42.3386],[45.2104,42.4304],[45.2676,42.4716],[45.2698,42.5265],[45.3007,42.5746]]]},"properties":{"iso3":"GEO","shapeId":"13066534B64349154399075","regionId":"GEO.7_1","name":"Mtskheta-Mtianeti"}},{"type":"Feature","geometry":{"type":"Polygon","coordinates":[[[43.8666,41.7676],[43.6468,41.8169],[43.6375,41.8437],[43.5746,41.8629],[43.5527,41.9128],[43.441,41.9482],[43.1216,41.8362],[42.9817,41.8386],[42.9484,41.8155],[42.8005,41.8408],[42.7335,41.8116],[42.6321,41.8397],[42.5987,41.8],[42.4968,41.8084],[42.5263,41.7629],[42.5074,41.7041],[42.5293,41.6662],[42.5757,41.6383],[42.6014,41.5807],[42.7081,41.5974],[42.7758,41.5778],[42.8239,41.5847],[42.8317,41.5706],[42.7935,41.5113],[42.8087,41.4886],[42.8483,41.4706],[42.8641,41.4975],[42.8975,41.5004],[42.8991,41.4791],[42.9684,41.4472],[43.0193,41.376],[43.086,41.3582],[43.1281,41.3164],[43.1997,41.3009],[43.124,41.2533],[43.196,41.2462],[43.229,41.1754],[43.3758,41.2007],[43.4446,41.1759],[43.4711,41.1282],[43.5636,41.1502],[43.6124,41.127],[43.6704,41.1383],[43.7436,41.1119],[43.8442,41.1636],[43.9522,41.164],[43.9638,41.1834],[43.9195,41.2614],[43.9521,41.3382],[43.9231,41.3875],[43.8892,41.4019],[43.8843,41.4827],[43.8182,41.5385],[43.7231,41.526],[43.6601,41.5431],[43.6997,41.6087],[43.6992,41.7081],[43.7462,41.7285],[43.8136,41.7024],[43.8666,41.7676]]]},"properties":{"iso3":"GEO","shapeId":"13066534B71664328266075","regionId":"GEO.10_1","name":"Samtskhe-Javakheti"}},{"type":"Feature","geometry":{"type":"Polygon","coordinates":[[[42.4991,41.8084],[42.4349,41.8214],[42.4268,41.8434],[42.3854,41.8547],[42.3591,41.8304],[42.2217,41.7973],[42.1995,41.8313],[42.1047,41.8347],[42.0826,41.8104],[41.9725,41.8648],[41.9349,41.9121],[41.8925,41.8975],[41.7672,41.9122],[41.7693,41.8075],[41.7256,41.7217],[41.6677,41.653],[41.6351,41.6575],[41.5853,41.6203],[41.5461,41.5206],[41.6467,41.4839],[41.7107,41.4946],[41.7117,41.4753],[41.833,41.4332],[41.9586,41.5213],[42.0408,41.4908],[42.1725,41.5092],[42.2058,41.4898],[42.401,41.4608],[42.4494,41.4344],[42.5157,41.4361],[42.5113,41.471],[42.5645,41.5049],[42.578,41.5642],[42.6014,41.5807],[42.5757,41.6383],[42.5293,41.6662],[42.5074,41.7041],[42.5263,41.7629],[42.4991,41.8084]]]},"properties":{"iso3":"GEO","shapeId":"13066534B27622454556820","regionId":null,"name":"Adjara"}},{"type":"Feature","geometry":{"type":"Polygon","coordinates":[[[42.6593,41.8356],[42.6606,41.9058],[42.6358,41.9487],[42.5701,41.9498],[42.4621,41.9992],[42.4315,41.9924],[42.388,42.0683],[42.34,42.0723],[42.3369,42.0557],[42.3049,42.0519],[42.2319,42.0727],[42.2142,42.0969],[42.2237,42.1376],[42.1307,42.1214],[42.1103,42.1496],[41.9256,42.1766],[41.9028,42.1591],[41.7732,42.1546],[41.7483,42.1448],[41.777,42.131],[41.6983,42.1084],[41.7552,42.0129],[41.7672,41.9122],[41.8925,41.8975],[41.9349,41.9121],[41.9725,41.8648],[42.0826,41.8104],[42.1047,41.8347],[42.1995,41.8313],[42.2217,41.7973],[42.3591,41.8304],[42.3854,41.8547],[42.4268,41.8434],[42.4349,41.8214],[42.5829,41.798],[42.6239,41.8388],[42.6593,41.8356]]]},"properties":{"iso3":"GEO","shapeId":"13066534B95762165423207","regionId":"GEO.3_1","name":"Guria"}},{"type":"Feature","geometry":{"type":"Polygon","coordinates":[[[44.4629,41.7583],[44.4506,41.7794],[44.4877,41.8406],[44.4642,41.8585],[44.4956,41.8782],[44.5407,41.8689],[44.5486,41.9002],[44.4841,41.9829],[44.4734,42.0362],[44.4501,42.0539],[44.3357,42.0648],[44.2822,42.029],[44.2814,42.0726],[44.2488,42.0509],[44.229,42.0665],[44.2529,42.1079],[44.2363,42.1539],[44.2612,42.1694],[44.2385,42.1944],[44.3462,42.277],[44.3111,42.3519],[44.3389,42.399],[44.3011,42.4147],[44.2718,42.4822],[44.3269,42.5462],[44.2705,42.5982],[44.235,42.5963],[44.2099,42.6102],[44.2239,42.6305],[44.1812,42.633],[44.1577,42.6102],[44.0927,42.6163],[43.9969,42.5938],[43.9448,42.5533],[43.8236,42.5178],[43.7961,42.4855],[43.6215,42.4671],[43.5692,42.4784],[43.5691,42.4468],[43.7062,42.4403],[43.7054,42.4114],[43.7316,42.4272],[43.7607,42.4182],[43.713,42.3345],[43.6486,42.3342],[43.647,42.3122],[43.5875,42.2764],[43.5957,42.2043],[43.5359,42.1195],[43.4803,42.0933],[43.46,42.0496],[43.4675,42.0158],[43.3993,41.9741],[43.4181,41.9484],[43.5441,41.9181],[43.5746,41.8629],[43.6375,41.8437],[43.6468,41.8169],[43.8477,41.781],[43.8834,41.7524],[44.0889,41.7409],[44.1594,41.7576],[44.2078,41.7439],[44.3172,41.7774],[44.3839,41.7388],[44.4629,41.7583]]]},"properties":{"iso3":"GEO","shapeId":"13066534B94010522959464","regionId":"GEO.11_1","name":"Shida Kartli"}},{"type":"Feature","geometry":{"type":"Polygon","coordinates":[[[43.4255,41.9443],[43.3993,41.9741],[43.4675,42.0158],[43.46,42.0496],[43.4803,42.0933],[43.5359,42.1195],[43.5957,42.2043],[43.5875,42.2764],[43.647,42.3122],[43.6486,42.3342],[43.713,42.3345],[43.7597,42.4208],[43.7054,42.4114],[43.7062,42.4403],[43.6625,42.4305],[43.6283,42.4525],[43.5583,42.4364],[43.5071,42.4601],[43.4664,42.4424],[43.2721,42.467],[43.162,42.3986],[43.0417,42.3759],[42.9449,42.4007],[42.9326,42.4206],[42.9632,42.4426],[42.9026,42.4869],[42.8184,42.509],[42.7812,42.489],[42.7266,42.5166],[42.6861,42.485],[42.633,42.4753],[42.6117,42.5108],[42.626,42.5684],[42.529,42.5591],[42.457,42.4815],[42.435,42.4391],[42.4425,42.4167],[42.2781,42.2395],[42.2973,42.1655],[42.2854,42.1325],[42.2615,42.1223],[42.2237,42.1376],[42.2142,42.0969],[42.2319,42.0727],[42.3049,42.0519],[42.3369,42.0557],[42.34,42.0723],[42.388,42.0683],[42.4315,41.9924],[42.4621,41.9992],[42.5701,41.9498],[42.6358,41.9487],[42.6606,41.9058],[42.6593,41.8356],[42.7335,41.8116],[42.8005,41.8408],[42.9484,41.8155],[42.9817,41.8386],[43.1216,41.8362],[43.4255,41.9443]]]},"properties":{"iso3":"GEO","shapeId":"13066534B65630723466818","regionId":"GEO.4_1","name":"Imereti"}},{"type":"Feature","geometry":{"type":"Polygon","coordinates":[[[43.9295,42.5554],[43.8322,42.5973],[43.7559,42.5927],[43.7141,42.6284],[43.804,42.7105],[43.8028,42.7389],[43.7785,42.7571],[43.6896,42.7994],[43.6503,42.797],[43.5749,42.8615],[43.4018,42.894],[43.351,42.8835],[43.3286,42.909],[43.2,42.9321],[43.1645,42.9627],[43.1511,42.9402],[43.1115,42.9307],[43.0651,42.862],[43.0502,42.8857],[42.9202,42.8794],[42.8199,42.9213],[42.7022,42.8947],[42.4838,42.9417],[42.4834,42.8925],[42.3921,42.8943],[42.3593,42.8343],[42.3786,42.8103],[42.5108,42.7661],[42.5634,42.7251],[42.5235,42.6742],[42.5896,42.5868],[42.626,42.5684],[42.6109,42.533],[42.6273,42.4778],[42.6861,42.485],[42.7266,42.5166],[42.7812,42.489],[42.8235,42.5081],[42.9026,42.4869],[42.9569,42.4499],[42.9623,42.4355],[42.9326,42.4206],[42.9449,42.4007],[43.0417,42.3759],[43.162,42.3986],[43.2721,42.467],[43.4664,42.4424],[43.5071,42.4601],[43.5116,42.4456],[43.5687,42.4376],[43.5692,42.4784],[43.6215,42.4671],[43.7961,42.4855],[43.8236,42.5178],[43.9295,42.5554]]]},"properties":{"iso3":"GEO","shapeId":"13066534B45176100929029","regionId":"GEO.8_1","name":"Racha-Lechkhumi-Kvemo Svaneti"}},{"type":"Feature","geometry":{"type":"Polygon","coordinates":[[[41.5424,42.4211],[41.6021,42.3527],[41.6354,42.2659],[41.6328,42.1876],[41.7052,42.0806],[41.6983,42.1084],[41.777,42.131],[41.7496,42.1463],[41.9028,42.1591],[41.9256,42.1766],[42.1103,42.1496],[42.1307,42.1214],[42.2237,42.1376],[42.2735,42.1242],[42.2973,42.1655],[42.2781,42.2395],[42.4425,42.4167],[42.435,42.4391],[42.4829,42.5172],[42.5232,42.5575],[42.6076,42.5727],[42.5235,42.6742],[42.5634,42.7251],[42.5108,42.7661],[42.4144,42.7917],[42.3601,42.8303],[42.3852,42.8883],[42.4834,42.8925],[42.4727,42.9335],[42.5038,42.9426],[42.5726,42.913],[42.6438,42.9179],[42.7022,42.8947],[42.8199,42.9213],[42.9202,42.8794],[43.0502,42.8857],[43.0651,42.862],[43.1115,42.9307],[43.1511,42.9402],[43.1645,42.9627],[43.043,43.0237],[43.0251,43.0597],[43.0456,43.0904],[42.9395,43.1249],[42.926,43.1494],[42.8853,43.1521],[42.8669,43.1745],[42.6851,43.1765],[42.665,43.1371],[42.4561,43.2099],[42.4306,43.2533],[42.2808,43.2091],[42.2233,43.2293],[42.1273,43.2135],[42.1412,43.1701],[42.0382,43.0571],[41.8889,43.0255],[41.8538,42.9979],[41.8982,42.9655],[41.8833,42.9393],[41.9005,42.9078],[41.9389,42.8976],[41.8683,42.8537],[41.8965,42.779],[41.9477,42.7733],[41.9405,42.7497],[41.8989,42.7386],[41.9312,42.699],[41.9417,42.647],[41.7822,42.5457],[41.6338,42.4861],[41.6517,42.4426],[41.5424,42.4211]]]},"properties":{"iso3":"GEO","shapeId":"13066534B80116330304733","regionId":"GEO.9_1","name":"Samegrelo-Zemo Svaneti"}}]}