{"type":"FeatureCollection","features":[{"type":"Feature","geometry":{"type":"Polygon","coordinates":[[[-89.4109,15.8563],[-89.4788,15.8614],[-89.4998,15.8443],[-89.5001,16.0409],[-89.528,16.0531],[-89.5823,16.0102],[-89.5967,16.0193],[-89.591,16.007],[-89.6379,16.0138],[-89.6515,15.9734],[-89.7305,15.9653],[-89.7597,15.921],[-89.8579,15.9043],[-89.8967,15.9461],[-89.8921,15.9654],[-89.9013,15.953],[-89.9289,15.9737],[-89.9483,15.9667],[-89.9787,16.0144],[-89.9802,15.99],[-90.0152,15.9925],[-90.0126,16.0097],[-90.0351,16.0158],[-90.0452,15.9915],[-90.2133,16.0449],[-90.4422,16.074],[-90.418,16.0669],[-90.4425,16.0444],[-90.4239,16.0223],[-90.4402,16.03],[-90.4713,16.0035],[-90.4876,16.016],[-90.5112,15.9827],[-90.5008,16.0008],[-90.5228,15.9899],[-90.5182,16.0019],[-90.5582,15.9935],[-90.6103,16.0119],[-90.5995,16.0369],[-90.6165,16.0235],[-90.6686,16.0394],[-90.7011,16.0205],[-90.7031,15.9745],[-90.7341,15.9841],[-90.7613,15.9619],[-90.733,15.9464],[-90.7599,15.8883],[-90.7304,15.8607],[-90.8207,15.7489],[-90.7786,15.73],[-90.7976,15.72],[-90.7709,15.7045],[-90.7936,15.6788],[-90.6569,15.6499],[-90.6302,15.6116],[-90.642,15.5828],[-90.6194,15.5699],[-90.6046,15.5073],[-90.6374,15.4857],[-90.6629,15.4314],[-90.6992,15.4405],[-90.7116,15.4204],[-90.6913,15.3632],[-90.4994,15.3326],[-90.4802,15.3221],[-90.4849,15.2832],[-90.4031,15.2796],[-90.335,15.2262],[-90.3054,15.2468],[-90.2904,15.2941],[-90.2013,15.2649],[-90.0627,15.2618],[-89.9476,15.2725],[-89.9173,15.3021],[-89.9424,15.2111],[-89.992,15.1419],[-89.9582,15.1542],[-89.893,15.1403],[-89.7843,15.1714],[-89.7665,15.1493],[-89.7223,15.1517],[-89.6661,15.1197],[-89.6661,15.1485],[-89.6269,15.1615],[-89.576,15.2419],[-89.5686,15.3096],[-89.5379,15.3113],[-89.5466,15.344],[-89.512,15.3634],[-89.5144,15.4161],[-89.533,15.4243],[-89.5164,15.453],[-89.59,15.4784],[-89.5669,15.499],[-89.5829,15.522],[-89.4109,15.8563]]]},"properties":{"iso3":"GTM","shapeId":"53557124B24572600119042","regionId":"GTM.1_1","name":"Alta Verapaz"}},{"type":"Feature","geometry":{"type":"Polygon","coordinates":[[[-91.1187,14.5153],[-91.1436,14.5513],[-91.1886,14.5624],[-91.266,14.5309],[-91.2854,14.6066],[-91.3306,14.6435],[-91.4106,14.641],[-91.4474,14.5969],[-91.5066,14.6015],[-91.4802,14.6374],[-91.4875,14.7109],[-91.563,14.6302],[-91.589,14.5376],[-91.5809,14.4435],[-91.6008,14.3566],[-91.5884,14.3393],[-91.6247,14.2672],[-91.6236,14.207],[-91.669,14.1247],[-91.5357,14.0445],[-91.5326,14.0823],[-91.4482,14.1982],[-91.4604,14.3046],[-91.4344,14.323],[-91.428,14.2828],[-91.4111,14.2901],[-91.3734,14.3745],[-91.3271,14.3981],[-91.3423,14.3176],[-91.2817,14.3089],[-91.2565,14.3356],[-91.2648,14.3039],[-91.1485,14.2827],[-91.1275,14.3316],[-91.1373,14.3746],[-91.0972,14.4179],[-91.0958,14.4489],[-91.1305,14.4572],[-91.1187,14.5153]]]},"properties":{"iso3":"GTM","shapeId":"53557124B97439913802456","regionId":"GTM.20_1","name":"Suchitepéquez"}},{"type":"Feature","geometry":{"type":"Polygon","coordinates":[[[-89.9199,15.1402],[-89.9066,15.0845],[-90.0087,15.0763],[-90.0501,15.0455],[-90.1203,15.0369],[-90.3141,14.9178],[-90.3084,14.8787],[-90.4044,14.8668],[-90.4033,14.8459],[-90.3238,14.8299],[-90.3388,14.7765],[-90.3216,14.735],[-90.2041,14.6821],[-90.1922,14.6485],[-90.181,14.7052],[-90.0723,14.7118],[-90.049,14.7521],[-89.9858,14.7713],[-89.9555,14.8158],[-89.8194,14.9056],[-89.8652,15.0216],[-89.7806,15.0122],[-89.893,15.1403],[-89.9199,15.1402]]]},"properties":{"iso3":"GTM","shapeId":"53557124B56180322240985","regionId":"GTM.5_1","name":"El Progreso"}},{"type":"Feature","geometry":{"type":"Polygon","coordinates":[[[-89.893,15.1403],[-89.7806,15.0122],[-89.8652,15.0216],[-89.8153,14.9163],[-89.8633,14.8634],[-89.8204,14.8456],[-89.8133,14.7933],[-89.7478,14.7421],[-89.7125,14.7579],[-89.7063,14.8446],[-89.6665,14.8781],[-89.5879,14.8546],[-89.5019,14.8616],[-89.482,14.8949],[-89.4278,14.9061],[-89.3784,14.8944],[-89.3211,14.9119],[-89.2726,14.8958],[-89.2236,14.9498],[-89.179,14.923],[-89.1566,14.9798],[-89.1844,15.0025],[-89.1536,15.0683],[-89.186,15.106],[-89.1952,15.1728],[-89.2187,15.1825],[-89.1746,15.2086],[-89.1756,15.2672],[-89.1899,15.2832],[-89.2178,15.274],[-89.2298,15.2956],[-89.3626,15.2772],[-89.421,15.2155],[-89.5313,15.1761],[-89.6414,15.1618],[-89.6661,15.1485],[-89.6661,15.1197],[-89.7223,15.1517],[-89.7665,15.1493],[-89.7843,15.1714],[-89.893,15.1403]]]},"properties":{"iso3":"GTM","shapeId":"53557124B14274164057878","regionId":"GTM.22_1","name":"Zacapa"}},{"type":"Feature","geometry":{"type":"Polygon","coordinates":[[[-89.4109,15.8563],[-89.3549,15.9205],[-89.2637,15.92],[-89.2262,15.8957],[-89.1532,17.0232],[-89.1569,17.8156],[-90.9877,17.8153],[-90.9874,17.2513],[-91.4398,17.2508],[-91.4288,17.2185],[-91.3545,17.1905],[-91.3492,17.16],[-91.3245,17.1827],[-91.2664,17.1701],[-91.2669,17.1079],[-91.227,17.0951],[-91.1753,17.0157],[-91.1228,17.0034],[-91.0656,16.9029],[-90.9878,16.8631],[-90.9851,16.898],[-90.965,16.9015],[-90.9545,16.8845],[-90.9741,16.8636],[-90.9336,16.8593],[-90.9218,16.8219],[-90.8037,16.7984],[-90.8029,16.7766],[-90.7143,16.7271],[-90.6581,16.6403],[-90.6671,16.5818],[-90.6444,16.5797],[-90.6412,16.5958],[-90.6261,16.5777],[-90.647,16.5608],[-90.6461,16.519],[-90.6157,16.5213],[-90.6059,16.5027],[-90.6312,16.4784],[-90.5467,16.4828],[-90.5293,16.4579],[-90.4798,16.4608],[-90.4853,16.4231],[-90.3883,16.4115],[-90.4029,16.393],[-90.3716,16.3631],[-90.4111,16.361],[-90.3823,16.3377],[-90.4384,16.2998],[-90.4234,16.2586],[-90.4552,16.2448],[-90.429,16.2335],[-90.457,16.2075],[-90.426,16.1639],[-90.4513,16.1493],[-90.4309,16.1196],[-90.4589,16.1113],[-90.455,16.0927],[-90.4262,16.1032],[-90.4422,16.074],[-90.2133,16.0449],[-90.0452,15.9915],[-90.0351,16.0158],[-90.0126,16.0097],[-90.0152,15.9925],[-89.9802,15.99],[-89.9787,16.0144],[-89.9483,15.9667],[-89.9289,15.9737],[-89.9013,15.953],[-89.8921,15.9654],[-89.8967,15.9461],[-89.8579,15.9043],[-89.7597,15.921],[-89.7305,15.9653],[-89.6515,15.9734],[-89.6379,16.0138],[-89.591,16.007],[-89.5967,16.0193],[-89.5823,16.0102],[-89.528,16.0531],[-89.5001,16.0409],[-89.4998,15.8443],[-89.4788,15.8614],[-89.4109,15.8563]]]},"properties":{"iso3":"GTM","shapeId":"53557124B7234641414324","regionId":"GTM.12_1","name":"Petén"}},{"type":"Feature","geometry":{"type":"Polygon","coordinates":[[[-90.4422,16.074],[-91.1078,16.0734],[-91.1324,16.0305],[-91.1288,15.9998],[-91.0967,15.9698],[-91.0606,15.9685],[-91.0516,15.9153],[-91.0927,15.8009],[-91.1524,15.8322],[-91.1694,15.8002],[-91.1399,15.7757],[-91.1582,15.7161],[-91.1837,15.6656],[-91.2751,15.6062],[-91.2629,15.5946],[-91.3128,15.5357],[-91.316,15.4722],[-91.2472,15.3879],[-91.171,15.3911],[-91.1466,15.3744],[-91.1887,15.2873],[-91.3262,15.265],[-91.3108,15.244],[-91.3187,15.2008],[-91.205,15.111],[-91.2141,15.1001],[-91.2581,15.125],[-91.2718,15.0354],[-91.2547,14.9798],[-91.2325,14.9768],[-91.2387,14.9452],[-91.0717,14.8019],[-91.0246,14.8243],[-91.046,14.8456],[-90.9971,14.9385],[-90.919,14.9197],[-90.8721,14.936],[-90.7697,14.9279],[-90.6532,14.8853],[-90.6151,14.9015],[-90.6602,14.9632],[-90.6542,14.996],[-90.75,15.064],[-90.8058,15.1525],[-90.809,15.2352],[-90.7332,15.2048],[-90.542,15.2047],[-90.491,15.2665],[-90.4802,15.3221],[-90.6455,15.3469],[-90.708,15.3838],[-90.6992,15.4405],[-90.6629,15.4314],[-90.6374,15.4857],[-90.6046,15.5073],[-90.6194,15.5699],[-90.642,15.5828],[-90.6302,15.6116],[-90.6569,15.6499],[-90.7936,15.6788],[-90.7709,15.7045],[-90.7976,15.72],[-90.7786,15.73],[-90.8207,15.7489],[-90.7304,15.8607],[-90.7599,15.8883],[-90.733,15.9464],[-90.7613,15.9619],[-90.7341,15.9841],[-90.7031,15.9745],[-90.7011,16.0205],[-90.6686,16.0394],[-90.6165,16.0235],[-90.5995,16.0369],[-90.6103,16.0119],[-90.5582,15.9935],[-90.5182,16.0019],[-90.5228,15.9899],[-90.5008,16.0008],[-90.5112,15.9827],[-90.4876,16.016],[-90.4713,16.0035],[-90.4402,16.03],[-90.4239,16.0223],[-90.4425,16.0444],[-90.418,16.0669],[-90.4422,16.074]]]},"properties":{"iso3":"GTM","shapeId":"53557124B57493731306464","regionId":"GTM.14_1","name":"Quiché"}},{"type":"Feature","geometry":{"type":"Polygon","coordinates":[[[-89.7204,14.7509],[-89.6612,14.7549],[-89.6612,14.705],[-89.6483,14.706],[-89.6617,14.6182],[-89.694,14.5571],[-89.6817,14.5307],[-89.6396,14.5633],[-89.6149,14.5514],[-89.6198,14.5114],[-89.5073,14.5095],[-89.5015,14.4479],[-89.522,14.4281],[-89.5105,14.4067],[-89.4707,14.4296],[-89.4348,14.4121],[-89.3929,14.451],[-89.3851,14.4276],[-89.3554,14.4214],[-89.3561,14.4685],[-89.302,14.4939],[-89.2389,14.5846],[-89.1678,14.5719],[-89.1535,14.5842],[-89.1572,14.6714],[-89.1319,14.7113],[-89.1665,14.7306],[-89.1691,14.774],[-89.2246,14.8339],[-89.2281,14.8825],[-89.1793,14.9173],[-89.2008,14.9478],[-89.2236,14.9498],[-89.2812,14.8943],[-89.3211,14.9119],[-89.3784,14.8944],[-89.4278,14.9061],[-89.482,14.8949],[-89.5019,14.8616],[-89.5879,14.8546],[-89.6665,14.8781],[-89.7063,14.8446],[-89.703,14.7855],[-89.7204,14.7509]]]},"properties":{"iso3":"GTM","shapeId":"53557124B25298484445247","regionId":"GTM.4_1","name":"Chiquimula"}},{"type":"Feature","geometry":{"type":"Polygon","coordinates":[[[-90.6505,14.4524],[-90.6707,14.4783],[-90.656,14.5564],[-90.6416,14.5606],[-90.6635,14.5864],[-90.6253,14.5666],[-90.6029,14.5884],[-90.6325,14.6035],[-90.6321,14.6589],[-90.6659,14.6684],[-90.6791,14.7129],[-90.7216,14.6963],[-90.7534,14.7219],[-90.7708,14.6902],[-90.7635,14.6505],[-90.8117,14.5608],[-90.8498,14.5592],[-90.8684,14.5314],[-90.88,14.4716],[-90.8434,14.4473],[-90.8054,14.3832],[-90.7416,14.4636],[-90.6505,14.4524]]]},"properties":{"iso3":"GTM","shapeId":"53557124B89655490483829","regionId":"GTM.16_1","name":"Sacatepéquez"}},{"type":"Feature","geometry":{"type":"Polygon","coordinates":[[[-90.3942,14.8744],[-90.4243,14.9151],[-90.4434,14.8826],[-90.4934,14.8955],[-90.5789,14.8694],[-90.6231,14.8781],[-90.6929,14.8332],[-90.6874,14.8007],[-90.7596,14.736],[-90.7325,14.6994],[-90.6791,14.7129],[-90.6659,14.6684],[-90.6321,14.6589],[-90.6325,14.6035],[-90.6029,14.5884],[-90.6253,14.5666],[-90.6635,14.5864],[-90.6416,14.5606],[-90.656,14.5564],[-90.6707,14.4783],[-90.5878,14.427],[-90.6105,14.3554],[-90.5666,14.2813],[-90.5729,14.2566],[-90.4334,14.3383],[-90.4388,14.4093],[-90.4141,14.4373],[-90.4134,14.4733],[-90.3537,14.5029],[-90.3276,14.4682],[-90.3028,14.5119],[-90.2512,14.5489],[-90.2677,14.6026],[-90.2181,14.6371],[-90.2035,14.6758],[-90.3216,14.735],[-90.3388,14.7765],[-90.3238,14.8299],[-90.4033,14.8459],[-90.3942,14.8744]],[[-90.6049,14.4726],[-90.6099,14.4899],[-90.5683,14.4858],[-90.5646,14.4514],[-90.5281,14.445],[-90.5347,14.4226],[-90.6049,14.4726]]]},"properties":{"iso3":"GTM","shapeId":"53557124B7049276162389","regionId":null,"name":"Guatemala"}},{"type":"Feature","geometry":{"type":"Polygon","coordinates":[[[-89.6269,15.1615],[-89.4671,15.1954],[-89.421,15.2155],[-89.3752,15.272],[-89.3088,15.2728],[-89.2972,15.2925],[-89.2579,15.2978],[-89.1756,15.2672],[-89.1746,15.2086],[-89.2187,15.1825],[-89.1952,15.1728],[-89.186,15.106],[-89.1607,15.0723],[-88.9745,15.136],[-88.8456,15.2432],[-88.6782,15.3423],[-88.3446,15.6185],[-88.3247,15.6725],[-88.2491,15.6881],[-88.251,15.7205],[-88.227,15.7231],[-88.4548,15.8617],[-88.5549,15.9443],[-88.6205,15.9641],[-88.5475,15.8787],[-88.4912,15.8505],[-88.4995,15.8314],[-88.5442,15.8471],[-88.5522,15.8356],[-88.5637,15.8535],[-88.5524,15.8142],[-88.5789,15.7463],[-88.6057,15.734],[-88.6009,15.6994],[-88.6448,15.6965],[-88.6273,15.7516],[-88.7266,15.8145],[-88.7792,15.8008],[-88.7764,15.7737],[-88.8299,15.7704],[-88.8894,15.6847],[-88.9362,15.6943],[-88.9504,15.6677],[-88.992,15.6649],[-88.981,15.6211],[-89.005,15.5899],[-88.9833,15.5089],[-89.0357,15.4622],[-89.1289,15.4057],[-89.2602,15.4156],[-89.2693,15.4067],[-89.2446,15.4072],[-89.3059,15.353],[-89.3359,15.3726],[-89.3414,15.3924],[-89.3247,15.4026],[-89.3429,15.411],[-89.3215,15.427],[-89.346,15.4593],[-89.3645,15.4496],[-89.3545,15.4697],[-89.3948,15.4509],[-89.3916,15.4731],[-89.4121,15.4535],[-89.3748,15.5068],[-89.313,15.5304],[-89.267,15.5199],[-89.2247,15.5715],[-89.1794,15.5789],[-89.1524,15.5633],[-89.0705,15.5881],[-89.052,15.6158],[-88.9941,15.6351],[-89.0005,15.6669],[-88.9515,15.6838],[-88.9285,15.733],[-88.8733,15.7464],[-88.8487,15.7867],[-88.7779,15.7762],[-88.7815,15.8011],[-88.7476,15.8263],[-88.8286,15.872],[-88.8821,15.861],[-88.9127,15.8983],[-89.0199,15.8936],[-89.019,15.909],[-89.0498,15.9009],[-89.055,15.9162],[-89.0787,15.8964],[-89.1021,15.9118],[-89.1497,15.896],[-89.1758,15.913],[-89.2211,15.8852],[-89.2637,15.92],[-89.3648,15.9176],[-89.4388,15.8157],[-89.5829,15.522],[-89.5669,15.499],[-89.59,15.4784],[-89.5164,15.453],[-89.533,15.4243],[-89.5144,15.4161],[-89.512,15.3634],[-89.5466,15.344],[-89.5379,15.3113],[-89.5686,15.3096],[-89.576,15.2419],[-89.6269,15.1615]],[[-89.3468,15.4077],[-89.3524,15.4078],[-89.345,15.4091],[-89.3468,15.4077]]]},"properties":{"iso3":"GTM","shapeId":"53557124B93889796431495","regionId":"GTM.9_1","name":"Izabal"}},{"type":"Feature","geometry":{"type":"Polygon","coordinates":[[[-90.2035,14.6758],[-90.2181,14.6371],[-90.2677,14.6026],[-90.2512,14.5489],[-90.2778,14.5175],[-90.2531,14.5082],[-90.2574,14.4827],[-90.2441,14.4716],[-90.1436,14.5004],[-90.1141,14.4938],[-90.1111,14.4711],[-90.0469,14.4299],[-89.9849,14.4318],[-89.9809,14.4513],[-89.926,14.4631],[-89.8888,14.4387],[-89.834,14.5142],[-89.7884,14.4815],[-89.692,14.4959],[-89.6793,14.5432],[-89.694,14.5571],[-89.6617,14.6182],[-89.6483,14.706],[-89.6612,14.705],[-89.6612,14.7549],[-89.7697,14.7513],[-89.8271,14.8142],[-89.8204,14.8456],[-89.874,14.8719],[-89.9555,14.8158],[-89.9858,14.7713],[-90.049,14.7521],[-90.0723,14.7118],[-90.181,14.7052],[-90.1922,14.6485],[-90.2035,14.6758]]]},"properties":{"iso3":"GTM","shapeId":"53557124B78393665096661","regionId":"GTM.10_1","name":"Jalapa"}},{"type":"Feature","geometry":{"type":"Polygon","coordinates":[[[-91.5692,15.2244],[-91.6293,15.2386],[-91.7073,15.3369],[-91.8231,15.3278],[-91.8809,15.3616],[-92.0088,15.265],[-92.0773,15.2778],[-92.0787,15.3967],[-92.1174,15.4235],[-92.2098,15.2609],[-92.0594,15.0686],[-92.0849,15.0212],[-92.1311,15.0119],[-92.1505,14.9868],[-92.1368,14.8884],[-92.1827,14.8286],[-92.1449,14.6632],[-92.1801,14.6204],[-92.184,14.5752],[-92.2264,14.5322],[-92.1642,14.4864],[-92.1146,14.5044],[-92.1052,14.5304],[-92.0503,14.5653],[-92.0542,14.5875],[-92.14,14.6168],[-92.0525,14.7067],[-91.9305,14.7285],[-91.8442,14.7145],[-91.7936,14.7381],[-91.7584,14.8708],[-91.7133,14.9011],[-91.7255,14.9221],[-91.6752,14.9537],[-91.6611,15.055],[-91.7021,15.111],[-91.6731,15.1464],[-91.5855,15.1714],[-91.5692,15.2244]]]},"properties":{"iso3":"GTM","shapeId":"53557124B78398693011322","regionId":"GTM.17_1","name":"San Marcos"}},{"type":"Feature","geometry":{"type":"Polygon","coordinates":[[[-91.1078,16.0734],[-91.7312,16.0727],[-92.1174,15.4235],[-92.0787,15.3967],[-92.0773,15.2778],[-92.0088,15.265],[-91.8809,15.3616],[-91.8231,15.3278],[-91.7309,15.3447],[-91.6636,15.2926],[-91.6293,15.2386],[-91.5204,15.2057],[-91.5115,15.1455],[-91.4662,15.134],[-91.3882,15.1373],[-91.3815,15.2107],[-91.3276,15.2343],[-91.3214,15.272],[-91.1887,15.2873],[-91.1466,15.3744],[-91.171,15.3911],[-91.2472,15.3879],[-91.2927,15.4277],[-91.3152,15.4635],[-91.3128,15.5357],[-91.2576,15.6239],[-91.1837,15.6656],[-91.1399,15.7757],[-91.1691,15.7983],[-91.1524,15.8322],[-91.0927,15.8009],[-91.0462,15.9381],[-91.0673,15.9467],[-91.0606,15.9685],[-91.0967,15.9698],[-91.1288,15.9998],[-91.1078,16.0734]]]},"properties":{"iso3":"GTM","shapeId":"53557124B22904219543889","regionId":"GTM.8_1","name":"Huehuetenango"}},{"type":"Feature","geometry":{"type":"Polygon","coordinates":[[[-91.3192,15.2537],[-91.3815,15.2107],[-91.3882,15.1373],[-91.5115,15.1455],[-91.5485,15.1114],[-91.5327,14.9581],[-91.5573,14.9382],[-91.5248,14.9461],[-91.4945,14.8781],[-91.4738,14.8787],[-91.4652,14.9007],[-91.4387,14.89],[-91.4036,14.821],[-91.3478,14.8644],[-91.2977,14.8676],[-91.2626,14.8412],[-91.1753,14.8934],[-91.2387,14.9452],[-91.2325,14.9768],[-91.2547,14.9798],[-91.2718,15.0354],[-91.2581,15.125],[-91.2141,15.1001],[-91.205,15.111],[-91.3187,15.2008],[-91.3192,15.2537]]]},"properties":{"iso3":"GTM","shapeId":"53557124B40850127361414","regionId":"GTM.21_1","name":"Totonicapán"}},{"type":"Feature","geometry":{"type":"Polygon","coordinates":[[[-91.4875,14.7109],[-91.4467,14.7414],[-91.4036,14.821],[-91.4387,14.89],[-91.4652,14.9007],[-91.4738,14.8787],[-91.4945,14.8781],[-91.5248,14.9461],[-91.5573,14.9382],[-91.5327,14.9581],[-91.5485,15.1114],[-91.5115,15.1455],[-91.5204,15.2057],[-91.5692,15.2244],[-91.5855,15.1714],[-91.6731,15.1464],[-91.7021,15.111],[-91.6611,15.055],[-91.6752,14.9537],[-91.7255,14.9221],[-91.7133,14.9011],[-91.7584,14.8708],[-91.7936,14.7381],[-91.8442,14.7145],[-91.9305,14.7285],[-91.961,14.7112],[-92.0275,14.7172],[-92.0835,14.6846],[-92.14,14.6168],[-92.0542,14.5875],[-92.0503,14.5653],[-91.9968,14.5381],[-91.8072,14.494],[-91.7851,14.5882],[-91.7571,14.5901],[-91.7347,14.6727],[-91.7141,14.6563],[-91.682,14.7097],[-91.6655,14.7129],[-91.6824,14.6405],[-91.6655,14.6496],[-91.657,14.6083],[-91.6256,14.6543],[-91.608,14.6534],[-91.6086,14.626],[-91.4875,14.7109]]]},"properties":{"iso3":"GTM","shapeId":"53557124B53470403358651","regionId":null,"name":"Quetzaltenango"}},{"type":"Feature","geometry":{"type":"Polygon","coordinates":[[[-91.5225,14.6824],[-91.6086,14.626],[-91.608,14.6534],[-91.6256,14.6543],[-91.657,14.6083],[-91.6655,14.6496],[-91.6824,14.6405],[-91.6655,14.7129],[-91.682,14.7097],[-91.7141,14.6563],[-91.7347,14.6727],[-91.7571,14.5901],[-91.7851,14.5882],[-91.8072,14.494],[-91.9104,14.5089],[-92.0503,14.5653],[-92.1052,14.5304],[-92.1146,14.5044],[-92.1642,14.4864],[-91.8984,14.2798],[-91.8758,14.2953],[-91.8965,14.2792],[-91.865,14.2744],[-91.8622,14.2541],[-91.8547,14.2746],[-91.8564,14.2522],[-91.8355,14.2663],[-91.856,14.2493],[-91.7894,14.1924],[-91.6645,14.1238],[-91.5884,14.3393],[-91.6008,14.3566],[-91.5809,14.4435],[-91.589,14.5376],[-91.563,14.6302],[-91.5225,14.6824]]]},"properties":{"iso3":"GTM","shapeId":"53557124B13979183410132","regionId":"GTM.15_1","name":"Retalhuleu"}},{"type":"Feature","geometry":{"type":"Polygon","coordinates":[[[-90.4849,15.2832],[-90.5533,15.2023],[-90.7332,15.2048],[-90.809,15.2352],[-90.8058,15.1525],[-90.75,15.064],[-90.6542,14.996],[-90.6602,14.9632],[-90.6166,14.9151],[-90.6157,14.8753],[-90.4934,14.8955],[-90.4434,14.8826],[-90.4243,14.9151],[-90.3942,14.8744],[-90.3134,14.8766],[-90.3141,14.9178],[-90.1935,15.0001],[-90.1203,15.0369],[-90.0501,15.0455],[-90.0087,15.0763],[-89.902,15.0883],[-89.9199,15.1402],[-89.9582,15.1542],[-89.992,15.1419],[-89.9424,15.2111],[-89.9173,15.3021],[-89.9476,15.2725],[-90.0627,15.2618],[-90.2013,15.2649],[-90.2904,15.2941],[-90.331,15.226],[-90.4031,15.2796],[-90.4849,15.2832]]]},"properties":{"iso3":"GTM","shapeId":"53557124B73602535274933","regionId":"GTM.2_1","name":"Baja Verapaz"}},{"type":"Feature","geometry":{"type":"Polygon","coordinates":[[[-91.1187,14.5153],[-91.0685,14.789],[-91.161,14.8905],[-91.2626,14.8412],[-91.2977,14.8676],[-91.3478,14.8644],[-91.485,14.7181],[-91.4802,14.6374],[-91.5066,14.6015],[-91.4474,14.5969],[-91.4106,14.641],[-91.3306,14.6435],[-91.2854,14.6066],[-91.266,14.5309],[-91.1886,14.5624],[-91.1436,14.5513],[-91.1187,14.5153]],[[-91.1722,14.7441],[-91.1326,14.7176],[-91.1171,14.6603],[-91.1386,14.6332],[-91.1659,14.6747],[-91.2209,14.6634],[-91.2528,14.6088],[-91.2371,14.6626],[-91.2862,14.7055],[-91.1722,14.7441]]]},"properties":{"iso3":"GTM","shapeId":"53557124B33357761119002","regionId":"GTM.19_1","name":"Sololá"}},{"type":"Feature","geometry":{"type":"Polygon","coordinates":[[[-91.5357,14.0445],[-91.3079,13.9515],[-91.1875,13.9264],[-90.9146,13.911],[-90.806,13.9276],[-90.7846,13.9148],[-90.8021,13.9227],[-90.7884,13.9293],[-90.6236,13.9219],[-90.6172,14.0695],[-90.5546,14.1008],[-90.5551,14.1245],[-90.5934,14.1371],[-90.591,14.158],[-90.5666,14.1565],[-90.5091,14.1991],[-90.5286,14.2157],[-90.5583,14.1952],[-90.6021,14.2072],[-90.5666,14.2813],[-90.6105,14.3554],[-90.5878,14.427],[-90.7416,14.4636],[-90.8054,14.3832],[-90.8434,14.4473],[-90.88,14.4716],[-90.973,14.3734],[-90.9986,14.4392],[-91.0323,14.4064],[-91.0328,14.426],[-91.0523,14.4285],[-91.0849,14.401],[-91.1073,14.4099],[-91.1373,14.3746],[-91.1275,14.3316],[-91.1485,14.2827],[-91.2648,14.3039],[-91.2565,14.3356],[-91.2817,14.3089],[-91.3423,14.3176],[-91.3235,14.3985],[-91.3734,14.3745],[-91.4111,14.2901],[-91.428,14.2828],[-91.4344,14.323],[-91.4604,14.3046],[-91.4482,14.1982],[-91.5326,14.0823],[-91.5357,14.0445]]]},"properties":{"iso3":"GTM","shapeId":"53557124B88187939081538","regionId":"GTM.6_1","name":"Escuintla"}},{"type":"Feature","geometry":{"type":"Polygon","coordinates":[[[-91.1007,14.4124],[-91.0849,14.401],[-91.0392,14.4277],[-91.0323,14.4064],[-90.9986,14.4392],[-90.973,14.3734],[-90.8912,14.4498],[-90.8684,14.5314],[-90.8498,14.5592],[-90.8117,14.5608],[-90.7635,14.6505],[-90.7596,14.736],[-90.6874,14.8007],[-90.6929,14.8332],[-90.6213,14.8854],[-90.7697,14.9279],[-91.0116,14.932],[-91.046,14.8456],[-91.0246,14.8243],[-91.0774,14.7918],[-91.0786,14.6819],[-91.1173,14.5855],[-91.1305,14.4572],[-91.0958,14.4489],[-91.1007,14.4124]]]},"properties":{"iso3":"GTM","shapeId":"53557124B66453733615856","regionId":"GTM.3_1","name":"Chimaltenango"}},{"type":"Feature","geometry":{"type":"Polygon","coordinates":[[[-89.6817,14.5307],[-89.7111,14.4818],[-89.7949,14.4829],[-89.834,14.5142],[-89.8888,14.4387],[-89.926,14.4631],[-89.9809,14.4513],[-89.9849,14.4318],[-90.0469,14.4299],[-90.0911,14.3542],[-90.1229,14.3568],[-90.1167,14.3342],[-90.1408,14.3425],[-90.2002,14.32],[-90.2022,14.2575],[-90.1571,14.2526],[-90.0754,14.2025],[-90.0621,14.1825],[-90.0813,14.1614],[-90.0529,14.1259],[-90.079,14.0601],[-90.1189,14.0607],[-90.1166,14.0],[-90.1467,13.9616],[-90.163,13.9887],[-90.2156,14.0096],[-90.2988,14.0113],[-90.2823,13.9534],[-90.2461,13.9147],[-90.2627,13.8002],[-90.1023,13.7405],[-90.1122,13.8346],[-90.0813,13.877],[-90.0361,13.8974],[-90.0226,13.9394],[-89.8564,14.0583],[-89.8165,14.0631],[-89.7788,14.0336],[-89.7375,14.0317],[-89.7459,14.0637],[-89.7256,14.1192],[-89.6667,14.1854],[-89.5254,14.22],[-89.5455,14.2943],[-89.5637,14.3135],[-89.5926,14.3106],[-89.5918,14.3329],[-89.5645,14.3507],[-89.5805,14.3737],[-89.5739,14.4169],[-89.541,14.4148],[-89.5299,14.3796],[-89.5117,14.3982],[-89.5057,14.5082],[-89.6198,14.5114],[-89.6149,14.5514],[-89.6396,14.5633],[-89.6817,14.5307]]]},"properties":{"iso3":"GTM","shapeId":"53557124B49951428420175","regionId":"GTM.11_1","name":"Jutiapa"}},{"type":"Feature","geometry":{"type":"Polygon","coordinates":[[[-90.5729,14.2566],[-90.5968,14.1953],[-90.5286,14.2157],[-90.5091,14.1991],[-90.5666,14.1565],[-90.591,14.158],[-90.5934,14.1371],[-90.5551,14.1245],[-90.5546,14.1008],[-90.6172,14.0695],[-90.6236,13.9219],[-90.4434,13.876],[-90.2627,13.8002],[-90.2461,13.9147],[-90.2823,13.9534],[-90.2988,14.0113],[-90.2156,14.0096],[-90.163,13.9887],[-90.1467,13.9616],[-90.1166,14.0],[-90.1189,14.0607],[-90.079,14.0601],[-90.0529,14.1259],[-90.0813,14.1614],[-90.0621,14.1825],[-90.0754,14.2025],[-90.1571,14.2526],[-90.2022,14.2575],[-90.2002,14.32],[-90.1408,14.3425],[-90.1167,14.3342],[-90.1229,14.3568],[-90.0911,14.3542],[-90.0469,14.4299],[-90.1111,14.4711],[-90.1141,14.4938],[-90.1436,14.5004],[-90.2441,14.4716],[-90.2572,14.5128],[-90.2892,14.5212],[-90.3308,14.4678],[-90.337,14.4961],[-90.383,14.4954],[-90.4134,14.4733],[-90.4141,14.4373],[-90.4388,14.4093],[-90.4334,14.3383],[-90.5729,14.2566]]]},"properties":{"iso3":"GTM","shapeId":"53557124B32978494135306","regionId":"GTM.18_1","name":"Santa Rosa"}}]}