{"type":"FeatureCollection","features":[{"type":"Feature","geometry":{"type":"MultiPolygon","coordinates":[[[[-84.9999,15.071],[-84.9999,14.7243],[-84.9604,14.7563],[-84.9271,14.7588],[-84.9004,14.8143],[-84.8154,14.8288],[-84.7521,14.7734],[-84.7521,14.7531],[-84.7715,14.749],[-84.743,14.7485],[-84.7448,14.7154],[-84.7036,14.6921],[-84.7015,14.6644],[-84.6718,14.6939],[-84.6654,14.6726],[-84.5248,14.6564],[-84.53,14.6302],[-84.4785,14.6158],[-84.4146,14.6416],[-84.3634,14.7166],[-84.3439,14.7019],[-84.3494,14.6798],[-84.3098,14.6845],[-84.2769,14.6622],[-84.2579,14.6784],[-84.2719,14.7344],[-84.2354,14.7606],[-84.228,14.7337],[-84.1668,14.7145],[-84.0958,14.7301],[-84.1098,14.7908],[-84.0819,14.7866],[-84.0804,14.7573],[-84.0459,14.7747],[-84.0333,14.7466],[-83.9972,14.7609],[-83.9236,14.7477],[-83.9364,14.7773],[-83.8438,14.773],[-83.7834,14.8236],[-83.7637,14.8062],[-83.7532,14.8316],[-83.73,14.8204],[-83.7321,14.8412],[-83.7016,14.8242],[-83.7003,14.8513],[-83.7216,14.8555],[-83.698,14.8597],[-83.6923,14.8809],[-83.6825,14.8665],[-83.6157,14.8745],[-83.5967,14.9205],[-83.56,14.9124],[-83.5599,14.9391],[-83.538,14.9422],[-83.5486,14.9572],[-83.529,14.9501],[-83.5399,14.9802],[-83.5252,14.9739],[-83.5282,14.9935],[-83.5013,15.0108],[-83.4602,14.9808],[-83.406,14.9993],[-83.4022,15.0297],[-83.3483,14.9953],[-83.3443,15.0101],[-83.2764,15.006],[-83.2777,14.9877],[-83.2353,14.9823],[-83.1349,15.0048],[-83.2216,15.0276],[-83.2934,15.0752],[-83.3919,15.2548],[-83.6194,15.3337],[-83.7203,15.397],[-83.738,15.358],[-83.6252,15.3189],[-83.6502,15.3143],[-83.6283,15.3063],[-83.6486,15.2641],[-83.7086,15.2338],[-83.7145,15.2021],[-83.7434,15.182],[-83.738,15.2012],[-83.773,15.1972],[-83.7659,15.2561],[-83.783,15.2806],[-83.8294,15.2609],[-83.8005,15.2898],[-83.9638,15.3911],[-84.0217,15.4021],[-84.0029,15.3853],[-84.0491,15.3885],[-84.0386,15.3208],[-84.0966,15.3381],[-84.1388,15.4203],[-84.1044,15.4309],[-84.119,15.4757],[-84.0716,15.4818],[-84.0556,15.5252],[-83.9827,15.4974],[-83.9629,15.5057],[-83.9222,15.4417],[-83.836,15.426],[-83.7491,15.3733],[-83.7283,15.393],[-83.8878,15.4642],[-84.3063,15.8166],[-84.6508,15.8624],[-84.9996,15.981],[-84.9999,15.071]]],[[[-84.0426,15.4314],[-84.0563,15.4743],[-84.084,15.4852],[-84.0536,15.4042],[-84.0426,15.4314]]]]},"properties":{"iso3":"HND","shapeId":"10453824B77004064719389","regionId":"HND.9_1","name":"Gracias a Dios"}},{"type":"Feature","geometry":{"type":"MultiPolygon","coordinates":[[[[-86.4845,15.9769],[-86.4735,15.9651],[-86.4693,15.9791],[-86.4845,15.9769]]],[[[-86.9101,16.0964],[-86.8885,16.0864],[-86.8733,16.1184],[-86.934,16.1215],[-86.99,16.0813],[-86.9556,16.0689],[-86.9101,16.0964]]],[[[-86.4843,16.3662],[-86.5874,16.3175],[-86.6021,16.2668],[-86.5509,16.3133],[-86.3921,16.3668],[-86.3799,16.3926],[-86.3376,16.392],[-86.3373,16.4095],[-86.3226,16.3935],[-86.2622,16.4228],[-86.3522,16.4213],[-86.4843,16.3662]]],[[[-86.2303,16.4207],[-86.2265,16.4087],[-86.1902,16.4239],[-86.2303,16.4207]]],[[[-86.1416,16.4292],[-86.1229,16.4448],[-86.1687,16.4295],[-86.1416,16.4292]]],[[[-83.9152,17.4099],[-83.9205,17.4121],[-83.9235,17.4175],[-83.932,17.4136],[-83.9304,17.4108],[-83.9351,17.4121],[-83.939,17.4104],[-83.9417,17.4111],[-83.9443,17.4078],[-83.9445,17.4045],[-83.9418,17.4014],[-83.9318,17.4061],[-83.9288,17.4037],[-83.9271,17.4047],[-83.9282,17.4057],[-83.9233,17.4077],[-83.9141,17.4077],[-83.9152,17.4099]]],[[[-83.907,17.4072],[-83.8928,17.4102],[-83.8897,17.4129],[-83.8932,17.4165],[-83.8994,17.4161],[-83.9007,17.4138],[-83.9068,17.41],[-83.9124,17.4085],[-83.907,17.4072]]],[[[-85.9171,16.4496],[-85.9309,16.4536],[-85.9518,16.4026],[-85.8977,16.438],[-85.9171,16.4496]]],[[[-85.8491,16.5052],[-85.8877,16.5004],[-85.9172,16.4499],[-85.8608,16.4524],[-85.8523,16.4862],[-85.8161,16.4974],[-85.8491,16.5052]]]]},"properties":{"iso3":"HND","shapeId":"10453824B39335940856231","regionId":null,"name":"Bay Islands"}},{"type":"Feature","geometry":{"type":"MultiPolygon","coordinates":[[[[-87.3681,13.4],[-87.3907,13.3603],[-87.4577,13.3551],[-87.4736,13.3054],[-87.5145,13.2748],[-87.4545,13.232],[-87.4307,13.1009],[-87.4245,13.1163],[-87.3896,13.1155],[-87.3416,13.0952],[-87.3683,13.0815],[-87.3555,13.0593],[-87.322,13.0284],[-87.2805,13.0233],[-87.3085,12.9877],[-87.0647,13.0024],[-87.0505,12.981],[-87.0293,12.9859],[-87.0229,13.0082],[-86.9554,13.0375],[-86.954,13.0637],[-86.9181,13.0922],[-86.9344,13.1256],[-86.9134,13.1553],[-86.933,13.1793],[-86.9091,13.2688],[-86.829,13.3133],[-86.7543,13.2675],[-86.7058,13.3028],[-86.7066,13.3651],[-86.7444,13.4019],[-86.7234,13.4568],[-86.7494,13.5653],[-86.7699,13.5769],[-86.749,13.6393],[-86.7861,13.6622],[-86.7692,13.7003],[-86.884,13.6475],[-86.9313,13.6612],[-86.94,13.6189],[-87.026,13.5238],[-87.0813,13.502],[-87.1079,13.5173],[-87.1133,13.5524],[-87.1696,13.5485],[-87.1844,13.563],[-87.1861,13.5954],[-87.2247,13.6163],[-87.2116,13.6683],[-87.2531,13.6876],[-87.3596,13.684],[-87.394,13.7183],[-87.3812,13.7553],[-87.4523,13.7571],[-87.4571,13.6635],[-87.4104,13.6365],[-87.428,13.5916],[-87.3922,13.5367],[-87.3601,13.5227],[-87.367,13.4851],[-87.3423,13.4341],[-87.3681,13.4]]],[[[-87.4251,13.3595],[-87.4078,13.3735],[-87.4212,13.3827],[-87.4251,13.3595]]],[[[-87.4115,13.3928],[-87.42,13.379],[-87.4041,13.3749],[-87.4115,13.3928]]],[[[-87.3869,13.3902],[-87.4149,13.3972],[-87.397,13.3695],[-87.3869,13.3902]]],[[[-87.423,13.3827],[-87.4209,13.3836],[-87.4214,13.3863],[-87.4205,13.3852],[-87.4185,13.3872],[-87.4204,13.3893],[-87.4179,13.3901],[-87.4183,13.3915],[-87.4161,13.3909],[-87.4116,13.3937],[-87.4146,13.3961],[-87.4164,13.3949],[-87.4179,13.3956],[-87.4157,13.3956],[-87.4159,13.3978],[-87.4135,13.399],[-87.4146,13.3998],[-87.4135,13.3998],[-87.4144,13.4027],[-87.4167,13.4042],[-87.4184,13.403],[-87.4231,13.3913],[-87.4245,13.3833],[-87.423,13.3827]]]]},"properties":{"iso3":"HND","shapeId":"10453824B23263650177640","regionId":"HND.2_1","name":"Choluteca"}},{"type":"Feature","geometry":{"type":"Polygon","coordinates":[[[-84.9996,15.981],[-85.0732,15.9805],[-85.2339,15.8881],[-85.4649,15.8597],[-85.6048,15.9032],[-85.7287,15.9727],[-86.0111,16.0266],[-85.9812,16.0046],[-85.9213,16.0068],[-85.923,15.9434],[-85.8773,15.9991],[-85.8852,15.9838],[-85.8569,15.9983],[-85.817,15.9711],[-85.8673,15.9384],[-85.9027,15.9616],[-85.9898,15.9052],[-86.126,15.9037],[-86.201,15.881],[-86.2837,15.8142],[-86.358,15.7815],[-86.4573,15.7953],[-86.4339,15.7804],[-86.4503,15.7797],[-86.4423,15.7241],[-86.4036,15.7222],[-86.3956,15.6793],[-86.362,15.6755],[-86.3634,15.6055],[-86.4075,15.5933],[-86.3913,15.5575],[-86.3729,15.5355],[-86.2384,15.5236],[-86.232,15.4075],[-86.1651,15.3693],[-86.0876,15.3974],[-86.0401,15.384],[-85.9723,15.4209],[-85.8941,15.4951],[-85.886,15.5279],[-85.8347,15.5159],[-85.7889,15.5509],[-85.7855,15.5771],[-85.7093,15.5688],[-85.6728,15.5962],[-85.5183,15.453],[-85.3776,15.4031],[-85.2373,15.2154],[-85.0981,15.1807],[-84.9999,15.071],[-84.9996,15.981]]]},"properties":{"iso3":"HND","shapeId":"10453824B27729717308702","regionId":"HND.3_1","name":"Colón"}},{"type":"Feature","geometry":{"type":"Polygon","coordinates":[[[-86.7692,13.7003],[-86.7658,13.7662],[-86.7232,13.7872],[-86.6587,13.775],[-86.5384,13.8053],[-86.4908,13.7695],[-86.4537,13.7898],[-86.417,13.7591],[-86.3323,13.7691],[-86.2962,13.8161],[-86.2988,13.8533],[-86.186,13.9554],[-86.1907,13.984],[-86.1407,13.9995],[-86.153,14.035],[-86.0392,14.0773],[-86.0035,14.0702],[-86.0417,13.9959],[-85.9185,13.9376],[-85.9137,13.9085],[-85.8923,13.9044],[-85.882,13.9296],[-85.8454,13.9176],[-85.8197,13.8492],[-85.7552,13.8466],[-85.7522,13.8322],[-85.7333,13.8615],[-85.7641,13.8842],[-85.7534,13.9678],[-85.7068,13.993],[-85.6764,13.98],[-85.6639,14.012],[-85.6247,14.0092],[-85.5769,14.044],[-85.5688,14.0708],[-85.6094,14.0957],[-85.6042,14.134],[-85.6529,14.1923],[-85.6657,14.1723],[-85.7578,14.2008],[-85.7944,14.1609],[-85.8287,14.1875],[-85.872,14.1634],[-85.886,14.1292],[-85.9228,14.1404],[-85.9473,14.1238],[-85.9403,14.1718],[-85.9935,14.1868],[-86.0203,14.2635],[-86.0597,14.271],[-86.0696,14.2479],[-86.1481,14.2661],[-86.1864,14.3606],[-86.2496,14.3454],[-86.3433,14.2846],[-86.441,14.2892],[-86.464,14.3332],[-86.5025,14.3374],[-86.5223,14.3639],[-86.6084,14.3736],[-86.6284,14.4073],[-86.6595,14.3994],[-86.7133,14.4225],[-86.8315,14.332],[-86.8271,14.2948],[-86.9307,14.1818],[-86.8969,14.1603],[-86.9141,14.1301],[-86.9736,14.1431],[-86.9877,14.125],[-86.9448,14.0636],[-86.91,14.0535],[-86.9112,14.002],[-86.9489,13.9515],[-86.9911,13.9628],[-86.989,13.8463],[-87.0161,13.7758],[-87.0312,13.7626],[-87.0817,13.7757],[-87.122,13.8049],[-87.1011,13.7125],[-87.1315,13.6721],[-87.1236,13.654],[-87.1838,13.686],[-87.2116,13.6683],[-87.2247,13.6163],[-87.1861,13.5954],[-87.1696,13.5485],[-87.1133,13.5524],[-87.1034,13.5114],[-87.0664,13.5013],[-86.94,13.6189],[-86.9313,13.6612],[-86.884,13.6475],[-86.7692,13.7003]]]},"properties":{"iso3":"HND","shapeId":"10453824B59135534570849","regionId":"HND.7_1","name":"El Paraíso"}},{"type":"Feature","geometry":{"type":"Polygon","coordinates":[[[-84.9999,15.071],[-85.0981,15.1807],[-85.2373,15.2154],[-85.3776,15.4031],[-85.5183,15.453],[-85.6728,15.5962],[-85.7093,15.5688],[-85.7855,15.5771],[-85.7889,15.5509],[-85.8347,15.5159],[-85.886,15.5279],[-85.8941,15.4951],[-85.9723,15.4209],[-86.0401,15.384],[-86.0876,15.3974],[-86.1495,15.3669],[-86.232,15.4075],[-86.3938,15.3237],[-86.4044,15.373],[-86.4736,15.4059],[-86.6456,15.3357],[-86.6499,15.3032],[-86.7011,15.2652],[-86.7517,15.2698],[-86.7764,15.296],[-86.7939,15.2784],[-86.8165,15.2848],[-86.8678,15.2397],[-86.8552,15.1703],[-86.8826,15.0829],[-86.918,15.0681],[-86.9252,15.0397],[-86.9648,15.0452],[-86.9912,15.0153],[-86.9691,14.9743],[-86.9033,14.9394],[-86.9362,14.8966],[-86.8913,14.7983],[-86.9011,14.7708],[-86.851,14.6635],[-86.7398,14.5758],[-86.7518,14.5335],[-86.7096,14.4155],[-86.6284,14.4073],[-86.6084,14.3736],[-86.5223,14.3639],[-86.5025,14.3374],[-86.464,14.3332],[-86.441,14.2892],[-86.3433,14.2846],[-86.2496,14.3454],[-86.1864,14.3606],[-86.1481,14.2661],[-86.0696,14.2479],[-86.0597,14.271],[-86.0203,14.2635],[-85.9935,14.1868],[-85.9403,14.1718],[-85.9473,14.1238],[-85.9228,14.1404],[-85.886,14.1292],[-85.872,14.1634],[-85.8287,14.1875],[-85.7944,14.1609],[-85.7578,14.2008],[-85.6657,14.1723],[-85.6529,14.1923],[-85.6042,14.134],[-85.6094,14.0957],[-85.536,14.0462],[-85.5067,14.0635],[-85.5055,14.088],[-85.4937,14.0762],[-85.4539,14.1144],[-85.4041,14.1231],[-85.398,14.1628],[-85.3746,14.1826],[-85.3779,14.225],[-85.3641,14.2116],[-85.3394,14.2488],[-85.2804,14.2608],[-85.1883,14.2491],[-85.1589,14.2878],[-85.1534,14.3023],[-85.2208,14.3768],[-85.1812,14.4283],[-85.184,14.4679],[-85.1507,14.4849],[-85.1389,14.5161],[-85.1516,14.5718],[-85.1228,14.586],[-85.085,14.5524],[-85.0216,14.6089],[-85.0431,14.6105],[-85.0245,14.6378],[-85.0504,14.6621],[-84.9999,14.7243],[-84.9999,15.071]]]},"properties":{"iso3":"HND","shapeId":"10453824B23677570544502","regionId":"HND.15_1","name":"Olancho"}},{"type":"Feature","geometry":{"type":"MultiPolygon","coordinates":[[[[-87.6199,13.2905],[-87.6572,13.2935],[-87.6599,13.2518],[-87.6166,13.2563],[-87.6199,13.2905]]],[[[-87.6741,13.4235],[-87.6533,13.408],[-87.6554,13.4343],[-87.6741,13.4235]]],[[[-87.5977,13.4224],[-87.6303,13.4159],[-87.6084,13.4019],[-87.5977,13.4224]]],[[[-87.6214,13.4281],[-87.608,13.4239],[-87.6078,13.4516],[-87.6214,13.4281]]],[[[-87.6782,13.3043],[-87.6756,13.3078],[-87.6773,13.3125],[-87.6675,13.3181],[-87.6686,13.3206],[-87.6678,13.3226],[-87.6694,13.3231],[-87.6746,13.3315],[-87.6807,13.3226],[-87.6805,13.3194],[-87.6826,13.3155],[-87.6852,13.3139],[-87.6812,13.3099],[-87.6814,13.306],[-87.6782,13.3043]]],[[[-87.456,13.3916],[-87.4747,13.3798],[-87.4319,13.3838],[-87.456,13.3916]]],[[[-87.4613,13.3891],[-87.4684,13.3875],[-87.4708,13.3894],[-87.4738,13.3867],[-87.4754,13.3871],[-87.476,13.3908],[-87.4776,13.3867],[-87.4754,13.3817],[-87.4732,13.3811],[-87.4733,13.3823],[-87.4712,13.3792],[-87.4657,13.3805],[-87.4626,13.3853],[-87.4602,13.3832],[-87.4598,13.3861],[-87.4613,13.3864],[-87.4597,13.3869],[-87.4613,13.3891]]],[[[-87.5825,13.3595],[-87.5752,13.3355],[-87.5429,13.3421],[-87.5825,13.3595]]],[[[-87.558,13.3595],[-87.5294,13.359],[-87.5446,13.3511],[-87.5329,13.3443],[-87.527,13.3644],[-87.5088,13.3541],[-87.5016,13.3692],[-87.5179,13.3794],[-87.558,13.3595]]],[[[-87.5606,13.3773],[-87.5616,13.3761],[-87.5587,13.3743],[-87.5591,13.3715],[-87.5675,13.3757],[-87.5687,13.3793],[-87.5698,13.3758],[-87.5655,13.3719],[-87.571,13.3709],[-87.5682,13.3691],[-87.5616,13.3709],[-87.5627,13.3677],[-87.5612,13.367],[-87.56,13.3684],[-87.5605,13.3669],[-87.5533,13.3699],[-87.5555,13.3727],[-87.5517,13.3746],[-87.5568,13.3788],[-87.5606,13.3773]]],[[[-87.4809,13.3595],[-87.4895,13.395],[-87.5092,13.3762],[-87.4809,13.3595]]],[[[-87.5864,13.4141],[-87.6173,13.3755],[-87.5882,13.3872],[-87.5864,13.4141]]],[[[-87.4545,13.4136],[-87.4594,13.3952],[-87.4312,13.3898],[-87.4545,13.4136]]],[[[-87.461,13.4076],[-87.4631,13.4049],[-87.4684,13.4027],[-87.4689,13.4004],[-87.4667,13.4007],[-87.4645,13.3992],[-87.4671,13.4006],[-87.4695,13.3999],[-87.4712,13.3986],[-87.4704,13.3961],[-87.4666,13.3964],[-87.4676,13.3984],[-87.4666,13.3984],[-87.4659,13.3968],[-87.4681,13.395],[-87.4642,13.3938],[-87.4633,13.3964],[-87.4606,13.3968],[-87.4584,13.4024],[-87.461,13.4076]]],[[[-87.4596,13.6709],[-87.5436,13.7169],[-87.5836,13.7112],[-87.6492,13.7433],[-87.6447,13.8302],[-87.7049,13.8516],[-87.7452,13.8413],[-87.7089,13.79],[-87.7369,13.7482],[-87.7544,13.6039],[-87.7935,13.524],[-87.7208,13.5053],[-87.7164,13.4663],[-87.7238,13.4424],[-87.8194,13.4079],[-87.7454,13.3537],[-87.7184,13.3579],[-87.6579,13.3939],[-87.7024,13.4471],[-87.6781,13.4326],[-87.6556,13.4481],[-87.672,13.469],[-87.647,13.4557],[-87.6439,13.4746],[-87.6755,13.4909],[-87.6422,13.4614],[-87.6399,13.485],[-87.613,13.4607],[-87.5768,13.474],[-87.5811,13.4602],[-87.5678,13.463],[-87.5987,13.4608],[-87.613,13.4313],[-87.5939,13.4174],[-87.5856,13.4315],[-87.5864,13.3834],[-87.5727,13.3951],[-87.593,13.3827],[-87.5762,13.3783],[-87.5989,13.3658],[-87.6051,13.3782],[-87.6096,13.3628],[-87.6428,13.3727],[-87.6605,13.3465],[-87.6433,13.3173],[-87.5862,13.3054],[-87.5748,13.3459],[-87.5981,13.3606],[-87.5792,13.363],[-87.5848,13.3749],[-87.5637,13.3607],[-87.577,13.3766],[-87.5427,13.3857],[-87.5421,13.4037],[-87.5545,13.3776],[-87.5315,13.386],[-87.5264,13.3718],[-87.5169,13.3971],[-87.511,13.3712],[-87.5074,13.3972],[-87.4793,13.3991],[-87.5058,13.4138],[-87.479,13.4089],[-87.4866,13.4298],[-87.4432,13.4088],[-87.4359,13.4219],[-87.4312,13.3979],[-87.4274,13.4269],[-87.3839,13.3963],[-87.3555,13.4061],[-87.3423,13.4341],[-87.367,13.4851],[-87.3601,13.5227],[-87.3922,13.5367],[-87.428,13.5916],[-87.4104,13.6365],[-87.4596,13.6709]]]]},"properties":{"iso3":"HND","shapeId":"10453824B78724193103152","regionId":"HND.17_1","name":"Valle"}},{"type":"Feature","geometry":{"type":"Polygon","coordinates":[[[-86.4573,15.7953],[-86.5003,15.816],[-86.6757,15.7879],[-86.76,15.7997],[-86.7619,15.786],[-86.7762,15.8014],[-86.832,15.7672],[-86.947,15.7536],[-87.373,15.8483],[-87.3944,15.8193],[-87.431,15.8141],[-87.4521,15.7778],[-87.5201,15.7934],[-87.5036,15.7747],[-87.5871,15.8432],[-87.5581,15.8086],[-87.5968,15.8221],[-87.5474,15.7753],[-87.5085,15.7659],[-87.5812,15.7706],[-87.5908,15.7883],[-87.6323,15.7702],[-87.6292,15.8163],[-87.5998,15.8543],[-87.5883,15.8443],[-87.6283,15.9016],[-87.6009,15.9279],[-87.6574,15.8915],[-87.7255,15.9144],[-87.7304,15.8777],[-87.7714,15.8579],[-87.7692,15.8202],[-87.7841,15.8275],[-87.7792,15.8082],[-87.7965,15.8122],[-87.8022,15.7895],[-87.7807,15.776],[-87.7865,15.7591],[-87.7758,15.7752],[-87.7642,15.7606],[-87.7554,15.7351],[-87.7755,15.7327],[-87.7727,15.7058],[-87.6841,15.655],[-87.6756,15.5825],[-87.5899,15.5381],[-87.617,15.5074],[-87.5148,15.5136],[-87.4588,15.5458],[-87.434,15.5324],[-87.4382,15.4855],[-87.3845,15.4399],[-87.3448,15.4582],[-87.1801,15.4192],[-87.1514,15.4596],[-87.1085,15.4558],[-87.0488,15.4878],[-86.9838,15.5563],[-86.9239,15.5469],[-86.859,15.566],[-86.8495,15.5463],[-86.7754,15.5435],[-86.6416,15.6045],[-86.525,15.5811],[-86.4774,15.5983],[-86.4012,15.5738],[-86.4075,15.5933],[-86.3634,15.6055],[-86.362,15.6755],[-86.3956,15.6793],[-86.4036,15.7222],[-86.4423,15.7241],[-86.4503,15.7797],[-86.4339,15.7804],[-86.4573,15.7953]]]},"properties":{"iso3":"HND","shapeId":"10453824B27728388827872","regionId":"HND.1_1","name":"Atlántida"}},{"type":"Feature","geometry":{"type":"Polygon","coordinates":[[[-88.0691,14.6561],[-88.0596,14.6259],[-88.0431,14.6359],[-87.9492,14.6057],[-87.8356,14.3948],[-87.7893,14.3922],[-87.7827,14.3738],[-87.7013,14.3464],[-87.6466,14.3711],[-87.6081,14.2946],[-87.6281,14.2609],[-87.7698,14.2398],[-87.7802,14.207],[-87.8141,14.1901],[-87.7637,14.1598],[-87.7837,14.132],[-87.7741,14.1202],[-87.7419,14.1168],[-87.6594,14.0552],[-87.6124,14.0773],[-87.6172,14.1065],[-87.5864,14.1397],[-87.5417,14.1336],[-87.4906,14.1702],[-87.4721,14.211],[-87.4246,14.2242],[-87.4616,14.2642],[-87.4682,14.3272],[-87.4022,14.3453],[-87.3843,14.3946],[-87.4196,14.4216],[-87.4023,14.4485],[-87.4548,14.4761],[-87.4685,14.5233],[-87.4076,14.5745],[-87.4049,14.6216],[-87.3365,14.6061],[-87.3303,14.6652],[-87.2656,14.6986],[-87.2497,14.7434],[-87.2633,14.827],[-87.2093,14.8586],[-87.2808,14.9269],[-87.2992,14.9135],[-87.3575,14.9412],[-87.4068,14.9077],[-87.4498,14.9092],[-87.4622,14.9711],[-87.4957,14.9821],[-87.5075,15.0262],[-87.5397,15.0539],[-87.6217,15.0113],[-87.7352,15.0184],[-87.741,14.9579],[-87.8407,14.9043],[-87.8635,14.8684],[-88.0378,14.7495],[-88.0639,14.7183],[-88.0465,14.6839],[-88.0691,14.6561]]]},"properties":{"iso3":"HND","shapeId":"10453824B65572632187118","regionId":"HND.4_1","name":"Comayagua"}},{"type":"Feature","geometry":{"type":"Polygon","coordinates":[[[-88.7593,15.2943],[-88.9738,15.1362],[-89.1536,15.0683],[-89.1844,15.0025],[-89.1567,14.9794],[-89.1727,14.9288],[-89.2281,14.8825],[-89.2238,14.8347],[-89.1689,14.775],[-89.1654,14.7311],[-89.1313,14.7126],[-89.0832,14.7268],[-89.014,14.7156],[-88.9983,14.6577],[-88.9273,14.6019],[-88.9289,14.5592],[-88.8465,14.4946],[-88.8255,14.4996],[-88.826,14.5373],[-88.7775,14.5496],[-88.7336,14.6114],[-88.7959,14.6866],[-88.7924,14.7169],[-88.6526,14.7189],[-88.6798,14.8161],[-88.6393,14.9006],[-88.6448,14.923],[-88.6873,14.9195],[-88.7043,14.9525],[-88.6756,15.0485],[-88.6375,15.0762],[-88.6385,15.1207],[-88.6477,15.1567],[-88.721,15.218],[-88.7095,15.2441],[-88.7593,15.2943]]]},"properties":{"iso3":"HND","shapeId":"10453824B73363653217090","regionId":"HND.5_1","name":"Copán"}},{"type":"Feature","geometry":{"type":"Polygon","coordinates":[[[-87.7192,15.9181],[-87.7535,15.895],[-87.8135,15.9021],[-87.9054,15.8636],[-87.952,15.8643],[-87.9638,15.8451],[-87.9296,15.8282],[-87.9141,15.8582],[-87.8872,15.8583],[-87.9518,15.807],[-88.0479,15.7823],[-88.1202,15.6874],[-88.1547,15.6821],[-88.2504,15.7211],[-88.2484,15.6887],[-88.3247,15.6725],[-88.3446,15.6185],[-88.472,15.5131],[-88.4107,15.5473],[-88.2461,15.5024],[-88.2303,15.4152],[-88.1004,15.3437],[-88.1082,15.2658],[-88.0923,15.2282],[-88.0536,15.2125],[-88.1329,15.117],[-88.0906,15.0706],[-88.0565,15.0727],[-88.016,15.0463],[-88.0491,14.9957],[-88.051,14.9307],[-88.0287,14.9342],[-87.9838,14.8766],[-87.9934,14.8206],[-87.9771,14.7909],[-87.735,14.9693],[-87.7501,15.0465],[-87.7345,15.1114],[-87.8027,15.1563],[-87.8461,15.1596],[-87.8671,15.1927],[-87.9254,15.1996],[-87.9205,15.243],[-87.9382,15.245],[-87.9318,15.2699],[-87.9102,15.274],[-87.9287,15.2952],[-87.9051,15.3062],[-87.9171,15.3244],[-87.894,15.3235],[-87.8851,15.346],[-87.8653,15.3361],[-87.8802,15.3521],[-87.8186,15.4066],[-87.8256,15.4326],[-87.8647,15.4551],[-87.833,15.459],[-87.8269,15.4388],[-87.8097,15.4561],[-87.8364,15.4997],[-87.8319,15.5281],[-87.8067,15.5198],[-87.8053,15.579],[-87.7716,15.5701],[-87.7842,15.5922],[-87.7628,15.6104],[-87.7708,15.6377],[-87.8102,15.6462],[-87.8076,15.6656],[-87.8294,15.6603],[-87.8065,15.6912],[-87.8381,15.6868],[-87.8013,15.7235],[-87.7802,15.7104],[-87.7755,15.7327],[-87.7558,15.7326],[-87.7735,15.7747],[-87.7865,15.7591],[-87.7807,15.776],[-87.8022,15.7895],[-87.7965,15.8122],[-87.7792,15.8082],[-87.7841,15.8275],[-87.7692,15.8202],[-87.7714,15.8579],[-87.7304,15.8777],[-87.7192,15.9181]]]},"properties":{"iso3":"HND","shapeId":"10453824B86429592273305","regionId":"HND.6_1","name":"Cortés"}},{"type":"Feature","geometry":{"type":"Polygon","coordinates":[[[-87.2116,13.6683],[-87.1838,13.686],[-87.1236,13.654],[-87.1315,13.6721],[-87.1011,13.7125],[-87.131,13.7919],[-87.1158,13.8096],[-87.0817,13.7757],[-87.0312,13.7626],[-87.0161,13.7758],[-86.989,13.8463],[-86.9911,13.9628],[-86.9489,13.9515],[-86.9112,14.002],[-86.91,14.0535],[-86.9448,14.0636],[-86.9877,14.125],[-86.9736,14.1431],[-86.9141,14.1301],[-86.8969,14.1603],[-86.9307,14.1818],[-86.8271,14.2948],[-86.8315,14.332],[-86.711,14.4278],[-86.7518,14.5335],[-86.7398,14.5758],[-86.851,14.6635],[-86.9011,14.7708],[-86.8913,14.7983],[-86.9362,14.8966],[-86.9033,14.9394],[-86.9691,14.9743],[-86.9912,15.0153],[-87.0295,15.026],[-87.0775,15.0153],[-87.1338,15.0331],[-87.1818,15.016],[-87.185,14.97],[-87.2144,14.9492],[-87.2176,14.913],[-87.1967,14.9072],[-87.1945,14.8853],[-87.2223,14.8751],[-87.2113,14.8472],[-87.2633,14.827],[-87.2483,14.7542],[-87.2656,14.6986],[-87.3303,14.6652],[-87.3365,14.6061],[-87.4049,14.6216],[-87.4076,14.5745],[-87.4685,14.5233],[-87.4548,14.4761],[-87.4023,14.4485],[-87.4196,14.4216],[-87.3843,14.3946],[-87.4022,14.3453],[-87.4682,14.3272],[-87.4616,14.2642],[-87.4246,14.2242],[-87.4721,14.211],[-87.4906,14.1702],[-87.5417,14.1336],[-87.5798,14.1438],[-87.6172,14.1065],[-87.5912,13.9633],[-87.602,13.8963],[-87.6447,13.8302],[-87.6492,13.7433],[-87.5836,13.7112],[-87.5436,13.7169],[-87.4596,13.6709],[-87.4561,13.7535],[-87.3812,13.7553],[-87.394,13.7183],[-87.3596,13.684],[-87.2531,13.6876],[-87.2116,13.6683]]]},"properties":{"iso3":"HND","shapeId":"10453824B24427405220616","regionId":"HND.8_1","name":"Francisco Morazán"}},{"type":"Feature","geometry":{"type":"Polygon","coordinates":[[[-88.0691,14.6561],[-88.0874,14.6427],[-88.1569,14.6578],[-88.1891,14.6435],[-88.3475,14.6517],[-88.3232,14.5669],[-88.3448,14.5058],[-88.3778,14.4761],[-88.4503,14.4773],[-88.5017,14.4524],[-88.4886,14.3882],[-88.4267,14.3612],[-88.4095,14.2789],[-88.4236,14.2484],[-88.3204,14.2109],[-88.333,14.1773],[-88.3156,14.1096],[-88.3335,14.0963],[-88.3271,14.0791],[-88.3833,14.0388],[-88.4812,13.9916],[-88.511,13.9109],[-88.4921,13.86],[-88.468,13.8486],[-88.4189,13.8857],[-88.3564,13.8703],[-88.3452,13.8962],[-88.3173,13.8899],[-88.2682,13.9126],[-88.2652,13.9372],[-88.2269,13.9378],[-88.2383,13.9945],[-88.2172,13.9931],[-88.2047,14.0511],[-88.2357,14.0846],[-88.1192,14.1727],[-88.1069,14.2106],[-88.0644,14.2456],[-88.007,14.2548],[-88.0028,14.2884],[-87.9523,14.327],[-87.9577,14.3908],[-87.9159,14.3807],[-87.8477,14.4338],[-87.9492,14.6057],[-88.0431,14.6359],[-88.0596,14.6259],[-88.0691,14.6561]]]},"properties":{"iso3":"HND","shapeId":"10453824B62561105591680","regionId":"HND.10_1","name":"Intibucá"}},{"type":"Feature","geometry":{"type":"Polygon","coordinates":[[[-87.6447,13.8302],[-87.602,13.8963],[-87.5912,13.9633],[-87.6124,14.0773],[-87.6594,14.0552],[-87.7419,14.1168],[-87.7741,14.1202],[-87.7837,14.132],[-87.7637,14.1598],[-87.8141,14.1901],[-87.7802,14.207],[-87.7698,14.2398],[-87.6281,14.2609],[-87.6081,14.2946],[-87.6466,14.3711],[-87.7013,14.3464],[-87.7827,14.3738],[-87.7893,14.3922],[-87.8356,14.3948],[-87.8553,14.4273],[-87.9159,14.3807],[-87.9577,14.3908],[-87.9523,14.327],[-88.0028,14.2884],[-88.007,14.2548],[-88.0644,14.2456],[-88.1069,14.2106],[-88.1192,14.1727],[-88.2357,14.0846],[-88.2047,14.0511],[-88.2172,13.9931],[-88.0727,13.9923],[-88.0637,13.9442],[-88.0148,13.871],[-87.959,13.9029],[-87.9221,13.8845],[-87.8041,13.9215],[-87.799,13.8922],[-87.7452,13.8413],[-87.7049,13.8516],[-87.6447,13.8302]]]},"properties":{"iso3":"HND","shapeId":"10453824B11843061934635","regionId":"HND.12_1","name":"La Paz"}},{"type":"Feature","geometry":{"type":"Polygon","coordinates":[[[-88.7775,14.5496],[-88.7145,14.5344],[-88.7364,14.4417],[-88.7964,14.4131],[-88.8202,14.4272],[-88.8262,14.4036],[-88.8058,14.3851],[-88.8797,14.4118],[-88.887,14.356],[-88.9488,14.3418],[-88.9479,14.3234],[-88.982,14.2995],[-88.9658,14.2712],[-88.9727,14.2136],[-88.8758,14.1858],[-88.8313,14.1046],[-88.7351,14.1194],[-88.7317,14.049],[-88.6923,14.0437],[-88.6836,14.0101],[-88.6277,14.0228],[-88.5866,14.0071],[-88.569,13.9782],[-88.528,13.9851],[-88.4923,13.9634],[-88.4621,14.0082],[-88.3271,14.0791],[-88.3335,14.0963],[-88.3156,14.1096],[-88.333,14.1773],[-88.3204,14.2109],[-88.4236,14.2484],[-88.4095,14.2789],[-88.4267,14.3612],[-88.4886,14.3882],[-88.5036,14.4349],[-88.4688,14.4726],[-88.3778,14.4761],[-88.3448,14.5058],[-88.3232,14.5669],[-88.3475,14.6517],[-88.3207,14.6828],[-88.3173,14.7329],[-88.3543,14.7173],[-88.3752,14.7341],[-88.3897,14.7678],[-88.3643,14.8207],[-88.4435,14.8558],[-88.4886,14.8101],[-88.5562,14.9334],[-88.6112,14.9463],[-88.6245,14.9191],[-88.6448,14.923],[-88.6436,14.8684],[-88.6798,14.8161],[-88.6536,14.717],[-88.7948,14.7123],[-88.7753,14.651],[-88.7336,14.6114],[-88.7775,14.5496]]]},"properties":{"iso3":"HND","shapeId":"10453824B36949426591135","regionId":"HND.13_1","name":"Lempira"}},{"type":"Feature","geometry":{"type":"Polygon","coordinates":[[[-89.1313,14.7126],[-89.1572,14.6714],[-89.1463,14.6291],[-89.1598,14.5738],[-89.2389,14.5846],[-89.3019,14.4938],[-89.3561,14.4685],[-89.356,14.4206],[-89.2973,14.4177],[-89.1484,14.3537],[-89.1005,14.4041],[-89.0826,14.3411],[-89.0356,14.3321],[-89.0259,14.2716],[-88.9701,14.2252],[-88.982,14.2995],[-88.9479,14.3234],[-88.9488,14.3418],[-88.887,14.356],[-88.8797,14.4118],[-88.8058,14.3851],[-88.8262,14.4036],[-88.8202,14.4272],[-88.7964,14.4131],[-88.7364,14.4417],[-88.7145,14.5344],[-88.7775,14.5496],[-88.826,14.5373],[-88.8255,14.4996],[-88.8465,14.4946],[-88.9289,14.5592],[-88.9273,14.6019],[-88.9983,14.6577],[-89.014,14.7156],[-89.0832,14.7268],[-89.1313,14.7126]]]},"properties":{"iso3":"HND","shapeId":"10453824B83660155057128","regionId":"HND.14_1","name":"Ocotepeque"}},{"type":"Feature","geometry":{"type":"Polygon","coordinates":[[[-87.9771,14.7909],[-87.9934,14.8206],[-87.9838,14.8766],[-88.0287,14.9342],[-88.051,14.9307],[-88.0491,14.9957],[-88.016,15.0463],[-88.0565,15.0727],[-88.0906,15.0706],[-88.1329,15.117],[-88.0536,15.2125],[-88.0923,15.2282],[-88.1082,15.2658],[-88.1004,15.3437],[-88.2303,15.4152],[-88.2461,15.5024],[-88.4107,15.5473],[-88.7593,15.2943],[-88.7095,15.2441],[-88.721,15.218],[-88.6477,15.1567],[-88.6385,15.1207],[-88.6375,15.0762],[-88.6756,15.0485],[-88.7043,14.9525],[-88.6935,14.9283],[-88.67,14.9128],[-88.6245,14.9191],[-88.6112,14.9463],[-88.5562,14.9334],[-88.4886,14.8101],[-88.4435,14.8558],[-88.4128,14.833],[-88.3802,14.8357],[-88.3643,14.8207],[-88.3897,14.7678],[-88.3752,14.7341],[-88.3543,14.7173],[-88.3173,14.7329],[-88.3207,14.6828],[-88.3475,14.6517],[-88.1891,14.6435],[-88.1569,14.6578],[-88.0874,14.6427],[-88.0465,14.6839],[-88.0639,14.7183],[-87.9771,14.7909]]]},"properties":{"iso3":"HND","shapeId":"10453824B33911095974475","regionId":"HND.16_1","name":"Santa Bárbara"}},{"type":"Feature","geometry":{"type":"Polygon","coordinates":[[[-86.4012,15.5738],[-86.4774,15.5983],[-86.525,15.5811],[-86.6416,15.6045],[-86.7754,15.5435],[-86.8495,15.5463],[-86.859,15.566],[-86.9239,15.5469],[-86.9838,15.5563],[-87.0488,15.4878],[-87.1085,15.4558],[-87.1514,15.4596],[-87.1801,15.4192],[-87.3448,15.4582],[-87.3781,15.4377],[-87.422,15.4626],[-87.4404,15.4973],[-87.434,15.5324],[-87.4588,15.5458],[-87.5148,15.5136],[-87.617,15.5074],[-87.5899,15.5381],[-87.6756,15.5825],[-87.6841,15.655],[-87.7973,15.7251],[-87.8381,15.6868],[-87.8065,15.6912],[-87.8294,15.6603],[-87.8076,15.6656],[-87.8034,15.6397],[-87.7708,15.6377],[-87.7644,15.5939],[-87.7832,15.5959],[-87.7755,15.5674],[-87.8053,15.579],[-87.8067,15.5198],[-87.8319,15.5281],[-87.8364,15.4997],[-87.8072,15.46],[-87.8269,15.4388],[-87.833,15.459],[-87.8647,15.4551],[-87.8256,15.4326],[-87.8186,15.4066],[-87.8802,15.3521],[-87.8653,15.3361],[-87.8851,15.346],[-87.894,15.3235],[-87.9171,15.3244],[-87.9051,15.3062],[-87.9287,15.2952],[-87.9102,15.274],[-87.9318,15.2699],[-87.9363,15.2346],[-87.9215,15.2451],[-87.9254,15.1996],[-87.8671,15.1927],[-87.8461,15.1596],[-87.8027,15.1563],[-87.7345,15.1114],[-87.7501,15.0465],[-87.7335,15.0129],[-87.6217,15.0113],[-87.5397,15.0539],[-87.5075,15.0262],[-87.4957,14.9821],[-87.4622,14.9711],[-87.4498,14.9092],[-87.4068,14.9077],[-87.3575,14.9412],[-87.2992,14.9135],[-87.2808,14.9269],[-87.1998,14.875],[-87.2144,14.9492],[-87.185,14.97],[-87.173,15.0235],[-86.9912,15.0153],[-86.9648,15.0452],[-86.9252,15.0397],[-86.918,15.0681],[-86.8873,15.0772],[-86.8552,15.1703],[-86.8678,15.2397],[-86.8165,15.2848],[-86.7939,15.2784],[-86.7764,15.296],[-86.7517,15.2698],[-86.7011,15.2652],[-86.6499,15.3032],[-86.6456,15.3357],[-86.4736,15.4059],[-86.4044,15.373],[-86.401,15.3306],[-86.3721,15.3243],[-86.232,15.4075],[-86.2384,15.5236],[-86.3763,15.5364],[-86.4012,15.5738]]]},"properties":{"iso3":"HND","shapeId":"10453824B47889694645812","regionId":"HND.18_1","name":"Yoro"}}]}