{"type":"FeatureCollection","features":[{"type":"Feature","geometry":{"type":"Polygon","coordinates":[[[18.9663,47.0052],[18.9721,47.0418],[19.064,47.0188],[19.2424,47.1168],[19.3271,47.0908],[19.2871,47.0306],[19.3227,46.9885],[19.4124,47.0374],[19.4655,47.0346],[19.4803,47.0887],[19.5721,47.0864],[19.5996,47.0665],[19.6482,46.9638],[19.759,46.916],[19.8135,46.9164],[19.8637,46.9646],[19.9592,46.9415],[20.0049,46.9843],[20.0747,46.9815],[20.0878,47.0127],[20.0213,47.1013],[20.028,47.1297],[20.0652,47.1564],[20.0585,47.1877],[20.0113,47.2274],[19.9637,47.235],[19.9832,47.2811],[19.9578,47.3179],[19.8956,47.3646],[19.8112,47.3923],[19.7911,47.4258],[19.7281,47.4635],[19.757,47.5204],[19.6781,47.5062],[19.6409,47.5315],[19.6457,47.5704],[19.6282,47.6128],[19.5869,47.6463],[19.5812,47.7178],[19.5144,47.7362],[19.458,47.6834],[19.4221,47.7175],[19.4237,47.7594],[19.3984,47.7735],[19.4129,47.8037],[19.3035,47.8365],[19.1288,47.8435],[18.9656,47.924],[18.96,47.9412],[19.0143,47.992],[18.9712,48.0225],[18.967,48.068],[18.9477,48.0812],[18.8241,48.0412],[18.8193,47.9922],[18.787,47.9833],[18.778,47.9565],[18.7777,47.877],[18.8826,47.8012],[18.9349,47.722],[18.8822,47.6971],[18.8707,47.6435],[18.7728,47.6602],[18.765,47.6155],[18.6908,47.5747],[18.6924,47.5251],[18.7603,47.4767],[18.7807,47.4372],[18.7515,47.401],[18.8544,47.3186],[18.8741,47.2754],[18.9115,47.2589],[18.8769,47.122],[18.9055,47.055],[18.9663,47.0052]]]},"properties":{"iso3":"HUN","shapeId":"22733592B46801225244053","regionId":"HUN.14_1","name":"Pest"}},{"type":"Feature","geometry":{"type":"Polygon","coordinates":[[[22.0741,47.5815],[22.0919,47.6005],[22.1397,47.5961],[22.1575,47.6426],[22.2849,47.7639],[22.3951,47.745],[22.4089,47.7948],[22.4373,47.8155],[22.5539,47.7628],[22.6374,47.7814],[22.7157,47.8402],[22.7599,47.8408],[22.748,47.8817],[22.8293,47.9008],[22.8907,47.9531],[22.844,47.9842],[22.8792,48.0001],[22.8673,48.0094],[22.8828,48.0415],[22.8381,48.0805],[22.8355,48.1079],[22.7989,48.118],[22.7614,48.1031],[22.7401,48.1212],[22.6738,48.0844],[22.6135,48.1027],[22.5941,48.0889],[22.5801,48.1021],[22.5924,48.1473],[22.5583,48.179],[22.5869,48.1915],[22.5312,48.2094],[22.4993,48.2472],[22.4488,48.2374],[22.3954,48.252],[22.3774,48.2338],[22.3381,48.2752],[22.3267,48.347],[22.2782,48.3511],[22.2497,48.3849],[22.2887,48.4004],[22.214,48.4149],[22.1173,48.3744],[22.0545,48.2984],[21.9994,48.3009],[21.9028,48.2363],[21.8272,48.229],[21.6501,48.1683],[21.569,48.1862],[21.4272,48.1749],[21.3861,48.1369],[21.378,48.1087],[21.3971,48.0847],[21.3559,48.0381],[21.2836,48.0266],[21.1971,48.0531],[21.0333,47.9919],[21.0493,47.954],[21.2173,47.9052],[21.4905,47.9281],[21.5076,47.9139],[21.5065,47.8526],[21.4823,47.7823],[21.5583,47.7032],[21.6531,47.6929],[21.7203,47.6543],[21.86,47.7223],[21.9349,47.6945],[21.9317,47.6714],[21.9584,47.6531],[21.9534,47.6239],[22.0327,47.6653],[22.0351,47.6137],[22.0741,47.5815]]]},"properties":{"iso3":"HUN","shapeId":"22733592B55295508761572","regionId":"HUN.16_1","name":"Szabolcs-Szatmár-Bereg"}},{"type":"Feature","geometry":{"type":"Polygon","coordinates":[[[21.0663,47.9464],[21.0016,47.8962],[20.9967,47.842],[20.9681,47.8232],[20.9795,47.7912],[20.9306,47.7744],[20.8669,47.7027],[20.788,47.6729],[20.7644,47.6193],[20.7959,47.5907],[20.8998,47.5823],[20.9325,47.5396],[20.9277,47.4483],[20.9582,47.3809],[20.9625,47.2976],[20.9461,47.2133],[21.241,47.1282],[21.2568,47.1017],[21.2129,47.0348],[21.2296,46.9968],[21.3761,46.9625],[21.4283,46.9311],[21.5036,46.9362],[21.5234,46.9677],[21.6348,47.0247],[21.7115,47.0984],[21.7588,47.1116],[21.7822,47.1683],[21.8385,47.2113],[21.8148,47.238],[21.8434,47.2661],[21.8492,47.3113],[21.9136,47.3822],[21.9668,47.3838],[21.993,47.4108],[21.9919,47.45],[21.9664,47.4843],[21.9896,47.5376],[22.0741,47.5815],[22.0351,47.6137],[22.0327,47.6653],[21.9534,47.6239],[21.9584,47.6531],[21.9317,47.6714],[21.9349,47.6945],[21.86,47.7223],[21.7203,47.6543],[21.6531,47.6929],[21.5583,47.7032],[21.4823,47.7823],[21.5065,47.8526],[21.5076,47.9139],[21.4905,47.9281],[21.2173,47.9052],[21.0663,47.9464]]]},"properties":{"iso3":"HUN","shapeId":"22733592B65065142275382","regionId":"HUN.9_1","name":"Hajdú-Bihar"}},{"type":"Feature","geometry":{"type":"Polygon","coordinates":[[[22.1173,48.3744],[22.0229,48.3882],[21.9937,48.3696],[21.8431,48.3656],[21.8102,48.3304],[21.7828,48.3494],[21.7621,48.3385],[21.6682,48.3953],[21.633,48.5017],[21.5714,48.4972],[21.5251,48.5463],[21.4567,48.5737],[21.4343,48.5504],[21.3425,48.5504],[21.3107,48.5171],[21.2313,48.5334],[21.1164,48.4841],[21.0965,48.513],[21.0309,48.5286],[20.9725,48.5111],[20.947,48.5492],[20.887,48.5413],[20.8471,48.5746],[20.5897,48.527],[20.5684,48.5442],[20.5441,48.5242],[20.5136,48.5355],[20.5018,48.5258],[20.5158,48.5],[20.413,48.4225],[20.395,48.3657],[20.2994,48.2743],[20.2352,48.2952],[20.2176,48.2678],[20.1668,48.2514],[20.1275,48.2727],[20.1238,48.2315],[20.0314,48.169],[20.0536,48.149],[20.1417,48.139],[20.2026,48.0781],[20.2621,48.0976],[20.3164,48.0795],[20.3758,48.1457],[20.4367,48.1307],[20.4795,48.0735],[20.4249,47.9663],[20.4741,47.9181],[20.4066,47.8913],[20.4033,47.8669],[20.455,47.8527],[20.4892,47.7742],[20.5997,47.6817],[20.7797,47.6642],[20.8669,47.7027],[20.9306,47.7744],[20.9795,47.7912],[20.9681,47.8232],[20.9967,47.842],[21.0016,47.8962],[21.0663,47.9464],[21.0342,47.9696],[21.052,48.0111],[21.0964,48.0097],[21.1971,48.0531],[21.2836,48.0266],[21.3559,48.0381],[21.3971,48.0847],[21.378,48.1087],[21.3861,48.1369],[21.4272,48.1749],[21.569,48.1862],[21.6501,48.1683],[21.8272,48.229],[21.9028,48.2363],[21.9994,48.3009],[22.0545,48.2984],[22.1173,48.3744]]]},"properties":{"iso3":"HUN","shapeId":"22733592B38895068362950","regionId":"HUN.4_1","name":"Borsod-Abaúj-Zemplén"}},{"type":"Feature","geometry":{"type":"Polygon","coordinates":[[[19.5429,47.7391],[19.5954,47.7818],[19.5906,47.8228],[19.6701,47.8122],[19.7435,47.8646],[19.7397,47.9019],[19.8036,47.8775],[19.8166,47.8884],[19.8008,47.9285],[19.8931,47.9301],[19.9271,47.9483],[19.9403,47.983],[19.9959,48.0244],[19.9456,48.0777],[20.0407,48.1232],[20.0512,48.1512],[20.0076,48.1857],[19.8889,48.1238],[19.8674,48.1698],[19.7769,48.158],[19.7693,48.1745],[19.7883,48.1885],[19.7557,48.2168],[19.6969,48.206],[19.6349,48.2494],[19.5198,48.2072],[19.4593,48.0826],[19.441,48.1065],[19.3963,48.0824],[19.3157,48.0904],[19.232,48.0529],[19.1417,48.0777],[19.0558,48.0559],[19.0315,48.0738],[18.9928,48.0547],[18.9637,48.0649],[18.9712,48.0225],[19.0143,47.992],[18.96,47.9412],[18.9656,47.924],[19.1288,47.8435],[19.3035,47.8365],[19.4129,47.8037],[19.3984,47.7735],[19.4237,47.7594],[19.4221,47.7175],[19.458,47.6834],[19.5144,47.7362],[19.5429,47.7391]]]},"properties":{"iso3":"HUN","shapeId":"22733592B56459880018469","regionId":"HUN.13_1","name":"Nógrád"}},{"type":"Feature","geometry":{"type":"Polygon","coordinates":[[[19.6457,47.5704],[19.6928,47.6121],[19.7787,47.5982],[19.8337,47.6602],[19.873,47.6478],[19.9589,47.6789],[20.0054,47.5625],[20.0685,47.5535],[20.0736,47.5932],[20.1405,47.6085],[20.2646,47.5105],[20.2889,47.4485],[20.3748,47.4172],[20.4486,47.4541],[20.471,47.4901],[20.6448,47.5682],[20.667,47.6325],[20.7096,47.6577],[20.6585,47.6817],[20.5997,47.6817],[20.4892,47.7742],[20.455,47.8527],[20.4033,47.8669],[20.4066,47.8913],[20.4741,47.9181],[20.4249,47.9663],[20.4795,48.0735],[20.4367,48.1307],[20.3758,48.1457],[20.3164,48.0795],[20.2621,48.0976],[20.2026,48.0781],[20.1417,48.139],[20.0512,48.1512],[20.0407,48.1232],[19.9456,48.0777],[19.9959,48.0244],[19.9403,47.983],[19.9271,47.9483],[19.8931,47.9301],[19.8008,47.9285],[19.8166,47.8884],[19.8036,47.8775],[19.7397,47.9019],[19.7435,47.8646],[19.6701,47.8122],[19.5882,47.8201],[19.5954,47.7818],[19.5429,47.7391],[19.5848,47.7141],[19.5869,47.6463],[19.6282,47.6128],[19.6457,47.5704]]]},"properties":{"iso3":"HUN","shapeId":"22733592B80362656403521","regionId":"HUN.10_1","name":"Heves"}},{"type":"Feature","geometry":{"type":"Polygon","coordinates":[[[20.9465,47.2131],[20.8308,47.1371],[20.7858,47.0391],[20.6805,47.0114],[20.7029,46.9561],[20.6681,46.8984],[20.4681,46.8713],[20.3921,46.8111],[20.4151,46.782],[20.4403,46.7919],[20.4951,46.7564],[20.5724,46.7479],[20.5609,46.7016],[20.5743,46.6729],[20.5435,46.6223],[20.5753,46.5431],[20.605,46.5243],[20.578,46.4958],[20.5847,46.4626],[20.5344,46.3964],[20.5601,46.3693],[20.6566,46.3536],[20.723,46.3789],[20.7685,46.3323],[20.7476,46.2991],[20.7846,46.2763],[20.8581,46.2996],[20.9082,46.2756],[20.9479,46.2923],[21.0647,46.2609],[21.1242,46.3171],[21.1803,46.3199],[21.212,46.4146],[21.2861,46.4233],[21.3078,46.4809],[21.2689,46.493],[21.268,46.5211],[21.3154,46.5805],[21.3008,46.5939],[21.3124,46.6204],[21.334,46.6348],[21.4049,46.6263],[21.4421,46.6629],[21.425,46.6898],[21.4905,46.6908],[21.5246,46.7327],[21.4756,46.7576],[21.5189,46.8405],[21.5879,46.8623],[21.6012,46.9013],[21.5817,46.923],[21.6657,46.97],[21.6483,46.9858],[21.6711,47.0029],[21.6348,47.0247],[21.5363,46.977],[21.5036,46.9362],[21.4103,46.9354],[21.3761,46.9625],[21.223,47.0004],[21.2129,47.0348],[21.2568,47.1017],[21.2362,47.1314],[20.9465,47.2131]]]},"properties":{"iso3":"HUN","shapeId":"22733592B23182986205710","regionId":"HUN.3_1","name":"Békés"}},{"type":"Feature","geometry":{"type":"Polygon","coordinates":[[[20.4152,46.7821],[20.3023,46.7289],[20.2286,46.7657],[20.1722,46.721],[20.0439,46.7674],[19.9693,46.7021],[19.9961,46.6627],[19.9743,46.5817],[19.9346,46.5581],[19.8687,46.5678],[19.7724,46.5177],[19.7914,46.4996],[19.8531,46.4957],[19.903,46.4344],[19.8918,46.4079],[19.9075,46.3966],[19.8626,46.3638],[19.8131,46.3747],[19.7575,46.3377],[19.715,46.3505],[19.6722,46.3226],[19.6845,46.2809],[19.6578,46.25],[19.7035,46.1783],[19.8217,46.1308],[19.9418,46.1779],[20.02,46.1822],[20.0359,46.1484],[20.0736,46.148],[20.1054,46.1827],[20.1364,46.1502],[20.1898,46.166],[20.2104,46.1411],[20.2681,46.1296],[20.2779,46.1592],[20.3615,46.1783],[20.4722,46.1627],[20.512,46.2035],[20.6383,46.1515],[20.7527,46.218],[20.7527,46.2576],[20.7846,46.2763],[20.7476,46.2991],[20.7685,46.3323],[20.723,46.3789],[20.6435,46.3542],[20.5721,46.3641],[20.5344,46.3964],[20.5847,46.4626],[20.578,46.4958],[20.605,46.5243],[20.5753,46.5431],[20.5435,46.6223],[20.5743,46.6729],[20.5609,46.7016],[20.5724,46.7479],[20.4951,46.7564],[20.4403,46.7919],[20.4152,46.7821]]]},"properties":{"iso3":"HUN","shapeId":"22733592B44371380589399","regionId":null,"name":"Csongrád-Csanád"}},{"type":"Feature","geometry":{"type":"Polygon","coordinates":[[[20.0747,46.9815],[20.103,46.9541],[20.0883,46.9245],[20.1425,46.9038],[20.0811,46.8481],[20.1028,46.8155],[19.9942,46.7895],[20.0187,46.7732],[20.0525,46.7865],[20.0493,46.7682],[20.0748,46.7525],[20.158,46.7216],[20.2286,46.7657],[20.3151,46.7318],[20.4069,46.773],[20.3938,46.8201],[20.4574,46.8671],[20.6681,46.8984],[20.7029,46.9561],[20.6805,47.0114],[20.7858,47.0391],[20.8308,47.1371],[20.8951,47.1672],[20.956,47.236],[20.9582,47.3809],[20.9277,47.4483],[20.9365,47.5131],[20.9132,47.574],[20.7959,47.5907],[20.7644,47.6193],[20.7797,47.6642],[20.7084,47.6682],[20.644,47.5981],[20.6448,47.5682],[20.471,47.4901],[20.4486,47.4541],[20.3641,47.4167],[20.2889,47.4485],[20.2646,47.5105],[20.1405,47.6085],[20.0736,47.5932],[20.0685,47.5535],[20.0054,47.5625],[19.9589,47.6789],[19.873,47.6478],[19.8337,47.6602],[19.7787,47.5982],[19.7214,47.6166],[19.681,47.6056],[19.6342,47.558],[19.6409,47.5315],[19.6781,47.5062],[19.757,47.5204],[19.7281,47.4635],[19.7911,47.4258],[19.8112,47.3923],[19.8956,47.3646],[19.9578,47.3179],[19.9832,47.2811],[19.9637,47.235],[20.0113,47.2274],[20.0585,47.1877],[20.0652,47.1564],[20.028,47.1297],[20.0213,47.1013],[20.0878,47.0127],[20.0747,46.9815]]]},"properties":{"iso3":"HUN","shapeId":"22733592B98149210561707","regionId":"HUN.11_1","name":"Jász-Nagykun-Szolnok"}},{"type":"Feature","geometry":{"type":"Polygon","coordinates":[[[18.8554,47.8111],[18.7424,47.8096],[18.6669,47.7469],[18.4418,47.7568],[18.3287,47.725],[17.9661,47.7504],[17.8902,47.733],[17.9287,47.6651],[17.9119,47.6197],[17.9515,47.5473],[17.9039,47.519],[17.9242,47.4939],[17.8942,47.4644],[17.8908,47.4261],[17.9106,47.3845],[17.9659,47.3779],[17.959,47.3567],[17.9896,47.3261],[18.0398,47.3246],[18.0828,47.3436],[18.1253,47.4451],[18.1908,47.4478],[18.2011,47.475],[18.3203,47.4011],[18.3755,47.4208],[18.3772,47.4561],[18.4349,47.4837],[18.4861,47.4672],[18.5049,47.4865],[18.5361,47.4793],[18.4995,47.5345],[18.5051,47.5529],[18.5677,47.5726],[18.688,47.5726],[18.765,47.6155],[18.7728,47.6602],[18.8169,47.6606],[18.8498,47.6357],[18.8782,47.6496],[18.8822,47.6971],[18.9349,47.722],[18.8826,47.8012],[18.8554,47.8111]]]},"properties":{"iso3":"HUN","shapeId":"22733592B67277482146773","regionId":"HUN.12_1","name":"Komárom-Esztergom"}},{"type":"Feature","geometry":{"type":"Polygon","coordinates":[[[17.8902,47.733],[17.7515,47.7393],[17.6278,47.8096],[17.5879,47.8083],[17.3872,47.9737],[17.29,47.9826],[17.2565,48.0132],[17.1966,48.0126],[17.1138,47.9657],[17.1315,47.9527],[17.1117,47.9319],[17.129,47.9142],[17.1147,47.8876],[17.0328,47.8628],[17.0858,47.8072],[17.0703,47.789],[17.0953,47.7069],[16.8896,47.6873],[16.8783,47.716],[16.8377,47.6789],[16.7651,47.6797],[16.7119,47.7402],[16.6695,47.7398],[16.6236,47.766],[16.5521,47.7508],[16.5418,47.7385],[16.5579,47.719],[16.4739,47.6826],[16.4493,47.6934],[16.431,47.6678],[16.602,47.6145],[16.6544,47.6247],[16.685,47.5621],[16.722,47.5423],[16.697,47.5046],[16.6591,47.4991],[16.6852,47.4741],[16.6635,47.453],[16.7314,47.4121],[16.8304,47.4501],[16.9793,47.412],[17.0651,47.4533],[17.0902,47.44],[17.0664,47.4131],[17.0747,47.3965],[17.2342,47.4565],[17.3206,47.4422],[17.3979,47.4546],[17.4404,47.4908],[17.495,47.4315],[17.5345,47.436],[17.5623,47.4715],[17.596,47.4499],[17.6169,47.4711],[17.6747,47.4577],[17.7158,47.4764],[17.7468,47.4531],[17.7711,47.4692],[17.8091,47.3876],[17.753,47.3444],[17.753,47.3225],[17.8036,47.2662],[17.817,47.3198],[17.8517,47.3261],[17.8682,47.3704],[17.9108,47.3845],[17.8878,47.4373],[17.9242,47.4939],[17.9039,47.519],[17.9515,47.5473],[17.9119,47.6197],[17.9287,47.6651],[17.8902,47.733]]]},"properties":{"iso3":"HUN","shapeId":"22733592B30896182433416","regionId":"HUN.8_1","name":"Győr-Moson-Sopron"}},{"type":"Feature","geometry":{"type":"Polygon","coordinates":[[[16.6635,47.453],[16.5827,47.4115],[16.5095,47.3963],[16.4614,47.4085],[16.475,47.3756],[16.4493,47.3516],[16.4864,47.3319],[16.5095,47.2843],[16.4861,47.2556],[16.4547,47.2556],[16.4356,47.1983],[16.4779,47.1797],[16.4681,47.1495],[16.5503,47.1367],[16.4801,47.0968],[16.5367,47.0586],[16.4616,47.0291],[16.5353,46.9969],[16.3051,47.0109],[16.2795,46.9649],[16.2103,46.9417],[16.1273,46.8687],[16.3006,46.8735],[16.3637,46.8343],[16.3325,46.7851],[16.3854,46.7106],[16.4376,46.7479],[16.4009,46.7889],[16.4715,46.7823],[16.5258,46.8006],[16.5425,46.8303],[16.6031,46.8363],[16.6707,46.9174],[16.8282,46.92],[16.8863,46.9725],[16.9434,46.973],[16.9874,46.9501],[17.0376,46.9813],[17.067,47.0309],[17.1077,47.0141],[17.124,47.0475],[17.2576,47.0768],[17.2366,47.155],[17.2575,47.1808],[17.2583,47.304],[17.3318,47.3362],[17.2374,47.383],[17.2462,47.403],[17.2163,47.4398],[17.0747,47.3965],[17.0664,47.4131],[17.0902,47.44],[17.0774,47.4526],[16.9793,47.412],[16.8079,47.4487],[16.7504,47.41],[16.6635,47.453]]]},"properties":{"iso3":"HUN","shapeId":"22733592B45424907481292","regionId":"HUN.18_1","name":"Vas"}},{"type":"Feature","geometry":{"type":"Polygon","coordinates":[[[16.3854,46.7106],[16.3975,46.6901],[16.4376,46.6847],[16.4363,46.6516],[16.4128,46.6525],[16.4134,46.6292],[16.5329,46.5583],[16.558,46.4882],[16.6875,46.4509],[16.7661,46.3798],[16.8844,46.3481],[16.9099,46.2996],[17.018,46.2892],[17.0932,46.3105],[17.1066,46.3375],[17.0912,46.4024],[17.1551,46.3924],[17.2525,46.4136],[17.2501,46.457],[17.2775,46.4863],[17.2714,46.6599],[17.304,46.696],[17.4657,46.728],[17.3667,46.8072],[17.3603,46.876],[17.3274,46.899],[17.2727,46.9003],[17.2916,46.9481],[17.2706,46.9751],[17.074,47.0314],[16.9874,46.9501],[16.9434,46.973],[16.8863,46.9725],[16.8282,46.92],[16.6707,46.9174],[16.6031,46.8363],[16.5425,46.8303],[16.5258,46.8006],[16.4715,46.7823],[16.4009,46.7889],[16.4376,46.7479],[16.3854,46.7106]]]},"properties":{"iso3":"HUN","shapeId":"22733592B73257172814754","regionId":"HUN.20_1","name":"Zala"}},{"type":"Feature","geometry":{"type":"Polygon","coordinates":[[[17.9108,47.3845],[17.8682,47.3704],[17.8517,47.3261],[17.817,47.3198],[17.7977,47.2666],[17.753,47.3225],[17.753,47.3444],[17.8091,47.3876],[17.7711,47.4692],[17.7468,47.4531],[17.7158,47.4764],[17.6747,47.4577],[17.6169,47.4711],[17.596,47.4499],[17.5623,47.4715],[17.5246,47.4315],[17.4872,47.4337],[17.4503,47.4903],[17.346,47.4442],[17.226,47.4543],[17.2374,47.383],[17.3315,47.3306],[17.2583,47.304],[17.2575,47.1808],[17.2366,47.155],[17.2576,47.0768],[17.124,47.0475],[17.1195,47.0238],[17.2706,46.9751],[17.2916,46.9481],[17.2727,46.9003],[17.3274,46.899],[17.3603,46.876],[17.3667,46.8072],[17.4657,46.7275],[17.5547,46.7354],[17.8889,46.8568],[17.922,46.8542],[17.9616,46.8937],[18.0891,46.9517],[18.198,46.9307],[18.2689,46.9831],[18.2199,47.0436],[18.2476,47.0683],[18.2326,47.2051],[18.1683,47.249],[18.1251,47.2354],[18.0692,47.2769],[18.0751,47.3046],[18.0416,47.3259],[17.9896,47.3261],[17.9526,47.3844],[17.9108,47.3845]]]},"properties":{"iso3":"HUN","shapeId":"22733592B83106366455538","regionId":"HUN.19_1","name":"Veszprém"}},{"type":"Feature","geometry":{"type":"Polygon","coordinates":[[[18.8265,45.9174],[18.7981,45.9355],[18.8422,45.9551],[18.8346,45.9725],[18.865,46.0283],[18.7765,46.0228],[18.7409,46.0467],[18.7989,46.0968],[18.737,46.101],[18.654,46.1666],[18.5851,46.1878],[18.582,46.2398],[18.5302,46.2713],[18.3857,46.1994],[18.3822,46.2158],[18.4274,46.2535],[18.3721,46.2829],[18.395,46.3193],[18.3467,46.3714],[18.226,46.3638],[18.2223,46.3191],[18.1584,46.2997],[18.1508,46.2699],[18.0001,46.2927],[17.9641,46.2216],[17.8827,46.1881],[17.7462,46.2088],[17.7567,46.1881],[17.7145,46.1325],[17.6939,46.0615],[17.6483,46.0388],[17.6716,46.0091],[17.6502,45.9724],[17.6592,45.9466],[17.6996,45.9479],[17.7498,45.8842],[17.6987,45.8836],[17.6592,45.8547],[17.827,45.8206],[17.8592,45.7864],[17.9008,45.806],[18.0807,45.7836],[18.1425,45.8029],[18.3239,45.7723],[18.384,45.7846],[18.3944,45.7642],[18.444,45.7633],[18.4865,45.807],[18.5152,45.7983],[18.574,45.8174],[18.6781,45.9191],[18.7882,45.8892],[18.8265,45.9174]]]},"properties":{"iso3":"HUN","shapeId":"22733592B86637050333024","regionId":"HUN.2_1","name":"Baranya"}},{"type":"Feature","geometry":{"type":"Polygon","coordinates":[[[16.9099,46.2996],[16.9681,46.2375],[17.1753,46.1587],[17.1966,46.1428],[17.1986,46.1082],[17.3018,46.0294],[17.2834,46.0055],[17.3904,45.9446],[17.569,45.9445],[17.6462,45.9024],[17.6579,45.8597],[17.6987,45.8836],[17.741,45.8743],[17.747,45.8897],[17.6996,45.9479],[17.6592,45.9466],[17.6502,45.9724],[17.6716,46.0091],[17.6483,46.0388],[17.6939,46.0615],[17.7145,46.1325],[17.7567,46.1881],[17.7462,46.2088],[17.8827,46.1881],[17.9641,46.2216],[17.9902,46.2883],[18.0941,46.2768],[18.1262,46.3207],[18.1162,46.3537],[18.0678,46.3613],[18.0611,46.3806],[18.0949,46.4075],[18.0846,46.4888],[18.1003,46.5372],[18.1387,46.5518],[18.1448,46.5934],[18.1226,46.6172],[18.1617,46.6459],[18.1948,46.644],[18.1877,46.6775],[18.2074,46.7038],[18.1919,46.7352],[18.2303,46.7563],[18.2159,46.8967],[18.198,46.9307],[18.0891,46.9517],[17.9616,46.8937],[17.9308,46.8577],[17.8889,46.8568],[17.5547,46.7354],[17.3177,46.7077],[17.2714,46.6599],[17.2775,46.4863],[17.2501,46.457],[17.247,46.4067],[17.0912,46.4024],[17.1066,46.3375],[17.0766,46.3001],[16.9099,46.2996]]]},"properties":{"iso3":"HUN","shapeId":"22733592B29270060230612","regionId":"HUN.15_1","name":"Somogy"}},{"type":"Feature","geometry":{"type":"Polygon","coordinates":[[[18.7973,46.0981],[18.8586,46.1376],[18.8973,46.192],[18.8437,46.1787],[18.8367,46.1949],[18.9253,46.2471],[18.9335,46.2686],[18.9073,46.3731],[18.9387,46.4439],[18.8735,46.5867],[18.966,46.6206],[19.0156,46.6743],[18.9962,46.738],[18.9341,46.7917],[18.9316,46.8213],[18.8897,46.8188],[18.8116,46.7303],[18.743,46.7184],[18.7497,46.6852],[18.6818,46.6474],[18.6529,46.6574],[18.6402,46.7042],[18.5851,46.745],[18.5483,46.73],[18.5326,46.7008],[18.4813,46.6985],[18.439,46.7262],[18.4428,46.7598],[18.4242,46.7387],[18.3167,46.7736],[18.2668,46.7483],[18.2044,46.7518],[18.1948,46.644],[18.1617,46.6459],[18.1226,46.6172],[18.1448,46.5934],[18.1387,46.5518],[18.1003,46.5372],[18.0846,46.4888],[18.0949,46.4075],[18.0611,46.3806],[18.0678,46.3613],[18.1162,46.3537],[18.1262,46.3207],[18.1066,46.282],[18.1508,46.2699],[18.1584,46.2997],[18.2178,46.3138],[18.226,46.3638],[18.3547,46.3696],[18.395,46.3193],[18.3721,46.2829],[18.4274,46.2535],[18.3822,46.2158],[18.3857,46.1994],[18.5302,46.2713],[18.582,46.2398],[18.5851,46.1878],[18.654,46.1666],[18.737,46.101],[18.7973,46.0981]]]},"properties":{"iso3":"HUN","shapeId":"22733592B60351968143004","regionId":"HUN.17_1","name":"Tolna"}},{"type":"Feature","geometry":{"type":"Polygon","coordinates":[[[18.9663,47.0052],[18.9709,46.8912],[18.9307,46.8401],[18.9341,46.7917],[18.9962,46.738],[19.0156,46.6743],[18.966,46.6206],[18.8735,46.5867],[18.9387,46.4439],[18.9073,46.3731],[18.9313,46.2591],[18.8367,46.1949],[18.8437,46.1787],[18.8973,46.192],[18.8586,46.1376],[18.7409,46.0502],[18.7765,46.0228],[18.865,46.0283],[18.8346,45.9725],[18.8422,45.9551],[18.7981,45.9355],[18.8265,45.9174],[18.881,45.9155],[18.9116,45.9403],[19.007,45.932],[19.0095,45.9637],[19.0779,45.9637],[19.0779,46.0041],[19.1177,46.0374],[19.1638,45.9974],[19.3043,45.9939],[19.2868,46.0157],[19.363,46.0545],[19.4004,46.0337],[19.4824,46.1002],[19.528,46.1126],[19.5191,46.1448],[19.5753,46.1701],[19.7035,46.1783],[19.6578,46.25],[19.6845,46.2809],[19.6722,46.3226],[19.715,46.3505],[19.7575,46.3377],[19.8131,46.3747],[19.8626,46.3638],[19.9075,46.3966],[19.8918,46.4079],[19.903,46.4344],[19.8531,46.4957],[19.7914,46.4996],[19.7724,46.5177],[19.8687,46.5678],[19.9346,46.5581],[19.9743,46.5817],[19.9961,46.6627],[19.9693,46.7021],[20.0575,46.7836],[20.0187,46.7732],[19.9947,46.7943],[20.1028,46.8155],[20.0811,46.8481],[20.1425,46.9038],[20.0883,46.9245],[20.0977,46.9653],[20.0411,46.9901],[19.993,46.9797],[19.9592,46.9415],[19.8637,46.9646],[19.8135,46.9164],[19.7508,46.9185],[19.6482,46.9638],[19.5996,47.0665],[19.5393,47.0944],[19.4803,47.0887],[19.4655,47.0346],[19.4124,47.0374],[19.3385,46.9891],[19.2871,47.0306],[19.3271,47.0908],[19.2638,47.1169],[19.2246,47.1132],[19.1941,47.0797],[19.1535,47.0743],[19.064,47.0188],[18.9721,47.0418],[18.9663,47.0052]]]},"properties":{"iso3":"HUN","shapeId":"22733592B34864686161966","regionId":"HUN.1_1","name":"Bács-Kiskun"}},{"type":"Feature","geometry":{"type":"Polygon","coordinates":[[[18.6908,47.5747],[18.5677,47.5726],[18.5051,47.5529],[18.4995,47.5345],[18.5384,47.4811],[18.5049,47.4865],[18.4861,47.4672],[18.4349,47.4837],[18.3772,47.4561],[18.3755,47.4208],[18.3203,47.4011],[18.2119,47.4747],[18.1908,47.4688],[18.1908,47.4478],[18.1328,47.4518],[18.0828,47.3436],[18.046,47.3357],[18.0751,47.3046],[18.0692,47.2769],[18.1251,47.2354],[18.1683,47.249],[18.2412,47.1951],[18.2298,47.133],[18.2476,47.0683],[18.2199,47.0436],[18.2412,47.0015],[18.2719,46.9858],[18.198,46.9307],[18.223,46.8765],[18.2123,46.8334],[18.2324,46.752],[18.2668,46.7483],[18.3167,46.7736],[18.4242,46.7387],[18.4428,46.7598],[18.439,46.7262],[18.4813,46.6985],[18.5326,46.7008],[18.5483,46.73],[18.5851,46.745],[18.6402,46.7042],[18.6529,46.6574],[18.6928,46.6486],[18.7497,46.6852],[18.743,46.7184],[18.8116,46.7303],[18.8897,46.8188],[18.9316,46.8213],[18.9709,46.8912],[18.9663,47.0052],[18.9055,47.055],[18.8769,47.122],[18.9115,47.2589],[18.8741,47.2754],[18.8544,47.3186],[18.7515,47.401],[18.7807,47.4372],[18.7603,47.4767],[18.6924,47.5251],[18.6908,47.5747]]]},"properties":{"iso3":"HUN","shapeId":"22733592B12094485051524","regionId":"HUN.7_1","name":"Fejér"}}]}