{"type":"FeatureCollection","features":[{"type":"Feature","geometry":{"type":"Polygon","coordinates":[[[36.0506,4.4562],[35.9439,4.548],[35.9493,4.6286],[35.8121,4.7824],[35.8118,5.0957],[35.8619,5.1574],[35.8277,5.2422],[35.8632,5.3201],[35.7222,5.3718],[35.7166,5.3912],[35.618,5.3805],[35.6167,5.4039],[35.5598,5.4229],[35.2918,5.4306],[35.1946,5.2767],[34.3658,4.5766],[33.9928,4.2225],[34.0486,4.1783],[34.067,4.1422],[34.0508,4.1208],[34.0931,4.0687],[34.0904,4.0376],[34.0598,4.0279],[34.062,4.0094],[34.1344,3.9616],[34.0885,3.8616],[34.2156,3.8815],[34.2254,3.8308],[34.1795,3.8317],[34.1532,3.8072],[34.1886,3.7954],[34.1718,3.7677],[34.2455,3.7843],[34.3078,3.7124],[34.3026,3.6861],[34.3242,3.7274],[34.3699,3.7351],[34.4031,3.6929],[34.463,3.6696],[34.451,3.5188],[34.4235,3.4915],[34.3888,3.4919],[34.4167,3.4505],[34.4006,3.3713],[34.4477,3.2829],[34.4554,3.1828],[34.4947,3.1415],[34.5476,3.1388],[34.5755,3.0992],[34.5991,2.9261],[34.6401,2.9076],[34.6535,2.8675],[34.6927,2.8629],[34.7023,2.8781],[34.7666,2.8226],[34.7838,2.7499],[34.7749,2.6978],[34.8519,2.5835],[34.8673,2.5708],[34.897,2.5881],[34.9127,2.5167],[34.9318,2.5166],[34.9527,2.4725],[34.9408,2.4531],[35.0117,2.4036],[35.0221,2.4433],[34.997,2.4787],[35.0161,2.5676],[35.0692,2.4627],[35.1075,2.5051],[35.1324,2.6489],[35.1744,2.6368],[35.2249,2.5299],[35.2321,2.3512],[35.298,2.2707],[35.3658,2.0362],[35.3792,1.948],[35.365,1.9289],[35.4637,1.8423],[35.4635,1.8082],[35.5099,1.7639],[35.6018,1.7582],[35.7919,1.6636],[36.0966,1.1694],[36.174,1.1709],[36.3169,0.9913],[36.3404,0.9931],[36.3501,0.9661],[36.3878,0.9482],[36.3921,0.9188],[36.4427,0.9711],[36.4396,1.0025],[36.4594,0.9784],[36.4373,1.0865],[36.4423,1.1729],[36.387,1.1866],[36.394,1.22],[36.4216,1.2367],[36.4134,1.2596],[36.3877,1.2634],[36.395,1.2768],[36.4535,1.2616],[36.4378,1.3027],[36.3905,1.3129],[36.4582,1.3687],[36.4665,1.3986],[36.3895,1.445],[36.3559,1.436],[36.3182,1.4699],[36.2886,1.4639],[36.2961,1.5332],[36.3399,1.578],[36.3601,1.572],[36.3668,1.5957],[36.3935,1.5227],[36.4403,1.6156],[36.4655,1.6147],[36.4842,1.7028],[36.5253,1.7549],[36.5076,1.7714],[36.5293,1.7998],[36.5116,1.8765],[36.5365,1.8987],[36.5362,1.9637],[36.5265,1.9535],[36.5681,2.058],[36.5635,2.1038],[36.6109,2.1632],[36.7008,2.1988],[36.7237,2.301],[36.601,2.36],[36.5907,2.4141],[36.5591,2.3971],[36.5377,2.4078],[36.5285,2.5222],[36.513,2.5607],[36.4368,2.6335],[36.4459,2.7052],[36.3789,2.8383],[36.2816,2.8912],[36.2537,2.9652],[36.2466,2.9491],[36.124,2.9795],[36.1532,3.0858],[36.1408,3.1538],[36.1535,3.2169],[36.0521,3.2406],[36.0506,4.4562]]]},"properties":{"iso3":"KEN","shapeId":"32016919B72266624462344","regionId":"KEN.43_1","name":"Turkana"}},{"type":"Feature","geometry":{"type":"Polygon","coordinates":[[[36.6009,2.4057],[36.6392,2.411],[36.6379,2.3918],[36.6435,2.4183],[36.6986,2.4551],[36.6997,2.5124],[36.7567,2.5161],[36.8435,2.2748],[36.8969,2.1917],[36.92,2.0995],[36.9158,2.018],[36.95,2.0251],[37.0072,1.9851],[37.1795,1.9592],[37.1909,1.9304],[37.266,1.8788],[37.3061,1.7655],[37.3505,1.7421],[37.5794,1.3653],[37.598,1.3916],[37.6215,1.3769],[37.6529,1.4009],[37.8417,1.4255],[37.8521,1.4591],[37.9506,1.387],[37.9453,1.2629],[38.3397,1.5774],[38.3832,1.7613],[38.9626,2.0974],[38.9358,2.1612],[38.9347,2.3728],[38.8886,2.5426],[38.9817,2.5712],[39.0434,2.676],[39.066,2.7376],[39.0651,2.8823],[39.1118,2.8833],[39.1474,2.9528],[39.2022,2.9569],[39.3468,3.0701],[39.3417,3.2554],[39.2998,3.4407],[39.3181,3.472],[39.1931,3.48],[39.0884,3.5413],[39.02,3.514],[38.9671,3.5239],[38.9586,3.5089],[38.9043,3.5059],[38.7138,3.5656],[38.6823,3.6202],[38.6654,3.5872],[38.5761,3.6011],[38.5343,3.6492],[38.5157,3.6446],[38.5223,3.6222],[38.4476,3.5976],[38.1811,3.6158],[38.1282,3.6008],[37.9896,3.7292],[37.132,4.2938],[37.0477,4.3762],[37.0205,4.3719],[36.8426,4.45],[36.0506,4.4562],[36.0521,3.2406],[36.1535,3.2169],[36.1408,3.1538],[36.1532,3.0858],[36.124,2.9795],[36.2466,2.9491],[36.2537,2.9652],[36.2816,2.8912],[36.3789,2.8383],[36.4459,2.7052],[36.4368,2.6335],[36.513,2.5607],[36.5285,2.5222],[36.5377,2.4078],[36.6009,2.4057]]]},"properties":{"iso3":"KEN","shapeId":"32016919B63496705134089","regionId":"KEN.25_1","name":"Marsabit"}},{"type":"Feature","geometry":{"type":"Polygon","coordinates":[[[40.992,2.1792],[40.9925,2.8248],[41.3283,3.1537],[41.9063,3.9764],[41.8353,3.9451],[41.7989,3.9588],[41.7939,3.9831],[41.7553,3.9746],[41.7191,3.9954],[41.6764,3.9601],[41.6358,3.9865],[41.5663,3.9693],[41.5497,3.9856],[41.5127,3.9552],[41.5011,3.9697],[41.4194,3.95],[41.3952,3.9658],[41.3276,3.942],[41.2395,3.9604],[41.2069,3.9357],[41.1723,3.943],[41.1047,3.988],[41.1054,4.0078],[40.9996,4.1123],[40.9063,4.1576],[40.8856,4.2144],[40.848,4.249],[40.7618,4.283],[40.7273,4.252],[40.1901,4.0454],[39.8677,3.8675],[39.7753,3.6681],[39.7868,3.3335],[40.0442,3.2242],[40.2697,2.9706],[40.4929,2.8681],[40.4933,2.7996],[40.5222,2.7756],[40.5027,2.7165],[40.592,2.5013],[40.661,2.4291],[40.6773,2.3752],[40.7326,2.3178],[40.8387,2.2747],[40.9157,2.1915],[40.992,2.1792]]]},"properties":{"iso3":"KEN","shapeId":"32016919B2031803566233","regionId":"KEN.24_1","name":"Mandera"}},{"type":"Feature","geometry":{"type":"Polygon","coordinates":[[[38.9626,2.0974],[38.9942,2.0096],[39.1311,1.8662],[39.2138,1.6974],[39.3083,1.6545],[39.4,1.553],[39.4472,1.5272],[39.2743,1.4678],[39.5635,0.7572],[39.7329,0.5259],[39.7997,0.4828],[39.905,0.4621],[39.9791,0.4097],[40.0596,0.3926],[40.2334,0.2526],[40.3313,0.1994],[40.4022,0.1839],[40.5073,0.1928],[40.5332,0.2263],[40.5862,0.2154],[40.6477,0.2321],[40.7157,0.3201],[40.8626,0.3789],[40.9918,0.4644],[40.992,2.1792],[40.9157,2.1915],[40.8387,2.2747],[40.7326,2.3178],[40.6773,2.3752],[40.661,2.4291],[40.592,2.5013],[40.5027,2.7165],[40.5222,2.7756],[40.4933,2.7996],[40.4929,2.8681],[40.2697,2.9706],[40.0442,3.2242],[39.7868,3.3335],[39.7753,3.6681],[39.6094,3.5011],[39.553,3.4661],[39.4424,3.4562],[39.3181,3.472],[39.3045,3.4558],[39.3417,3.2554],[39.3468,3.0701],[39.2022,2.9569],[39.1474,2.9528],[39.1118,2.8833],[39.0651,2.8823],[39.066,2.7376],[39.0434,2.676],[38.9817,2.5712],[38.8886,2.5426],[38.9347,2.3728],[38.9358,2.1612],[38.9626,2.0974]]]},"properties":{"iso3":"KEN","shapeId":"32016919B89873713911655","regionId":"KEN.46_1","name":"Wajir"}},{"type":"Feature","geometry":{"type":"Polygon","coordinates":[[[34.9428,2.4555],[34.9004,2.4399],[34.8791,2.3979],[34.9751,2.1629],[34.9923,2.0929],[34.9638,2.0637],[34.9839,1.9806],[35.0258,1.9242],[35.0005,1.8383],[34.9878,1.6652],[34.9422,1.5762],[34.8868,1.5558],[34.8636,1.5266],[34.8584,1.4526],[34.7886,1.4163],[34.7932,1.3608],[34.8292,1.3113],[34.8223,1.2626],[34.9107,1.2842],[34.9061,1.2521],[35.0121,1.2542],[35.0417,1.1945],[35.0831,1.1692],[35.1521,1.1994],[35.3245,1.1164],[35.5439,1.2851],[35.608,1.2801],[35.696,1.319],[35.687,1.3572],[35.7109,1.4008],[35.7058,1.4384],[35.7827,1.5598],[35.7932,1.6236],[35.7763,1.6435],[35.7919,1.6636],[35.6018,1.7582],[35.5099,1.7639],[35.4635,1.8082],[35.4637,1.8423],[35.365,1.9289],[35.3792,1.948],[35.3658,2.0362],[35.298,2.2707],[35.2321,2.3512],[35.2249,2.5299],[35.1744,2.6368],[35.1324,2.6489],[35.1075,2.5051],[35.0692,2.4627],[35.0161,2.5676],[34.997,2.4787],[35.0221,2.4433],[35.0117,2.4036],[34.9428,2.4555]]]},"properties":{"iso3":"KEN","shapeId":"32016919B96045830258165","regionId":"KEN.47_1","name":"West  Pokot"}},{"type":"Feature","geometry":{"type":"Polygon","coordinates":[[[36.3921,0.9188],[36.4845,0.8527],[36.4824,0.8135],[36.7084,0.8144],[36.7934,0.8694],[36.8811,0.7332],[37.0695,0.7658],[37.1031,0.7876],[37.1686,0.7427],[37.2199,0.7394],[37.2555,0.7645],[37.3002,0.7209],[37.3539,0.6007],[37.3912,0.5766],[37.4703,0.5933],[37.5143,0.5681],[37.5809,0.5728],[37.5835,0.5884],[37.6328,0.5972],[37.6907,0.6631],[37.7238,0.6547],[37.7467,0.6762],[37.8321,0.6798],[37.8768,0.7442],[37.9126,0.712],[38.0115,0.8037],[38.05,0.7786],[38.0809,0.7814],[38.0475,0.805],[38.0308,1.0851],[37.9482,1.1943],[37.9506,1.387],[37.8521,1.4591],[37.8417,1.4255],[37.6529,1.4009],[37.6215,1.3769],[37.598,1.3916],[37.5794,1.3653],[37.3505,1.7421],[37.3061,1.7655],[37.266,1.8788],[37.1909,1.9304],[37.1795,1.9592],[37.0072,1.9851],[36.95,2.0251],[36.9158,2.018],[36.92,2.0995],[36.8969,2.1917],[36.8435,2.2748],[36.7524,2.5165],[36.6997,2.5124],[36.6986,2.4551],[36.6435,2.4183],[36.6379,2.3918],[36.6392,2.411],[36.6009,2.4057],[36.601,2.36],[36.7237,2.301],[36.7228,2.275],[36.7008,2.1988],[36.6109,2.1632],[36.5635,2.1038],[36.5681,2.058],[36.5265,1.9535],[36.5362,1.9637],[36.5365,1.8987],[36.5116,1.8765],[36.5293,1.7998],[36.5076,1.7714],[36.5253,1.7549],[36.4842,1.7028],[36.4655,1.6147],[36.4403,1.6156],[36.3935,1.5227],[36.3668,1.5957],[36.3601,1.572],[36.3399,1.578],[36.2961,1.5332],[36.2886,1.4639],[36.3182,1.4699],[36.3559,1.436],[36.3895,1.445],[36.4665,1.3986],[36.4582,1.3687],[36.3905,1.3129],[36.4378,1.3027],[36.4535,1.2616],[36.395,1.2768],[36.3877,1.2634],[36.4134,1.2596],[36.4216,1.2367],[36.394,1.22],[36.387,1.1866],[36.4423,1.1729],[36.4373,1.0865],[36.4594,0.9784],[36.4396,1.0025],[36.4427,0.9711],[36.3921,0.9188]]]},"properties":{"iso3":"KEN","shapeId":"32016919B77230315601578","regionId":"KEN.37_1","name":"Samburu"}},{"type":"Feature","geometry":{"type":"Polygon","coordinates":[[[37.9453,1.2629],[37.9482,1.1943],[38.0308,1.0851],[38.0475,0.805],[38.0804,0.7804],[38.0115,0.8037],[37.9126,0.712],[37.8768,0.7442],[37.8321,0.6798],[37.7467,0.6762],[37.7238,0.6547],[37.6907,0.6631],[37.6328,0.5972],[37.5319,0.5652],[37.4703,0.5933],[37.3649,0.587],[37.2647,0.7578],[37.1686,0.7427],[37.1031,0.7876],[36.9806,0.7445],[36.9346,0.7542],[36.9237,0.6653],[36.8671,0.5969],[36.8644,0.5658],[37.369,0.5116],[37.3483,0.4395],[37.3919,0.3531],[37.3858,0.2744],[37.3995,0.2962],[37.4278,0.2978],[37.5371,0.264],[37.5527,0.324],[37.5808,0.3275],[37.6032,0.3607],[37.5814,0.42],[37.5865,0.4812],[37.826,0.5618],[38.0613,0.6674],[38.1765,0.3301],[38.1959,0.3225],[38.1965,0.2287],[38.2987,0.1601],[38.3248,0.078],[38.4016,-0.0141],[38.4115,-0.0621],[38.464,-0.0832],[38.49,-0.0588],[38.5207,-0.0624],[38.5549,-0.0155],[38.6397,-0.0521],[38.6905,-0.0397],[38.7687,-0.0687],[38.7294,0.0682],[38.7556,0.1924],[38.6617,0.5091],[38.705,0.5064],[38.7244,0.5245],[38.7663,0.511],[38.8594,0.5992],[38.9105,0.599],[38.9398,0.6284],[39.0097,0.6244],[39.0535,0.6858],[39.0851,0.6751],[39.1409,0.6904],[39.1752,0.7209],[39.2357,0.8442],[39.3116,0.924],[39.4607,0.9947],[39.2743,1.4678],[39.4472,1.5272],[39.4,1.553],[39.3083,1.6545],[39.2138,1.6974],[39.1311,1.8662],[38.9942,2.0096],[38.9626,2.0974],[38.3832,1.7613],[38.3397,1.5774],[37.9453,1.2629]]]},"properties":{"iso3":"KEN","shapeId":"32016919B62684442090944","regionId":"KEN.9_1","name":"Isiolo"}},{"type":"Feature","geometry":{"type":"Polygon","coordinates":[[[35.7919,1.6636],[35.7763,1.6435],[35.7932,1.6236],[35.7827,1.5598],[35.7186,1.4715],[35.687,1.3572],[35.7087,1.1494],[35.6333,0.9936],[35.6229,0.8688],[35.6427,0.8213],[35.6201,0.7393],[35.6354,0.7017],[35.6054,0.6742],[35.5959,0.6137],[35.6127,0.5923],[35.6022,0.535],[35.6308,0.503],[35.6595,0.3863],[35.7216,0.351],[35.7075,0.2592],[35.721,0.2133],[35.6913,0.1896],[35.6947,0.17],[35.5874,0.1695],[35.5727,0.0673],[35.5407,0.0899],[35.5228,0.0154],[35.5434,-0.0085],[35.5825,-0.0078],[35.6322,-0.0361],[35.6493,-0.0811],[35.6887,-0.076],[35.7289,-0.1602],[35.7247,-0.2124],[35.7546,-0.2263],[35.7801,-0.1948],[35.7892,-0.1116],[35.8058,-0.1001],[35.8205,-0.1195],[35.8755,-0.036],[35.9164,-0.0819],[35.9586,-0.032],[35.9765,0.0131],[35.9281,0.0698],[35.9389,0.0955],[35.9594,0.0877],[35.9637,0.0572],[35.9961,0.0599],[36.0053,0.0313],[36.0504,0.0046],[36.0926,-0.0137],[36.1112,0.0061],[36.1043,0.0614],[36.1264,0.0594],[36.1471,0.1857],[36.1967,0.1993],[36.1775,0.2284],[36.215,0.2522],[36.1838,0.3144],[36.294,0.5653],[36.2757,0.6317],[36.3446,0.6593],[36.4045,0.7172],[36.4887,0.8468],[36.3947,0.906],[36.3878,0.9482],[36.3501,0.9661],[36.3404,0.9931],[36.3169,0.9913],[36.174,1.1709],[36.0966,1.1694],[35.7919,1.6636]]]},"properties":{"iso3":"KEN","shapeId":"32016919B50719068904883","regionId":"KEN.1_1","name":"Baringo"}},{"type":"Feature","geometry":{"type":"Polygon","coordinates":[[[35.1521,1.1994],[35.2425,1.0745],[35.3594,1.0184],[35.3416,1.0059],[35.3434,0.9464],[35.4183,0.9375],[35.4138,0.9072],[35.4678,0.8997],[35.4551,0.8749],[35.487,0.8757],[35.5025,0.7027],[35.4085,0.7038],[35.4798,0.589],[35.4606,0.4499],[35.4815,0.39],[35.4681,0.3694],[35.496,0.3414],[35.4853,0.2509],[35.5051,0.2249],[35.5396,0.2258],[35.5117,0.1888],[35.5665,0.197],[35.5856,0.1695],[35.6947,0.17],[35.6913,0.1896],[35.721,0.2133],[35.7075,0.2592],[35.7216,0.351],[35.6595,0.3863],[35.6308,0.503],[35.6022,0.535],[35.6127,0.5923],[35.5959,0.6137],[35.6054,0.6742],[35.6354,0.7017],[35.6201,0.7393],[35.6427,0.8213],[35.6229,0.8688],[35.6333,0.9936],[35.7087,1.1494],[35.696,1.319],[35.608,1.2801],[35.5439,1.2851],[35.3245,1.1164],[35.1521,1.1994]]]},"properties":{"iso3":"KEN","shapeId":"32016919B59887050611600","regionId":"KEN.5_1","name":"Elgeyo/marakwet"}},{"type":"Feature","geometry":{"type":"Polygon","coordinates":[[[34.8223,1.2626],[34.7943,1.2196],[34.6712,1.208],[34.6384,1.172],[34.5808,1.1503],[34.6639,1.0838],[34.6535,1.0584],[34.7386,0.9373],[34.798,0.91],[34.7856,0.8886],[34.8083,0.8043],[35.0383,0.9005],[35.1011,0.8733],[35.1278,0.9186],[35.2219,0.9186],[35.2512,0.9399],[35.3051,0.8903],[35.3294,0.9316],[35.3489,0.9198],[35.3596,0.9444],[35.336,0.9672],[35.3594,1.0184],[35.2425,1.0745],[35.1521,1.1994],[35.0831,1.1692],[35.0417,1.1945],[35.0121,1.2542],[34.9061,1.2521],[34.9107,1.2842],[34.8223,1.2626]]]},"properties":{"iso3":"KEN","shapeId":"32016919B1149170155930","regionId":"KEN.42_1","name":"Trans-Nzoia"}},{"type":"Feature","geometry":{"type":"Polygon","coordinates":[[[34.5808,1.1503],[34.5775,1.1001],[34.5277,1.1216],[34.446,0.8644],[34.4138,0.8433],[34.4121,0.8116],[34.3605,0.7784],[34.4001,0.7565],[34.4241,0.7671],[34.4336,0.7408],[34.4315,0.7264],[34.4032,0.7289],[34.4171,0.6596],[34.3831,0.6439],[34.3699,0.6066],[34.3683,0.5618],[34.4083,0.5079],[34.3859,0.4954],[34.3887,0.4719],[34.4393,0.4632],[34.4827,0.4843],[34.5323,0.4428],[34.5513,0.4699],[34.5799,0.4538],[34.59,0.4195],[34.5921,0.445],[34.6665,0.4594],[34.764,0.5629],[34.8096,0.5856],[34.7986,0.5991],[34.8308,0.6239],[34.8442,0.6683],[34.9095,0.6859],[34.9286,0.7401],[34.9764,0.7554],[35.0274,0.744],[35.066,0.7819],[35.0233,0.8308],[35.0177,0.8875],[34.8083,0.8043],[34.7856,0.8886],[34.798,0.91],[34.7386,0.9373],[34.6535,1.0584],[34.6639,1.0838],[34.5808,1.1503]]]},"properties":{"iso3":"KEN","shapeId":"32016919B68325359473156","regionId":"KEN.3_1","name":"Bungoma"}},{"type":"Feature","geometry":{"type":"Polygon","coordinates":[[[39.4607,0.9947],[39.3116,0.924],[39.2357,0.8442],[39.1752,0.7209],[39.1409,0.6904],[39.0851,0.6751],[39.0535,0.6858],[39.0097,0.6244],[38.9398,0.6284],[38.9105,0.599],[38.8594,0.5992],[38.7663,0.511],[38.7244,0.5245],[38.705,0.5064],[38.6617,0.5091],[38.7556,0.1924],[38.7314,0.1214],[38.7391,0.0062],[38.7611,-0.0626],[38.8348,-0.0936],[38.9201,-0.0858],[38.9383,-0.0992],[38.972,-0.059],[39.0653,-0.0463],[39.1348,-0.1301],[39.2026,-0.1427],[39.2264,-0.13],[39.2573,-0.1465],[39.3133,-0.133],[39.3247,-0.1578],[39.3624,-0.1627],[39.3841,-0.1905],[39.4273,-0.1898],[39.4979,-0.2483],[39.5126,-0.2982],[39.5427,-0.2902],[39.5875,-0.3414],[39.6633,-0.5489],[39.6864,-0.5516],[39.6969,-0.5916],[39.7387,-0.5876],[39.7766,-0.6131],[39.7795,-0.6618],[39.7999,-0.671],[39.808,-0.7358],[39.8239,-0.7419],[39.8087,-0.7712],[39.8422,-0.8044],[39.8415,-0.8525],[39.8587,-0.8485],[39.8516,-0.8969],[39.8785,-0.9367],[39.8696,-0.9588],[39.8818,-0.951],[39.8936,-0.9736],[39.8858,-1.0006],[39.9324,-1.1291],[40.008,-1.2401],[40.0023,-1.3614],[40.0343,-1.4326],[40.0326,-1.4874],[40.0873,-1.4743],[40.154,-1.6078],[40.163,-1.8234],[40.1875,-1.8629],[40.186,-1.9598],[40.2079,-2.0329],[40.9029,-1.7145],[41.562,-1.6587],[41.5622,-1.5975],[40.9924,-0.8291],[40.9918,0.4644],[40.8626,0.3789],[40.7157,0.3201],[40.6477,0.2321],[40.5862,0.2154],[40.5332,0.2263],[40.5073,0.1928],[40.4739,0.1865],[40.3313,0.1994],[40.2334,0.2526],[40.0596,0.3926],[39.9791,0.4097],[39.905,0.4621],[39.7997,0.4828],[39.7329,0.5259],[39.5635,0.7572],[39.4925,0.9622],[39.4607,0.9947]]]},"properties":{"iso3":"KEN","shapeId":"32016919B57902629823981","regionId":"KEN.7_1","name":"Garissa"}},{"type":"Feature","geometry":{"type":"Polygon","coordinates":[[[35.5874,0.1695],[35.5665,0.197],[35.5117,0.1888],[35.5396,0.2258],[35.5051,0.2249],[35.4853,0.2509],[35.496,0.3414],[35.4681,0.3694],[35.4815,0.39],[35.4606,0.4499],[35.4798,0.589],[35.4085,0.7038],[35.5025,0.7027],[35.487,0.8757],[35.4551,0.8749],[35.4678,0.8997],[35.4138,0.9072],[35.4183,0.9375],[35.385,0.9436],[35.3596,0.9444],[35.3489,0.9198],[35.3294,0.9316],[35.3051,0.8903],[35.2512,0.9399],[35.2219,0.9186],[35.1278,0.9186],[35.1114,0.8546],[35.124,0.8195],[35.1454,0.8265],[35.154,0.6611],[35.0852,0.6295],[35.0372,0.6415],[35.027,0.6138],[34.9978,0.6359],[34.92,0.5914],[34.8889,0.6056],[34.8503,0.5457],[35.0444,0.5615],[35.0987,0.5391],[35.1054,0.5546],[35.1395,0.5347],[35.1652,0.5462],[35.1392,0.4717],[35.3032,0.2113],[35.34,0.1938],[35.3359,0.1431],[35.386,0.1019],[35.4013,0.108],[35.4348,0.0255],[35.4706,0.0199],[35.4591,0.0106],[35.5228,0.0154],[35.5407,0.0899],[35.5727,0.0673],[35.5874,0.1695]]]},"properties":{"iso3":"KEN","shapeId":"32016919B81086936948851","regionId":"KEN.44_1","name":"Uasin Gishu"}},{"type":"Feature","geometry":{"type":"Polygon","coordinates":[[[35.0177,0.8875],[35.0122,0.8596],[35.0625,0.7948],[35.0628,0.7631],[35.0236,0.7429],[34.9764,0.7554],[34.9286,0.7401],[34.9256,0.701],[34.8597,0.683],[34.7986,0.5991],[34.8096,0.5856],[34.764,0.5629],[34.6665,0.4594],[34.5921,0.445],[34.59,0.4195],[34.5775,0.4561],[34.5513,0.4699],[34.5323,0.4428],[34.4827,0.4843],[34.3623,0.4577],[34.3433,0.4255],[34.4234,0.3745],[34.3707,0.3066],[34.4014,0.2616],[34.3851,0.1806],[34.4448,0.2186],[34.4251,0.1523],[34.4819,0.1516],[34.4567,0.1307],[34.4801,0.1153],[34.4736,0.1026],[34.5416,0.1386],[34.5603,0.0939],[34.6202,0.1267],[34.6825,0.1215],[34.7383,0.1491],[34.7473,0.136],[34.8155,0.1618],[34.8109,0.184],[34.9251,0.1992],[34.9552,0.241],[34.9772,0.2404],[34.9353,0.3571],[34.954,0.3668],[34.956,0.415],[34.9063,0.5026],[34.8503,0.5457],[34.8889,0.6056],[34.92,0.5914],[34.9978,0.6359],[35.027,0.6138],[35.0372,0.6415],[35.0852,0.6295],[35.154,0.6611],[35.1454,0.8265],[35.124,0.8195],[35.112,0.8798],[35.0509,0.9007],[35.0177,0.8875]]]},"properties":{"iso3":"KEN","shapeId":"32016919B72187572718143","regionId":"KEN.11_1","name":"Kakamega"}},{"type":"Feature","geometry":{"type":"Polygon","coordinates":[[[36.4887,0.8468],[36.4045,0.7172],[36.3446,0.6593],[36.2757,0.6317],[36.294,0.5653],[36.1838,0.3144],[36.215,0.2522],[36.2019,0.2347],[36.2837,0.1275],[36.2551,0.0562],[36.2555,-0.022],[36.3456,0.031],[36.3488,0.0705],[36.3848,0.0317],[36.4239,0.046],[36.4007,0.0596],[36.4411,0.0915],[36.4625,0.1403],[36.5213,0.0487],[36.5738,0.0708],[36.5992,0.0034],[36.6346,0.0162],[36.6495,-0.0169],[36.5794,-0.0227],[36.5446,-0.0684],[36.5522,-0.0915],[36.6329,-0.1087],[36.6538,-0.1542],[36.7632,-0.1093],[36.8291,-0.1036],[36.829,-0.1357],[36.8596,-0.1435],[36.8691,-0.1778],[36.8376,-0.1977],[36.8547,-0.2543],[36.9854,-0.2962],[37.0168,-0.1808],[36.9836,-0.135],[36.977,-0.0708],[37.0244,-0.0491],[37.0769,0.0098],[37.1237,-0.0545],[37.1315,-0.0298],[37.0881,0.0226],[37.2534,0.0981],[37.3072,0.1797],[37.3486,0.1963],[37.3597,0.2537],[37.394,0.2894],[37.3919,0.3531],[37.3483,0.4395],[37.369,0.5116],[36.8644,0.5658],[36.8671,0.5969],[36.9237,0.6653],[36.9316,0.7434],[36.914,0.7286],[36.8658,0.7377],[36.8156,0.8559],[36.7934,0.8694],[36.7084,0.8144],[36.4824,0.8135],[36.4887,0.8468]]]},"properties":{"iso3":"KEN","shapeId":"32016919B40191501607276","regionId":"KEN.20_1","name":"Laikipia"}},{"type":"Feature","geometry":{"type":"Polygon","coordinates":[[[34.3605,0.7784],[34.313,0.7637],[34.3128,0.6973],[34.2783,0.6809],[34.2756,0.6423],[34.2003,0.6282],[34.1376,0.5858],[34.1208,0.4804],[34.0898,0.4563],[34.1003,0.3499],[34.0589,0.3247],[34.0423,0.2768],[33.9139,0.1114],[33.9505,-0.026],[34.0194,-0.027],[34.0421,-0.0001],[34.0718,0.1196],[34.1142,0.1452],[34.1161,0.242],[34.1588,0.3005],[34.2045,0.2601],[34.2076,0.2883],[34.2374,0.2897],[34.2499,0.3134],[34.3619,0.2978],[34.4234,0.3745],[34.3433,0.4255],[34.3623,0.4577],[34.3906,0.4627],[34.3859,0.4954],[34.4086,0.5046],[34.3683,0.5618],[34.3699,0.6066],[34.3831,0.6439],[34.4171,0.6596],[34.4032,0.7289],[34.4315,0.7264],[34.4336,0.7408],[34.4241,0.7671],[34.4001,0.7565],[34.3605,0.7784]]]},"properties":{"iso3":"KEN","shapeId":"32016919B17784979587790","regionId":"KEN.4_1","name":"Busia"}},{"type":"Feature","geometry":{"type":"Polygon","coordinates":[[[37.3858,0.2744],[37.3597,0.2537],[37.3486,0.1963],[37.3072,0.1797],[37.2534,0.0981],[37.0881,0.0226],[37.1354,-0.0413],[37.3078,-0.1511],[37.5908,-0.1833],[37.6617,-0.2165],[37.7227,-0.2033],[37.7686,-0.156],[37.7966,-0.162],[37.8572,-0.121],[37.8501,-0.0187],[37.8917,-0.0186],[37.9,0.0102],[37.936,0.0071],[37.964,0.0684],[38.0154,0.0614],[38.0592,0.0247],[38.1295,0.0529],[38.2236,0.0126],[38.2461,-0.0188],[38.2886,-0.0223],[38.3296,-0.0655],[38.3815,-0.0855],[38.4207,-0.0693],[38.4016,-0.0141],[38.3248,0.078],[38.2987,0.1601],[38.1965,0.2287],[38.1959,0.3225],[38.1765,0.3301],[38.0613,0.6674],[37.826,0.5618],[37.5865,0.4812],[37.5814,0.42],[37.6032,0.3607],[37.5808,0.3275],[37.5527,0.324],[37.5371,0.264],[37.4278,0.2978],[37.3995,0.2962],[37.3858,0.2744]]]},"properties":{"iso3":"KEN","shapeId":"32016919B42702125036935","regionId":"KEN.26_1","name":"Meru"}},{"type":"Feature","geometry":{"type":"Polygon","coordinates":[[[34.8503,0.5457],[34.9063,0.5026],[34.956,0.415],[34.954,0.3668],[34.9353,0.3571],[34.9772,0.2404],[34.9552,0.241],[34.915,0.1551],[34.8591,0.1208],[34.8375,0.0363],[34.8104,0.0369],[34.7624,-0.0036],[34.7399,0.0045],[34.7506,-0.0331],[34.8307,0.0239],[34.809,-0.0228],[34.9237,-0.0367],[34.9894,-0.0201],[35.05,-0.0356],[35.0656,-0.0688],[35.1003,-0.0037],[35.1518,-0.0392],[35.2061,-0.0292],[35.2208,-0.0371],[35.2265,-0.1066],[35.3079,-0.0867],[35.3716,-0.1103],[35.424,-0.0782],[35.4037,-0.0245],[35.4375,0.0188],[35.4038,0.1053],[35.3359,0.1431],[35.34,0.1938],[35.3032,0.2113],[35.1392,0.4717],[35.1652,0.5462],[35.1395,0.5347],[35.1054,0.5546],[35.0987,0.5391],[35.0444,0.5615],[34.8503,0.5457]]]},"properties":{"iso3":"KEN","shapeId":"32016919B10848562282373","regionId":"KEN.32_1","name":"Nandi"}},{"type":"Feature","geometry":{"type":"Polygon","coordinates":[[[34.3707,0.3066],[34.2499,0.3134],[34.2374,0.2897],[34.2076,0.2883],[34.2045,0.2601],[34.1588,0.3005],[34.1161,0.242],[34.1142,0.1452],[34.0718,0.1196],[34.0421,-0.0001],[34.0194,-0.027],[33.9505,-0.026],[33.9822,-0.1294],[33.9477,-0.3372],[34.2398,-0.3375],[34.2822,-0.4131],[34.3076,-0.4254],[34.4834,-0.2993],[34.4116,-0.0784],[34.5435,-0.0044],[34.5608,0.1069],[34.5416,0.1386],[34.4736,0.1026],[34.4801,0.1153],[34.4567,0.1307],[34.4819,0.1516],[34.4251,0.1523],[34.4448,0.2186],[34.3851,0.1806],[34.4014,0.2616],[34.3707,0.3066]]]},"properties":{"iso3":"KEN","shapeId":"32016919B12007380424127","regionId":"KEN.38_1","name":"Siaya"}},{"type":"Feature","geometry":{"type":"Polygon","coordinates":[[[35.6402,-0.061],[35.5969,-0.1294],[35.6098,-0.159],[35.6695,-0.1632],[35.6302,-0.2878],[35.6037,-0.2936],[35.5913,-0.2775],[35.5801,-0.308],[35.5715,-0.2822],[35.5281,-0.2596],[35.4125,-0.3024],[35.5867,-0.5881],[35.6008,-0.6716],[35.6451,-0.7026],[35.6803,-0.6522],[35.7087,-0.5539],[35.7375,-0.531],[35.7712,-0.5369],[35.7992,-0.456],[35.8137,-0.4766],[35.8352,-0.4666],[35.8303,-0.4945],[35.903,-0.5474],[35.9435,-0.5552],[35.9814,-0.6303],[35.9493,-0.6657],[35.9148,-0.6352],[35.8756,-0.6371],[35.9288,-0.7056],[35.9459,-0.7143],[36.0111,-0.6635],[36.0286,-0.6789],[36.0975,-0.6396],[36.1003,-0.6759],[36.1917,-0.7661],[36.1871,-0.8047],[36.1571,-0.837],[36.1846,-0.9155],[36.2035,-0.9335],[36.2625,-0.9132],[36.3339,-1.0494],[36.5337,-1.1559],[36.5883,-1.0634],[36.5954,-0.9917],[36.578,-0.9293],[36.5429,-0.9082],[36.5581,-0.8378],[36.517,-0.7113],[36.5397,-0.6965],[36.5172,-0.6239],[36.5099,-0.6096],[36.4648,-0.6307],[36.4464,-0.5712],[36.4002,-0.5727],[36.387,-0.442],[36.3588,-0.3797],[36.3102,-0.3907],[36.3074,-0.3719],[36.2732,-0.3949],[36.2613,-0.3441],[36.2225,-0.3566],[36.2086,-0.2743],[36.244,-0.2578],[36.21,-0.2053],[36.1984,-0.1401],[36.2197,-0.109],[36.2445,-0.1212],[36.2551,0.0562],[36.2869,0.1115],[36.2357,0.2091],[36.2019,0.2347],[36.1775,0.2284],[36.1967,0.1993],[36.1471,0.1857],[36.1264,0.0594],[36.1043,0.0614],[36.1112,0.0061],[36.0926,-0.0137],[36.0053,0.0313],[35.9961,0.0599],[35.9637,0.0572],[35.9594,0.0877],[35.9389,0.0955],[35.9281,0.0698],[35.9742,0.0207],[35.9677,-0.0159],[35.9264,-0.0775],[35.8755,-0.036],[35.8205,-0.1195],[35.8058,-0.1001],[35.7892,-0.1116],[35.7632,-0.2249],[35.7247,-0.2124],[35.7289,-0.1602],[35.6887,-0.076],[35.6493,-0.0811],[35.6402,-0.061]]]},"properties":{"iso3":"KEN","shapeId":"32016919B58088177642376","regionId":"KEN.31_1","name":"Nakuru"}},{"type":"Feature","geometry":{"type":"Polygon","coordinates":[[[34.5603,0.0939],[34.5341,-0.0154],[34.5628,-0.0158],[34.5649,-0.0401],[34.6038,0.0124],[34.6906,-0.0106],[34.6867,-0.0265],[34.7276,-0.0065],[34.7471,-0.0247],[34.7425,0.0072],[34.7624,-0.0036],[34.8104,0.0369],[34.8375,0.0363],[34.8591,0.1208],[34.915,0.1551],[34.9251,0.1992],[34.8597,0.199],[34.7473,0.136],[34.7383,0.1491],[34.6825,0.1215],[34.6202,0.1267],[34.5603,0.0939]]]},"properties":{"iso3":"KEN","shapeId":"32016919B20488296424250","regionId":"KEN.45_1","name":"Vihiga"}},{"type":"Feature","geometry":{"type":"Polygon","coordinates":[[[36.2555,-0.022],[36.2445,-0.1212],[36.2197,-0.109],[36.1984,-0.1401],[36.21,-0.2053],[36.244,-0.2578],[36.2086,-0.2743],[36.2225,-0.3566],[36.2613,-0.3441],[36.2732,-0.3949],[36.3074,-0.3719],[36.3102,-0.3907],[36.3588,-0.3797],[36.387,-0.442],[36.4002,-0.5727],[36.4464,-0.5712],[36.4648,-0.6307],[36.5099,-0.6096],[36.5397,-0.6965],[36.517,-0.7113],[36.5581,-0.8378],[36.5528,-0.92],[36.598,-0.8618],[36.586,-0.8265],[36.6186,-0.8298],[36.6083,-0.8056],[36.6503,-0.7646],[36.6856,-0.7648],[36.72,-0.8064],[36.7177,-0.7801],[36.7326,-0.7794],[36.7036,-0.6993],[36.7041,-0.6287],[36.6546,-0.5167],[36.6624,-0.4653],[36.6225,-0.4038],[36.6304,-0.3895],[36.6012,-0.373],[36.6125,-0.3115],[36.6859,-0.1745],[36.6538,-0.1542],[36.6329,-0.1087],[36.5687,-0.1037],[36.5446,-0.0684],[36.5818,-0.0211],[36.6495,-0.0169],[36.6346,0.0162],[36.5992,0.0034],[36.5738,0.0708],[36.5213,0.0487],[36.4625,0.1403],[36.4411,0.0915],[36.4007,0.0596],[36.4239,0.046],[36.3848,0.0317],[36.3488,0.0705],[36.3456,0.031],[36.2555,-0.022]]]},"properties":{"iso3":"KEN","shapeId":"32016919B99956097556155","regionId":"KEN.35_1","name":"Nyandarua"}},{"type":"Feature","geometry":{"type":"Polygon","coordinates":[[[37.3078,-0.1511],[37.5538,-0.3599],[37.7203,-0.4498],[37.7688,-0.4483],[37.8457,-0.4031],[37.8866,-0.3421],[37.8898,-0.3915],[37.9238,-0.4259],[37.9518,-0.4254],[37.998,-0.2659],[38.1137,-0.2752],[38.1625,-0.2349],[38.1858,-0.1523],[38.2212,-0.1025],[38.2876,-0.0843],[38.3091,-0.0515],[38.2886,-0.0223],[38.2461,-0.0188],[38.2236,0.0126],[38.1295,0.0529],[38.0592,0.0247],[38.0154,0.0614],[37.964,0.0684],[37.936,0.0071],[37.9,0.0102],[37.8917,-0.0186],[37.8501,-0.0187],[37.8572,-0.121],[37.7966,-0.162],[37.7686,-0.156],[37.7227,-0.2033],[37.6617,-0.2165],[37.5908,-0.1833],[37.3078,-0.1511]]]},"properties":{"iso3":"KEN","shapeId":"32016919B40030396675644","regionId":null,"name":"Tharaka"}},{"type":"Feature","geometry":{"type":"Polygon","coordinates":[[[35.5228,0.0154],[35.4591,0.0106],[35.4652,0.0273],[35.4348,0.0255],[35.4037,-0.0245],[35.424,-0.0782],[35.3716,-0.1103],[35.3079,-0.0867],[35.2265,-0.1066],[35.2774,-0.1448],[35.2803,-0.166],[35.3303,-0.1763],[35.3403,-0.2398],[35.2616,-0.2335],[35.1863,-0.1601],[35.1283,-0.1561],[35.1039,-0.2017],[35.0635,-0.2157],[35.0525,-0.2944],[35.0082,-0.3387],[35.0123,-0.3914],[35.0448,-0.4468],[35.0328,-0.4972],[35.1414,-0.4565],[35.1841,-0.4854],[35.2181,-0.4794],[35.2086,-0.4661],[35.232,-0.4223],[35.409,-0.4052],[35.4511,-0.3654],[35.4125,-0.3024],[35.4693,-0.2777],[35.5281,-0.2596],[35.5715,-0.2822],[35.5801,-0.308],[35.5913,-0.2775],[35.6037,-0.2936],[35.6302,-0.2878],[35.6725,-0.1889],[35.6695,-0.1632],[35.5997,-0.1471],[35.6384,-0.0503],[35.5228,0.0154]]]},"properties":{"iso3":"KEN","shapeId":"32016919B28150779100642","regionId":"KEN.12_1","name":"Kericho"}},{"type":"Feature","geometry":{"type":"Polygon","coordinates":[[[34.7471,-0.0247],[34.7276,-0.0065],[34.6867,-0.0265],[34.6906,-0.0106],[34.6038,0.0124],[34.5758,-0.0359],[34.5628,-0.0158],[34.5341,-0.0154],[34.4116,-0.0784],[34.4834,-0.2993],[34.5324,-0.2717],[34.7064,-0.2581],[34.7855,-0.322],[34.824,-0.3878],[34.8877,-0.4014],[34.915,-0.3851],[34.9141,-0.4031],[34.959,-0.416],[35.0123,-0.3914],[35.0082,-0.3387],[35.0525,-0.2944],[35.0635,-0.2157],[35.1039,-0.2017],[35.1283,-0.1561],[35.2038,-0.1659],[35.2704,-0.2378],[35.3422,-0.2365],[35.3303,-0.1763],[35.2803,-0.166],[35.2774,-0.1448],[35.2265,-0.1066],[35.2208,-0.0371],[35.2061,-0.0292],[35.1518,-0.0392],[35.1003,-0.0037],[35.0656,-0.0688],[35.05,-0.0356],[34.9894,-0.0201],[34.9237,-0.0367],[34.809,-0.0228],[34.8307,0.0239],[34.781,-0.0214],[34.7471,-0.0247]]]},"properties":{"iso3":"KEN","shapeId":"32016919B35081513576883","regionId":"KEN.17_1","name":"Kisumu"}},{"type":"Feature","geometry":{"type":"Polygon","coordinates":[[[36.6575,-0.1531],[36.6859,-0.1745],[36.6125,-0.3115],[36.6012,-0.373],[36.6304,-0.3895],[36.6225,-0.4038],[36.6624,-0.4653],[36.6546,-0.5167],[36.6968,-0.6224],[36.7211,-0.5717],[36.7779,-0.5664],[36.8601,-0.6081],[36.9213,-0.6093],[36.9868,-0.5761],[37.0484,-0.5948],[37.1093,-0.6412],[37.1766,-0.6331],[37.1766,-0.5999],[37.1441,-0.5703],[37.1464,-0.5343],[37.1768,-0.4829],[37.1748,-0.4425],[37.1997,-0.439],[37.3078,-0.1511],[37.1305,-0.0369],[37.1237,-0.0545],[37.0769,0.0098],[37.0244,-0.0491],[36.977,-0.0708],[36.9836,-0.135],[37.0168,-0.1808],[36.9854,-0.2962],[36.8547,-0.2543],[36.8376,-0.1977],[36.8691,-0.1778],[36.8596,-0.1435],[36.829,-0.1357],[36.8291,-0.1036],[36.7632,-0.1093],[36.6575,-0.1531]]]},"properties":{"iso3":"KEN","shapeId":"32016919B26862024603939","regionId":"KEN.36_1","name":"Nyeri"}},{"type":"Feature","geometry":{"type":"Polygon","coordinates":[[[38.4342,-0.0748],[38.8298,-0.7602],[38.9534,-1.0318],[38.9997,-1.6769],[38.9585,-1.7028],[39.0151,-1.914],[38.7952,-2.3397],[38.6848,-2.4132],[38.6265,-2.4105],[39.0792,-3.0504],[39.1273,-3.0192],[39.1631,-3.0657],[39.2174,-3.0729],[39.8897,-2.3101],[40.179,-2.7184],[40.1821,-2.6812],[40.2019,-2.6791],[40.1961,-2.7326],[40.2905,-2.6131],[40.3404,-2.5843],[40.2666,-2.6426],[40.4003,-2.5605],[40.5165,-2.5273],[40.4443,-2.5319],[40.4737,-2.5093],[40.4659,-2.4985],[40.5094,-2.4968],[40.5109,-2.5195],[40.6063,-2.5575],[40.7306,-2.456],[40.6637,-2.4679],[40.4407,-2.3975],[40.2495,-2.3981],[40.2495,-2.2488],[40.186,-1.9598],[40.1875,-1.8629],[40.163,-1.8234],[40.154,-1.6078],[40.0873,-1.4743],[40.0326,-1.4874],[40.0343,-1.4326],[40.0023,-1.3614],[40.008,-1.2401],[39.9324,-1.1291],[39.8858,-1.0006],[39.8936,-0.9736],[39.8818,-0.951],[39.8696,-0.9588],[39.8785,-0.9367],[39.8516,-0.8969],[39.8587,-0.8485],[39.8415,-0.8525],[39.8422,-0.8044],[39.8087,-0.7712],[39.8239,-0.7419],[39.808,-0.7358],[39.7999,-0.671],[39.7795,-0.6618],[39.7766,-0.6131],[39.7387,-0.5876],[39.6969,-0.5916],[39.6864,-0.5516],[39.6633,-0.5489],[39.6686,-0.5316],[39.6306,-0.4899],[39.6353,-0.4573],[39.6109,-0.4398],[39.5968,-0.3587],[39.5427,-0.2902],[39.5126,-0.2982],[39.4979,-0.2483],[39.4673,-0.2211],[39.4273,-0.1898],[39.4002,-0.1954],[39.3624,-0.1627],[39.3391,-0.1671],[39.3133,-0.133],[39.2573,-0.1465],[39.2264,-0.13],[39.2026,-0.1427],[39.1348,-0.1301],[39.0653,-0.0463],[38.972,-0.059],[38.9383,-0.0992],[38.9201,-0.0858],[38.8348,-0.0936],[38.6905,-0.0397],[38.6397,-0.0521],[38.5549,-0.0155],[38.5207,-0.0624],[38.49,-0.0588],[38.4587,-0.0848],[38.4342,-0.0748]]]},"properties":{"iso3":"KEN","shapeId":"32016919B56782604912852","regionId":"KEN.40_1","name":"Tana River"}},{"type":"Feature","geometry":{"type":"Polygon","coordinates":[[[38.4207,-0.0693],[38.3815,-0.0855],[38.3091,-0.0515],[38.2876,-0.0843],[38.2212,-0.1025],[38.1858,-0.1523],[38.1625,-0.2349],[38.1137,-0.2752],[37.998,-0.2659],[37.9649,-0.4112],[37.9346,-0.429],[37.882,-0.5347],[37.8828,-0.5817],[37.9219,-0.6232],[37.893,-0.6447],[37.9154,-0.7284],[37.8833,-0.8025],[37.8455,-0.8098],[37.8207,-0.8813],[37.8522,-0.936],[37.8452,-0.9638],[37.8682,-0.9747],[37.8466,-0.9937],[37.8449,-1.0469],[37.7965,-1.1271],[37.7382,-1.0775],[37.594,-1.0859],[37.5969,-1.1472],[37.6336,-1.1618],[37.7445,-1.3563],[37.7652,-1.3545],[37.8036,-1.3945],[37.8191,-1.4473],[37.7732,-1.486],[37.6946,-1.4986],[37.8368,-1.6907],[37.8549,-1.7544],[37.8377,-1.7792],[37.8906,-1.838],[37.917,-1.9034],[37.9077,-1.9332],[37.9531,-2.0472],[37.9628,-2.1653],[38.0195,-2.1461],[38.0476,-2.1676],[38.0737,-2.2594],[38.1105,-2.2846],[38.1161,-2.312],[38.2108,-2.3542],[38.2222,-2.3988],[38.2735,-2.4232],[38.4314,-2.7872],[38.4178,-2.8117],[38.4274,-2.8499],[38.4757,-2.9364],[38.5191,-2.9748],[38.6429,-3.0122],[38.6654,-3.0395],[38.7745,-3.044],[38.8093,-3.0531],[38.8056,-3.0685],[39.0245,-3.0205],[39.0751,-3.0411],[38.6265,-2.4105],[38.6848,-2.4132],[38.7952,-2.3397],[39.0151,-1.914],[38.9585,-1.7028],[38.9997,-1.6769],[38.9534,-1.0318],[38.8298,-0.7602],[38.4207,-0.0693]]]},"properties":{"iso3":"KEN","shapeId":"32016919B87039477224343","regionId":"KEN.18_1","name":"Kitui"}},{"type":"Feature","geometry":{"type":"Polygon","coordinates":[[[37.1691,-0.6356],[37.1792,-0.6672],[37.1994,-0.6635],[37.2124,-0.6886],[37.2371,-0.6675],[37.2673,-0.7853],[37.2752,-0.7556],[37.3172,-0.7494],[37.3589,-0.7689],[37.4389,-0.7336],[37.4959,-0.7318],[37.4739,-0.686],[37.4832,-0.5823],[37.4261,-0.5105],[37.4234,-0.4084],[37.3078,-0.1511],[37.1997,-0.439],[37.1748,-0.4425],[37.1768,-0.4829],[37.1464,-0.5343],[37.1441,-0.5703],[37.1786,-0.605],[37.1691,-0.6356]]]},"properties":{"iso3":"KEN","shapeId":"32016919B58720683486854","regionId":"KEN.15_1","name":"Kirinyaga"}},{"type":"Feature","geometry":{"type":"Polygon","coordinates":[[[37.3078,-0.1511],[37.4234,-0.4084],[37.4261,-0.5105],[37.4832,-0.5823],[37.4739,-0.686],[37.4959,-0.7318],[37.4389,-0.7336],[37.3589,-0.7689],[37.3172,-0.7494],[37.2752,-0.7556],[37.2673,-0.7853],[37.3045,-0.8001],[37.3288,-0.8444],[37.4121,-0.8503],[37.5212,-0.9146],[37.5466,-0.881],[37.5884,-0.8762],[37.6302,-0.837],[37.6655,-0.8441],[37.6823,-0.7944],[37.7077,-0.7799],[37.7416,-0.7761],[37.7581,-0.8219],[37.8055,-0.7998],[37.808,-0.8137],[37.8833,-0.8025],[37.9154,-0.7284],[37.893,-0.6447],[37.9219,-0.6232],[37.8828,-0.5817],[37.882,-0.5347],[37.9365,-0.4273],[37.8898,-0.3915],[37.8907,-0.3449],[37.802,-0.4361],[37.7203,-0.4498],[37.5538,-0.3599],[37.3078,-0.1511]]]},"properties":{"iso3":"KEN","shapeId":"32016919B43560273720920","regionId":"KEN.6_1","name":"Embu"}},{"type":"Feature","geometry":{"type":"Polygon","coordinates":[[[33.9477,-0.3372],[33.92,-0.5618],[33.9282,-0.8024],[34.081,-0.8024],[34.0969,-0.7823],[34.202,-0.7504],[34.3193,-0.8651],[34.3818,-0.8461],[34.3908,-0.8147],[34.4637,-0.8617],[34.4967,-0.8104],[34.4853,-0.7845],[34.5336,-0.7477],[34.5609,-0.666],[34.6046,-0.6517],[34.6377,-0.6651],[34.6622,-0.6043],[34.7043,-0.5745],[34.9388,-0.4655],[35.0214,-0.4052],[35.0102,-0.3912],[34.9494,-0.4157],[34.9141,-0.4031],[34.915,-0.3851],[34.8877,-0.4014],[34.824,-0.3878],[34.7855,-0.322],[34.7064,-0.2581],[34.5324,-0.2717],[34.3076,-0.4254],[34.2822,-0.4131],[34.2398,-0.3375],[33.9477,-0.3372]]]},"properties":{"iso3":"KEN","shapeId":"32016919B3301153840115","regionId":"KEN.8_1","name":"Homa Bay"}},{"type":"Feature","geometry":{"type":"Polygon","coordinates":[[[35.4511,-0.3654],[35.409,-0.4052],[35.232,-0.4223],[35.2086,-0.4661],[35.2181,-0.4794],[35.1841,-0.4854],[35.1414,-0.4565],[35.0523,-0.4963],[35.0547,-0.6562],[35.0715,-0.6922],[35.0476,-0.7063],[35.0911,-0.8005],[35.0443,-0.8526],[35.0212,-0.8468],[35.013,-0.8895],[35.0822,-0.9055],[35.2402,-1.0332],[35.4194,-0.9469],[35.4296,-0.8957],[35.5298,-0.8049],[35.4256,-0.7212],[35.3961,-0.6449],[35.5867,-0.5881],[35.4511,-0.3654]]]},"properties":{"iso3":"KEN","shapeId":"32016919B53683499362611","regionId":"KEN.2_1","name":"Bomet"}},{"type":"Feature","geometry":{"type":"Polygon","coordinates":[[[35.0196,-0.4124],[34.8621,-0.5013],[34.8828,-0.5239],[34.8723,-0.5744],[34.8867,-0.6152],[34.8459,-0.5954],[34.8159,-0.6317],[34.8123,-0.6696],[34.7862,-0.6737],[34.9439,-0.7731],[35.013,-0.8895],[35.0212,-0.8468],[35.0443,-0.8526],[35.0911,-0.8005],[35.0476,-0.7063],[35.0715,-0.6922],[35.0471,-0.5707],[35.056,-0.5075],[35.0328,-0.4972],[35.0448,-0.4468],[35.0196,-0.4124]]]},"properties":{"iso3":"KEN","shapeId":"32016919B45734544235065","regionId":"KEN.34_1","name":"Nyamira"}},{"type":"Feature","geometry":{"type":"Polygon","coordinates":[[[35.5867,-0.5881],[35.3961,-0.6449],[35.4256,-0.7212],[35.5298,-0.8049],[35.4296,-0.8957],[35.4194,-0.9469],[35.3317,-0.9763],[35.2487,-1.0336],[35.0822,-0.9055],[35.013,-0.8895],[34.642,-0.9683],[34.5903,-1.0177],[34.5947,-1.0455],[34.6169,-1.0725],[34.6322,-1.1593],[34.6886,-1.2106],[34.7306,-1.389],[36.0002,-2.1044],[36.0002,-2.0831],[36.0282,-2.083],[36.044,-1.9091],[36.0269,-1.8903],[36.0502,-1.8574],[36.0164,-1.804],[36.0497,-1.7296],[36.0381,-1.7102],[36.0646,-1.6988],[36.0473,-1.6495],[36.0853,-1.5742],[36.052,-1.4909],[36.3462,-1.1757],[36.3339,-1.0494],[36.2625,-0.9132],[36.2035,-0.9335],[36.1846,-0.9155],[36.1571,-0.837],[36.1871,-0.8047],[36.1917,-0.7661],[36.1003,-0.6759],[36.0975,-0.6396],[36.0286,-0.6789],[36.0111,-0.6635],[35.9459,-0.7143],[35.8761,-0.6505],[35.8756,-0.6371],[35.9148,-0.6352],[35.9493,-0.6657],[35.9814,-0.6303],[35.9435,-0.5552],[35.903,-0.5474],[35.8303,-0.4945],[35.8352,-0.4666],[35.8137,-0.4766],[35.7992,-0.456],[35.7712,-0.5369],[35.7375,-0.531],[35.7087,-0.5539],[35.6803,-0.6522],[35.6451,-0.7026],[35.6008,-0.6716],[35.5867,-0.5881]]]},"properties":{"iso3":"KEN","shapeId":"32016919B83281423333591","regionId":"KEN.33_1","name":"Narok"}},{"type":"Feature","geometry":{"type":"Polygon","coordinates":[[[34.6377,-0.6651],[34.6185,-0.9008],[34.6327,-0.9655],[34.6759,-0.9732],[35.013,-0.8895],[34.9439,-0.7731],[34.7862,-0.6737],[34.8123,-0.6696],[34.8159,-0.6317],[34.8459,-0.5954],[34.8867,-0.6152],[34.8723,-0.5744],[34.8828,-0.5239],[34.8621,-0.5013],[34.6622,-0.6043],[34.6377,-0.6651]]]},"properties":{"iso3":"KEN","shapeId":"32016919B92888924192138","regionId":"KEN.16_1","name":"Kisii"}},{"type":"Feature","geometry":{"type":"Polygon","coordinates":[[[36.72,-0.8064],[36.8855,-0.8959],[37.0363,-1.0308],[37.1537,-1.0539],[37.2643,-1.017],[37.3628,-1.0947],[37.42,-1.0351],[37.3386,-0.9847],[37.3662,-0.9624],[37.354,-0.9458],[37.3366,-0.9649],[37.3133,-0.9402],[37.3176,-0.9179],[37.2249,-0.8515],[37.2572,-0.8381],[37.2554,-0.7549],[37.2697,-0.7537],[37.2371,-0.6675],[37.2124,-0.6886],[37.1994,-0.6635],[37.1792,-0.6672],[37.1691,-0.6356],[37.1093,-0.6412],[37.0484,-0.5948],[36.9868,-0.5761],[36.8837,-0.6113],[36.8038,-0.5704],[36.7211,-0.5717],[36.7017,-0.6492],[36.7326,-0.7794],[36.7177,-0.7801],[36.72,-0.8064]]]},"properties":{"iso3":"KEN","shapeId":"32016919B92229445677015","regionId":"KEN.29_1","name":"Murang'a"}},{"type":"Feature","geometry":{"type":"Polygon","coordinates":[[[33.9282,-0.8024],[33.9351,-1.0011],[34.0169,-1.0024],[34.0388,-1.0456],[34.084,-1.0251],[34.7306,-1.389],[34.6886,-1.2106],[34.6322,-1.1593],[34.5903,-1.0177],[34.642,-0.9683],[34.6185,-0.9008],[34.6377,-0.6651],[34.6046,-0.6517],[34.5566,-0.6698],[34.5336,-0.7477],[34.4853,-0.7845],[34.4967,-0.8104],[34.4637,-0.8617],[34.3908,-0.8147],[34.3818,-0.8461],[34.3193,-0.8651],[34.202,-0.7504],[34.0969,-0.7823],[34.081,-0.8024],[33.9282,-0.8024]]]},"properties":{"iso3":"KEN","shapeId":"32016919B50702580177250","regionId":"KEN.27_1","name":"Migori"}},{"type":"Feature","geometry":{"type":"Polygon","coordinates":[[[36.5337,-1.1559],[36.4882,-1.2718],[36.6639,-1.3152],[36.6902,-1.2589],[36.7175,-1.2615],[36.7262,-1.2324],[36.7532,-1.2209],[36.7738,-1.2298],[36.788,-1.1911],[36.8455,-1.2115],[36.8592,-1.1893],[36.8965,-1.1925],[36.896,-1.1605],[36.9392,-1.174],[36.9092,-1.2064],[36.9208,-1.2178],[37.0046,-1.2367],[37.0604,-1.2058],[37.1083,-1.2607],[37.1548,-1.2218],[37.1821,-1.1668],[37.1752,-1.1161],[37.2109,-1.08],[37.281,-1.0661],[37.3429,-1.1176],[37.3628,-1.0947],[37.2643,-1.017],[37.1537,-1.0539],[37.0363,-1.0308],[36.8855,-0.8959],[36.7477,-0.8315],[36.6716,-0.7585],[36.6083,-0.8056],[36.6186,-0.8298],[36.586,-0.8265],[36.598,-0.8618],[36.5528,-0.92],[36.578,-0.9293],[36.5954,-0.9917],[36.5883,-1.0634],[36.5337,-1.1559]]]},"properties":{"iso3":"KEN","shapeId":"32016919B11020559484650","regionId":"KEN.13_1","name":"Kiambu"}},{"type":"Feature","geometry":{"type":"Polygon","coordinates":[[[37.8455,-0.8098],[37.808,-0.8137],[37.8055,-0.7998],[37.7581,-0.8219],[37.7416,-0.7761],[37.7077,-0.7799],[37.6823,-0.7944],[37.6655,-0.8441],[37.6302,-0.837],[37.5884,-0.8762],[37.5466,-0.881],[37.5212,-0.9146],[37.4121,-0.8503],[37.3288,-0.8444],[37.2857,-0.7829],[37.2619,-0.7928],[37.2572,-0.8381],[37.2249,-0.8515],[37.3176,-0.9179],[37.3133,-0.9402],[37.3366,-0.9649],[37.354,-0.9458],[37.3662,-0.9624],[37.3386,-0.9847],[37.42,-1.0351],[37.3429,-1.1176],[37.281,-1.0661],[37.2109,-1.08],[37.1752,-1.1161],[37.1821,-1.1668],[37.1548,-1.2218],[37.1205,-1.2353],[37.0763,-1.3031],[36.9728,-1.2894],[36.9791,-1.3167],[36.9047,-1.3656],[36.9611,-1.4393],[36.8877,-1.4156],[36.876,-1.4794],[36.9414,-1.4548],[36.9759,-1.478],[36.9589,-1.5432],[37.1109,-1.734],[37.1479,-1.738],[37.1535,-1.7791],[37.2205,-1.7696],[37.2444,-1.7357],[37.2795,-1.7705],[37.3019,-1.7532],[37.2868,-1.7183],[37.3116,-1.7002],[37.3734,-1.7052],[37.4135,-1.6885],[37.3349,-1.5617],[37.3798,-1.5202],[37.4355,-1.5327],[37.4872,-1.517],[37.5526,-1.5391],[37.5723,-1.5649],[37.5969,-1.551],[37.6405,-1.5864],[37.6594,-1.6452],[37.6812,-1.6253],[37.6822,-1.5859],[37.7006,-1.5829],[37.7189,-1.6084],[37.7339,-1.5951],[37.7498,-1.5553],[37.6946,-1.4986],[37.7732,-1.486],[37.8191,-1.4473],[37.8036,-1.3945],[37.7316,-1.3401],[37.6244,-1.1492],[37.5969,-1.1472],[37.594,-1.0859],[37.7382,-1.0775],[37.7965,-1.1271],[37.8682,-0.9747],[37.8452,-0.9638],[37.8507,-0.9311],[37.8186,-0.8969],[37.8455,-0.8098]]]},"properties":{"iso3":"KEN","shapeId":"32016919B39119671019936","regionId":"KEN.22_1","name":"Machakos"}},{"type":"Feature","geometry":{"type":"Polygon","coordinates":[[[36.3339,-1.0494],[36.3462,-1.1757],[36.052,-1.4909],[36.0853,-1.5742],[36.0473,-1.6495],[36.0646,-1.6988],[36.0381,-1.7102],[36.0497,-1.7296],[36.0164,-1.804],[36.0502,-1.8574],[36.0269,-1.8903],[36.044,-1.9091],[36.0282,-2.083],[36.0002,-2.0831],[36.0002,-2.1044],[37.5203,-2.9561],[37.6714,-3.0587],[37.6906,-3.1789],[37.8043,-3.1658],[37.8478,-3.1824],[37.8951,-2.8859],[37.9183,-2.8685],[37.9394,-2.777],[37.9215,-2.7043],[37.9009,-2.7024],[37.8495,-2.6039],[37.5973,-2.3109],[37.6689,-2.2873],[37.6742,-2.2282],[37.7232,-2.1872],[37.6643,-2.1542],[37.594,-2.1528],[37.3605,-2.0128],[37.2804,-1.9948],[37.2359,-1.9368],[37.1862,-1.9345],[37.1419,-1.8392],[37.1601,-1.7802],[37.1479,-1.738],[37.1109,-1.734],[36.9589,-1.5432],[36.9759,-1.478],[36.9353,-1.4554],[36.8826,-1.489],[36.8913,-1.4109],[36.8175,-1.381],[36.7317,-1.3784],[36.6576,-1.3048],[36.4882,-1.2718],[36.5337,-1.1559],[36.3339,-1.0494]]]},"properties":{"iso3":"KEN","shapeId":"32016919B31527762068828","regionId":"KEN.10_1","name":"Kajiado"}},{"type":"Feature","geometry":{"type":"Polygon","coordinates":[[[36.6639,-1.3152],[36.7317,-1.3784],[36.8418,-1.386],[36.9589,-1.4441],[36.9047,-1.3656],[36.9791,-1.3167],[36.9728,-1.2894],[37.0763,-1.3031],[37.1045,-1.2666],[37.0604,-1.2058],[37.0046,-1.2367],[36.9208,-1.2178],[36.9092,-1.2064],[36.9392,-1.174],[36.896,-1.1605],[36.8965,-1.1925],[36.8592,-1.1893],[36.8455,-1.2115],[36.788,-1.1911],[36.7738,-1.2298],[36.7532,-1.2209],[36.7262,-1.2324],[36.7175,-1.2615],[36.6902,-1.2589],[36.6639,-1.3152]]]},"properties":{"iso3":"KEN","shapeId":"32016919B57908315498598","regionId":"KEN.30_1","name":"Nairobi"}},{"type":"Feature","geometry":{"type":"Polygon","coordinates":[[[37.7533,-1.5664],[37.7189,-1.6084],[37.7006,-1.5829],[37.6822,-1.5859],[37.6812,-1.6253],[37.6594,-1.6452],[37.6405,-1.5864],[37.5969,-1.551],[37.5723,-1.5649],[37.5526,-1.5391],[37.4872,-1.517],[37.4355,-1.5327],[37.3798,-1.5202],[37.3349,-1.5617],[37.4135,-1.6885],[37.3734,-1.7052],[37.3116,-1.7002],[37.2868,-1.7183],[37.3019,-1.7532],[37.2795,-1.7705],[37.2444,-1.7357],[37.2205,-1.7696],[37.1601,-1.7802],[37.1413,-1.8128],[37.1625,-1.8625],[37.1521,-1.8881],[37.1862,-1.9345],[37.2359,-1.9368],[37.2643,-1.9586],[37.2993,-2.0058],[37.3605,-2.0128],[37.594,-2.1528],[37.6643,-2.1542],[37.7232,-2.1872],[37.6742,-2.2282],[37.6689,-2.2873],[37.5973,-2.3109],[37.8495,-2.6039],[37.9009,-2.7024],[37.9215,-2.7043],[37.9441,-2.7808],[37.9737,-2.7886],[38.1615,-2.6799],[38.2706,-2.77],[38.3512,-2.8869],[38.4575,-2.9903],[38.5132,-2.9832],[38.4274,-2.8499],[38.4178,-2.8117],[38.4314,-2.7872],[38.2735,-2.4232],[38.2222,-2.3988],[38.2108,-2.3542],[38.1161,-2.312],[38.1105,-2.2846],[38.0737,-2.2594],[38.0476,-2.1676],[38.0195,-2.1461],[37.9628,-2.1653],[37.9531,-2.0472],[37.9077,-1.9332],[37.917,-1.9034],[37.8906,-1.838],[37.8377,-1.7792],[37.8549,-1.7544],[37.8368,-1.6907],[37.7533,-1.5664]]]},"properties":{"iso3":"KEN","shapeId":"32016919B42227953152284","regionId":"KEN.23_1","name":"Makueni"}},{"type":"Feature","geometry":{"type":"MultiPolygon","coordinates":[[[[40.2079,-2.0329],[40.2495,-2.2488],[40.2495,-2.3981],[40.4407,-2.3975],[40.6637,-2.4679],[40.7679,-2.4499],[40.8231,-2.3696],[40.7947,-2.3399],[40.7591,-2.3952],[40.7811,-2.3606],[40.7587,-2.3173],[40.7041,-2.3089],[40.6909,-2.2889],[40.7251,-2.2715],[40.7581,-2.3072],[40.7377,-2.2821],[40.7561,-2.2754],[40.7343,-2.2562],[40.7047,-2.2612],[40.7259,-2.2399],[40.6955,-2.2047],[40.7439,-2.2449],[40.7457,-2.2271],[40.7579,-2.2526],[40.7747,-2.2375],[40.7809,-2.2604],[40.7953,-2.2323],[40.8765,-2.2326],[40.8597,-2.2117],[40.8823,-2.2128],[40.8689,-2.2006],[40.8823,-2.1864],[40.9259,-2.221],[40.9123,-2.0894],[40.8979,-2.0702],[40.8761,-2.0741],[40.8843,-2.0619],[40.8505,-2.0698],[40.8941,-2.0612],[40.8749,-2.0442],[40.8875,-2.0321],[40.9001,-2.0462],[40.9031,-2.0106],[40.8287,-2.0176],[40.8721,-2.0005],[40.7737,-1.9338],[40.8423,-1.9596],[40.8409,-1.9305],[40.8641,-1.9712],[40.8735,-1.9503],[40.8787,-1.9885],[40.9027,-1.9828],[40.9367,-2.0086],[40.9195,-2.0302],[40.9477,-2.0761],[40.9623,-2.0642],[40.9495,-2.0267],[40.9697,-1.9835],[40.9617,-1.9423],[40.9919,-1.9173],[40.9801,-1.9045],[40.9935,-1.9115],[41.0411,-1.8655],[41.0477,-1.89],[40.9831,-1.9464],[40.9827,-2.0162],[41.0121,-2.0475],[41.0599,-2.0135],[41.0661,-1.9788],[41.1131,-1.9601],[41.1189,-1.972],[41.2255,-1.8869],[41.2185,-1.9098],[41.2515,-1.9079],[41.2361,-1.9494],[41.2801,-1.9384],[41.2773,-1.9817],[41.3899,-1.865],[41.3663,-1.8598],[41.3875,-1.862],[41.5621,-1.6586],[40.9029,-1.7145],[40.2079,-2.0329]]],[[[41.0855,-2.0524],[41.0455,-2.1334],[41.0897,-2.1107],[41.0851,-2.1349],[41.1043,-2.1377],[41.0945,-2.0976],[41.1095,-2.0802],[41.1389,-2.095],[41.1637,-2.0808],[41.0855,-2.0524]]],[[[40.8919,-2.2479],[40.8235,-2.2751],[40.8143,-2.3315],[40.8687,-2.297],[40.9133,-2.2948],[40.8919,-2.2479]]],[[[40.9729,-2.2222],[40.9735,-2.2483],[40.9603,-2.2562],[40.9465,-2.2297],[40.9391,-2.2598],[40.9379,-2.2372],[40.9019,-2.2226],[40.9279,-2.2784],[40.9643,-2.278],[40.9555,-2.2948],[40.9215,-2.2961],[40.9187,-2.3154],[40.9551,-2.3072],[40.9881,-2.2585],[40.9729,-2.2222]]],[[[41.0535,-2.0859],[41.0065,-2.0969],[41.0055,-2.1163],[40.9905,-2.0989],[40.9703,-2.1143],[41.0129,-2.1382],[41.0535,-2.0859]]],[[[41.2789,-2.0014],[41.3045,-1.9645],[41.2497,-2.0299],[41.2789,-2.0014]]],[[[41.4381,-1.8364],[41.4371,-1.8346],[41.4333,-1.835],[41.4349,-1.8365],[41.4327,-1.8362],[41.4293,-1.8417],[41.4109,-1.8516],[41.3845,-1.8855],[41.3865,-1.8856],[41.3931,-1.8778],[41.4215,-1.8526],[41.4241,-1.848],[41.4319,-1.8441],[41.4381,-1.8364]]],[[[41.1401,-2.1042],[41.1313,-2.0866],[41.1273,-2.1066],[41.1541,-2.1085],[41.1401,-2.1042]]],[[[41.1647,-1.9583],[41.1439,-1.9689],[41.1765,-1.965],[41.1647,-1.9583]]],[[[41.0585,-2.1595],[41.0611,-2.1543],[41.0551,-2.1489],[41.0491,-2.1475],[41.0431,-2.1511],[41.0419,-2.1549],[41.0457,-2.1588],[41.0527,-2.1614],[41.0585,-2.1595]]],[[[41.1573,-1.9757],[41.1549,-1.9742],[41.1523,-1.9747],[41.1497,-1.978],[41.1501,-1.9808],[41.1469,-1.9823],[41.1451,-1.98],[41.1445,-1.9824],[41.1423,-1.9836],[41.1525,-1.9853],[41.1533,-1.9832],[41.1523,-1.9819],[41.1545,-1.9805],[41.1567,-1.9856],[41.1621,-1.9843],[41.1629,-1.9774],[41.1573,-1.9757]]],[[[40.9861,-2.1411],[40.9831,-2.1395],[40.9789,-2.1421],[40.9781,-2.1487],[40.9757,-2.1496],[40.9757,-2.1518],[40.9795,-2.1519],[40.9895,-2.1458],[40.9883,-2.1417],[40.9861,-2.1411]]],[[[41.5045,-1.7551],[41.5109,-1.7514],[41.5127,-1.7479],[41.5111,-1.7473],[41.5079,-1.7509],[41.5023,-1.7536],[41.5021,-1.7554],[41.4995,-1.7545],[41.4963,-1.7584],[41.4947,-1.7658],[41.4919,-1.7658],[41.4937,-1.7688],[41.5049,-1.758],[41.5045,-1.7551]]],[[[41.3435,-1.9254],[41.3409,-1.9214],[41.3399,-1.9218],[41.3407,-1.9254],[41.3381,-1.9226],[41.3379,-1.9273],[41.3293,-1.9356],[41.3247,-1.9437],[41.3435,-1.9254]]],[[[41.2023,-2.0027],[41.2039,-2.0056],[41.2027,-2.0076],[41.2001,-2.0061],[41.2011,-2.0082],[41.2055,-2.0122],[41.2125,-2.012],[41.2137,-2.0149],[41.2137,-2.0115],[41.2123,-2.0088],[41.2095,-2.0075],[41.2085,-2.0044],[41.2023,-2.0027]]],[[[40.7131,-2.2951],[40.7115,-2.2929],[40.7101,-2.2932],[40.7105,-2.2999],[40.7123,-2.3021],[40.7187,-2.3041],[40.7175,-2.301],[40.7193,-2.2975],[40.7175,-2.2954],[40.7131,-2.2951]]],[[[41.3493,-1.9204],[41.3615,-1.9088],[41.3615,-1.9058],[41.3575,-1.9056],[41.3573,-1.9083],[41.3509,-1.9144],[41.3481,-1.9209],[41.3493,-1.9204]]],[[[40.9717,-2.0478],[40.9711,-2.0416],[40.9691,-2.0407],[40.9665,-2.0464],[40.9669,-2.0509],[40.9705,-2.0497],[40.9735,-2.0505],[40.9741,-2.049],[40.9717,-2.0478]]],[[[41.2773,-1.9464],[41.2741,-1.9492],[41.2753,-1.9576],[41.2803,-1.9499],[41.2795,-1.9468],[41.2773,-1.9464]]],[[[40.7587,-2.2635],[40.7559,-2.2604],[40.7541,-2.2611],[40.7557,-2.2676],[40.7581,-2.2662],[40.7617,-2.2665],[40.7681,-2.2627],[40.7667,-2.2616],[40.7649,-2.263],[40.7587,-2.2635]]],[[[41.1867,-1.9819],[41.1881,-1.9782],[41.1875,-1.9692],[41.1859,-1.9699],[41.1859,-1.9735],[41.1815,-1.9746],[41.1845,-1.9774],[41.1833,-1.9804],[41.1867,-1.9819]]],[[[41.2259,-1.9115],[41.2317,-1.9097],[41.2347,-1.9055],[41.2283,-1.9055],[41.2247,-1.9105],[41.2259,-1.9115]]],[[[40.9859,-2.2242],[40.9837,-2.2228],[40.9825,-2.2235],[40.9833,-2.2257],[40.9889,-2.2288],[40.9921,-2.2285],[40.9907,-2.2237],[40.9859,-2.2242]]],[[[41.0269,-2.1397],[41.0253,-2.1372],[41.0223,-2.1359],[41.0203,-2.1374],[41.0197,-2.1406],[41.0217,-2.14],[41.0243,-2.1427],[41.0269,-2.1397]]],[[[40.7451,-2.2552],[40.7421,-2.2552],[40.7409,-2.258],[40.7439,-2.2578],[40.7477,-2.2611],[40.7493,-2.2571],[40.7451,-2.2552]]],[[[40.7829,-2.2861],[40.7823,-2.2831],[40.7851,-2.2798],[40.7841,-2.2785],[40.7815,-2.2796],[40.7773,-2.2865],[40.7829,-2.2861]]],[[[41.2101,-1.9138],[41.2059,-1.9146],[41.2061,-1.9202],[41.2115,-1.9185],[41.2117,-1.9148],[41.2101,-1.9138]]],[[[41.3987,-1.855],[41.3929,-1.861],[41.3951,-1.8614],[41.4021,-1.8571],[41.3987,-1.855]]],[[[40.8165,-2.2511],[40.8217,-2.2486],[40.8243,-2.2428],[40.8171,-2.2483],[40.8157,-2.2507],[40.8165,-2.2511]]],[[[41.1787,-1.9859],[41.1773,-1.9837],[41.1753,-1.9854],[41.1749,-1.9901],[41.1805,-1.9872],[41.1787,-1.9859]]],[[[40.7881,-2.2778],[40.7909,-2.2738],[40.7879,-2.2721],[40.7865,-2.2729],[40.7863,-2.2769],[40.7881,-2.2778]]],[[[41.3473,-1.9143],[41.3417,-1.9129],[41.3373,-1.9187],[41.3385,-1.9192],[41.3425,-1.915],[41.3473,-1.9143]]],[[[41.0797,-2.1306],[41.0801,-2.128],[41.0787,-2.1338],[41.0829,-2.1346],[41.0825,-2.1307],[41.0797,-2.1306]]],[[[41.1107,-2.0536],[41.1123,-2.0507],[41.1105,-2.0483],[41.1079,-2.0507],[41.1085,-2.0528],[41.1107,-2.0536]]],[[[40.8161,-2.2337],[40.8119,-2.2338],[40.8093,-2.2369],[40.8163,-2.2361],[40.8161,-2.2337]]],[[[41.2523,-1.9599],[41.2499,-1.9571],[41.2471,-1.9589],[41.2497,-1.961],[41.2541,-1.9616],[41.2523,-1.9599]]],[[[41.3735,-1.8934],[41.3803,-1.8863],[41.3769,-1.8857],[41.3735,-1.8934]]],[[[41.1863,-1.9481],[41.1853,-1.9436],[41.1849,-1.948],[41.1817,-1.9478],[41.1851,-1.952],[41.1863,-1.9481]]],[[[41.2093,-1.908],[41.2089,-1.9064],[41.2069,-1.9065],[41.2087,-1.9119],[41.2127,-1.909],[41.2093,-1.908]]],[[[41.2647,-1.948],[41.2673,-1.9471],[41.2673,-1.9457],[41.2623,-1.946],[41.2621,-1.9473],[41.2647,-1.948]]],[[[41.5097,-1.7474],[41.5109,-1.7454],[41.5079,-1.7414],[41.5069,-1.7427],[41.5097,-1.7474]]],[[[41.2235,-1.9179],[41.2247,-1.9136],[41.2215,-1.9155],[41.2215,-1.918],[41.2235,-1.9179]]],[[[40.9963,-2.097],[40.9953,-2.0921],[40.9925,-2.0947],[40.9963,-2.097]]],[[[41.2085,-1.9308],[41.2095,-1.9261],[41.2059,-1.9291],[41.2085,-1.9308]]],[[[41.2397,-1.9234],[41.2433,-1.9194],[41.2399,-1.92],[41.2385,-1.9226],[41.2397,-1.9234]]],[[[41.2393,-1.9568],[41.2375,-1.958],[41.2443,-1.9592],[41.2393,-1.9568]]],[[[41.1055,-2.0512],[41.1057,-2.0487],[41.1031,-2.0476],[41.1033,-2.0505],[41.1055,-2.0512]]],[[[41.4523,-1.8189],[41.4553,-1.8141],[41.4553,-1.8106],[41.4539,-1.8156],[41.4515,-1.8182],[41.4523,-1.8189]]],[[[41.2137,-1.9223],[41.2113,-1.9208],[41.2093,-1.9236],[41.2119,-1.9228],[41.2117,-1.9249],[41.2137,-1.9223]]],[[[41.2333,-1.9285],[41.2337,-1.9267],[41.2311,-1.9235],[41.2319,-1.9281],[41.2333,-1.9285]]],[[[40.8127,-2.2434],[40.8165,-2.2408],[40.8135,-2.2411],[40.8117,-2.243],[40.8127,-2.2434]]],[[[41.4371,-1.8236],[41.4387,-1.8185],[41.4363,-1.8218],[41.4371,-1.8236]]],[[[40.9325,-2.2301],[40.9327,-2.2286],[40.9303,-2.2275],[40.9295,-2.2289],[40.9325,-2.2301]]],[[[40.7595,-2.2766],[40.7603,-2.2754],[40.7579,-2.2738],[40.7575,-2.2754],[40.7595,-2.2766]]],[[[41.2435,-1.9551],[41.2397,-1.9556],[41.2439,-1.9571],[41.2435,-1.9551]]],[[[41.4751,-1.8033],[41.4763,-1.7996],[41.4735,-1.803],[41.4751,-1.8033]]],[[[41.2369,-1.9562],[41.2375,-1.9538],[41.2349,-1.954],[41.2349,-1.9559],[41.2369,-1.9562]]],[[[40.9971,-2.0901],[40.9969,-2.0915],[40.9995,-2.0916],[40.9991,-2.0901],[40.9971,-2.0901]]],[[[41.4399,-1.835],[41.4407,-1.8319],[41.4391,-1.8336],[41.4399,-1.835]]],[[[40.7251,-2.2561],[40.7243,-2.2538],[40.7231,-2.254],[40.7251,-2.2561]]],[[[41.3651,-1.9061],[41.3671,-1.9042],[41.3643,-1.9054],[41.3651,-1.9061]]],[[[41.4843,-1.7854],[41.4841,-1.7828],[41.4833,-1.7851],[41.4843,-1.7854]]],[[[40.9775,-2.1612],[40.9781,-2.1601],[40.9769,-2.1595],[40.9763,-2.1607],[40.9775,-2.1612]]]]},"properties":{"iso3":"KEN","shapeId":"32016919B38538724963648","regionId":"KEN.21_1","name":"Lamu"}},{"type":"Feature","geometry":{"type":"MultiPolygon","coordinates":[[[[39.2174,-3.0729],[39.0923,-3.5671],[39.3189,-3.5638],[39.3471,-3.6002],[39.3565,-3.7267],[39.3909,-3.7354],[39.3773,-3.8066],[39.4203,-3.8194],[39.4943,-3.8843],[39.5427,-3.9914],[39.5673,-3.9929],[39.5981,-3.9473],[39.6501,-3.9576],[39.6419,-3.9231],[39.6889,-3.9219],[39.7123,-3.8933],[39.7135,-3.9464],[39.7643,-3.9495],[39.8697,-3.693],[39.8387,-3.674],[39.8651,-3.6745],[39.8615,-3.6396],[39.8365,-3.6289],[39.7953,-3.6438],[39.7795,-3.6209],[39.8091,-3.6205],[39.7713,-3.5884],[39.7857,-3.5777],[39.7815,-3.6079],[39.8131,-3.6016],[39.8439,-3.6308],[39.8697,-3.628],[39.9683,-3.4008],[39.9473,-3.3767],[39.9351,-3.3867],[39.9375,-3.3473],[39.9959,-3.312],[39.9833,-3.3315],[39.9965,-3.3637],[39.9743,-3.3861],[40.1195,-3.2867],[40.1247,-3.147],[40.1369,-3.1567],[40.1599,-3.1288],[40.1531,-3.0829],[40.1721,-3.0389],[40.2411,-2.984],[40.1845,-2.9925],[40.1447,-3.0443],[40.1479,-2.9092],[40.1695,-2.8887],[40.1443,-2.8918],[40.1837,-2.8301],[40.1553,-2.7897],[40.1739,-2.757],[40.1567,-2.7291],[40.1757,-2.7137],[39.8897,-2.3101],[39.2174,-3.0729]]],[[[40.1641,-2.9382],[40.1617,-2.927],[40.1641,-2.9137],[40.1695,-2.8973],[40.1665,-2.9011],[40.1597,-2.9281],[40.1609,-2.9315],[40.1593,-2.9352],[40.1607,-2.9389],[40.1623,-2.9396],[40.1633,-2.947],[40.1647,-2.9447],[40.1641,-2.9382]]],[[[39.9641,-3.3569],[39.9645,-3.3507],[39.9623,-3.3571],[39.9499,-3.3584],[39.9481,-3.3606],[39.9547,-3.3658],[39.9593,-3.3654],[39.9641,-3.3569]]],[[[40.1786,-2.7177],[40.1775,-2.7164],[40.1747,-2.7237],[40.1761,-2.7263],[40.1737,-2.7359],[40.1747,-2.7376],[40.1771,-2.7367],[40.1809,-2.7306],[40.1807,-2.7235],[40.1795,-2.7224],[40.1789,-2.7242],[40.1779,-2.7238],[40.1773,-2.7217],[40.1791,-2.7184],[40.1791,-2.7184],[40.179,-2.7184],[40.1786,-2.7177]]],[[[39.9741,-3.351],[39.9767,-3.3495],[39.9739,-3.3446],[39.9735,-3.3403],[39.9697,-3.338],[39.9701,-3.3415],[39.9673,-3.3455],[39.9677,-3.3476],[39.9705,-3.3502],[39.9741,-3.351]]],[[[40.1613,-2.9694],[40.1617,-2.9595],[40.1601,-2.9548],[40.1577,-2.9628],[40.1593,-2.9686],[40.1613,-2.9694]]],[[[40.1825,-2.7451],[40.1823,-2.7414],[40.1805,-2.7397],[40.1777,-2.7408],[40.1741,-2.7457],[40.1753,-2.7472],[40.1785,-2.7451],[40.1825,-2.7451]]],[[[40.1703,-2.8812],[40.1707,-2.8667],[40.1683,-2.8681],[40.1671,-2.8718],[40.1689,-2.8803],[40.1703,-2.8812]]],[[[39.9795,-3.3646],[39.9855,-3.3571],[39.9783,-3.3597],[39.9795,-3.3646]]],[[[40.1657,-2.7875],[40.1651,-2.7806],[40.1609,-2.7807],[40.1625,-2.7855],[40.1657,-2.7875]]],[[[40.1857,-2.7537],[40.1873,-2.7488],[40.1917,-2.7427],[40.1893,-2.7429],[40.1841,-2.7538],[40.1857,-2.7537]]],[[[40.1741,-2.7882],[40.1705,-2.7853],[40.1683,-2.7863],[40.1683,-2.7878],[40.1725,-2.7893],[40.1723,-2.7921],[40.1737,-2.7929],[40.1741,-2.7882]]],[[[40.1827,-2.7816],[40.1859,-2.773],[40.1841,-2.771],[40.1809,-2.7798],[40.1827,-2.7816]]],[[[40.1771,-2.9748],[40.1763,-2.9677],[40.1703,-2.9593],[40.1699,-2.9606],[40.1763,-2.9704],[40.1771,-2.9748]]],[[[40.1739,-2.7765],[40.1771,-2.7724],[40.1763,-2.7695],[40.1739,-2.7711],[40.1725,-2.7753],[40.1739,-2.7765]]],[[[40.1679,-2.9802],[40.1731,-2.9713],[40.1705,-2.9725],[40.1703,-2.975],[40.1667,-2.9785],[40.1679,-2.9802]]],[[[40.1849,-2.8142],[40.1843,-2.8092],[40.1821,-2.8118],[40.1849,-2.8142]]],[[[40.1759,-2.7659],[40.1811,-2.7587],[40.1757,-2.7636],[40.1749,-2.7653],[40.1759,-2.7659]]],[[[40.1689,-2.7391],[40.1703,-2.7379],[40.1693,-2.7352],[40.1667,-2.738],[40.1689,-2.7391]]],[[[40.1723,-2.7336],[40.1717,-2.7305],[40.1705,-2.7302],[40.1697,-2.7324],[40.1723,-2.7336]]],[[[40.1863,-2.7464],[40.1871,-2.7408],[40.1855,-2.7448],[40.1863,-2.7464]]],[[[39.9871,-3.3496],[39.9873,-3.3468],[39.9861,-3.3481],[39.9871,-3.3496]]],[[[40.1805,-2.8085],[40.1805,-2.807],[40.1791,-2.8074],[40.1805,-2.8085]]]]},"properties":{"iso3":"KEN","shapeId":"32016919B27781338411646","regionId":"KEN.14_1","name":"Kilifi"}},{"type":"Feature","geometry":{"type":"Polygon","coordinates":[[[39.0751,-3.0411],[39.0245,-3.0205],[38.8056,-3.0685],[38.8093,-3.0531],[38.7745,-3.044],[38.6654,-3.0395],[38.6429,-3.0122],[38.539,-2.9737],[38.4588,-2.991],[38.3512,-2.8869],[38.2706,-2.77],[38.1615,-2.6799],[37.9737,-2.7886],[37.9394,-2.777],[37.9183,-2.8685],[37.8951,-2.8859],[37.8708,-3.0774],[37.8541,-3.0785],[37.8529,-3.1782],[37.8043,-3.1658],[37.6906,-3.1789],[37.7112,-3.308],[37.5848,-3.4384],[37.5848,-3.4598],[37.6225,-3.4627],[37.6032,-3.5169],[37.6694,-3.5061],[37.7441,-3.5426],[37.7838,-3.6734],[38.4465,-4.1372],[38.9453,-3.9589],[39.0368,-3.7597],[38.9275,-3.6954],[38.9651,-3.6318],[39.0613,-3.6893],[39.2174,-3.0729],[39.1631,-3.0657],[39.1273,-3.0192],[39.0858,-3.0522],[39.0751,-3.0411]]]},"properties":{"iso3":"KEN","shapeId":"32016919B21030921481039","regionId":"KEN.39_1","name":"Taita Taveta"}},{"type":"Feature","geometry":{"type":"MultiPolygon","coordinates":[[[[39.0923,-3.5671],[39.0613,-3.6893],[38.9651,-3.6318],[38.9275,-3.6954],[39.0368,-3.7597],[38.9453,-3.9589],[38.4465,-4.1372],[39.2065,-4.675],[39.2251,-4.6651],[39.2109,-4.6468],[39.2323,-4.631],[39.2261,-4.6161],[39.2689,-4.5999],[39.2419,-4.5694],[39.2793,-4.584],[39.3189,-4.5639],[39.3131,-4.5519],[39.3359,-4.5667],[39.3187,-4.5766],[39.3085,-4.6069],[39.3255,-4.6125],[39.3099,-4.6315],[39.4029,-4.6427],[39.3755,-4.5397],[39.4097,-4.5477],[39.4431,-4.5033],[39.4623,-4.5303],[39.5079,-4.3992],[39.5313,-4.4057],[39.5375,-4.4359],[39.5967,-4.2698],[39.5829,-4.256],[39.5979,-4.2549],[39.6407,-4.1552],[39.6253,-4.1449],[39.6377,-4.1206],[39.6081,-4.0891],[39.5767,-4.1195],[39.5675,-3.993],[39.5427,-3.9914],[39.5203,-3.9162],[39.4203,-3.8194],[39.3773,-3.8066],[39.3909,-3.7354],[39.3565,-3.7267],[39.3471,-3.6002],[39.3189,-3.5638],[39.0923,-3.5671]]],[[[39.4535,-4.5588],[39.4529,-4.5321],[39.4453,-4.5586],[39.4259,-4.5553],[39.4363,-4.5879],[39.4535,-4.5588]]],[[[39.3647,-4.655],[39.3607,-4.6529],[39.3643,-4.6597],[39.3603,-4.6604],[39.3603,-4.6636],[39.3779,-4.6636],[39.3813,-4.6648],[39.3843,-4.6635],[39.3921,-4.6675],[39.3965,-4.6664],[39.3995,-4.6709],[39.4035,-4.6684],[39.4039,-4.6668],[39.3987,-4.6549],[39.3929,-4.6587],[39.3863,-4.6584],[39.3771,-4.6554],[39.3647,-4.655]]],[[[39.3097,-4.5744],[39.3091,-4.5718],[39.3077,-4.5716],[39.2987,-4.5752],[39.3025,-4.5901],[39.3103,-4.58],[39.3113,-4.575],[39.3097,-4.5744]]],[[[39.2299,-4.6478],[39.2273,-4.6404],[39.2231,-4.6425],[39.2227,-4.6455],[39.2257,-4.6481],[39.2299,-4.6478]]],[[[39.2461,-4.621],[39.2469,-4.6171],[39.2421,-4.6123],[39.2409,-4.614],[39.2427,-4.6162],[39.2423,-4.6188],[39.2449,-4.6215],[39.2461,-4.621]]],[[[39.2513,-4.6161],[39.2583,-4.6121],[39.2573,-4.6095],[39.2549,-4.6094],[39.2493,-4.6142],[39.2513,-4.6161]]],[[[39.2903,-4.5953],[39.2883,-4.5919],[39.2897,-4.5897],[39.2885,-4.5884],[39.2867,-4.59],[39.2867,-4.5955],[39.2921,-4.6],[39.2925,-4.5958],[39.2903,-4.5953]]],[[[39.4099,-4.5763],[39.4097,-4.5736],[39.4047,-4.5764],[39.4019,-4.5754],[39.4005,-4.5767],[39.4069,-4.5776],[39.4099,-4.5763]]],[[[39.2383,-4.6285],[39.2403,-4.6247],[39.2391,-4.6224],[39.2377,-4.6231],[39.2367,-4.6275],[39.2383,-4.6285]]],[[[39.5333,-4.4442],[39.5359,-4.4392],[39.5319,-4.441],[39.5317,-4.4436],[39.5333,-4.4442]]],[[[39.2329,-4.6379],[39.2339,-4.6361],[39.2313,-4.6347],[39.2291,-4.6385],[39.2329,-4.6379]]],[[[39.2183,-4.6446],[39.2211,-4.6433],[39.2173,-4.6415],[39.2163,-4.6442],[39.2183,-4.6446]]],[[[39.2311,-4.6514],[39.2341,-4.6484],[39.2325,-4.6463],[39.2301,-4.6504],[39.2311,-4.6514]]],[[[39.2653,-4.6114],[39.2587,-4.6086],[39.2601,-4.6103],[39.2653,-4.6114]]],[[[39.4065,-4.7022],[39.4075,-4.6996],[39.4037,-4.7007],[39.4065,-4.7022]]],[[[39.4153,-4.5703],[39.4155,-4.5675],[39.4137,-4.5685],[39.4153,-4.5703]]],[[[39.4015,-4.5742],[39.4001,-4.5727],[39.3975,-4.5727],[39.4015,-4.5742]]],[[[39.3991,-4.6849],[39.3973,-4.683],[39.3959,-4.6836],[39.3991,-4.6849]]],[[[39.4017,-4.6848],[39.4021,-4.6833],[39.3999,-4.6836],[39.4017,-4.6848]]],[[[39.4029,-4.5723],[39.4029,-4.571],[39.4015,-4.571],[39.4029,-4.5723]]]]},"properties":{"iso3":"KEN","shapeId":"32016919B50438423394723","regionId":"KEN.19_1","name":"Kwale"}},{"type":"Feature","geometry":{"type":"MultiPolygon","coordinates":[[[[39.6477,-3.9507],[39.6621,-3.9477],[39.6723,-3.987],[39.6605,-4.0194],[39.6745,-4.0135],[39.6731,-4.0412],[39.6979,-4.0592],[39.7639,-3.9578],[39.6865,-3.9499],[39.7071,-3.9451],[39.6705,-3.9187],[39.6419,-3.9231],[39.6477,-3.9507]]],[[[39.5674,-3.9928],[39.5847,-4.0433],[39.6479,-4.032],[39.6343,-3.9883],[39.5967,-3.9852],[39.5981,-3.9473],[39.5674,-3.9928]]],[[[39.6253,-4.1449],[39.6409,-4.155],[39.6737,-4.0897],[39.6459,-4.0796],[39.6381,-4.0494],[39.6219,-4.0707],[39.5919,-4.0635],[39.5839,-4.0896],[39.5863,-4.1169],[39.6081,-4.0891],[39.6377,-4.1206],[39.6253,-4.1449]]],[[[39.6641,-4.0287],[39.6401,-4.0389],[39.6695,-4.0772],[39.6817,-4.0683],[39.6641,-4.0287]]],[[[39.6231,-3.9596],[39.6167,-3.9739],[39.6601,-3.9845],[39.6547,-3.9602],[39.6231,-3.9596]]],[[[39.5785,-4.1192],[39.5843,-4.1178],[39.5813,-4.1158],[39.5805,-4.118],[39.5795,-4.1184],[39.5777,-4.1181],[39.5767,-4.1195],[39.5785,-4.1192]]],[[[39.6661,-3.9927],[39.6675,-3.9904],[39.6667,-3.9884],[39.6641,-3.9905],[39.6661,-3.9927]]],[[[39.6143,-3.961],[39.6145,-3.9594],[39.6115,-3.96],[39.6143,-3.961]]],[[[39.6473,-4.0361],[39.6475,-4.0348],[39.6457,-4.0342],[39.6459,-4.0359],[39.6473,-4.0361]]]]},"properties":{"iso3":"KEN","shapeId":"32016919B10079274489584","regionId":"KEN.28_1","name":"Mombasa"}}]}