{"type":"FeatureCollection","features":[{"type":"Feature","geometry":{"type":"MultiPolygon","coordinates":[[[[79.9138,8.9418],[79.9183,8.9548],[79.9131,8.9569],[79.9108,8.9557],[79.9029,8.9424],[79.9062,8.939],[79.9138,8.9418]]],[[[79.9023,8.9468],[79.9092,8.9556],[79.9079,8.9586],[79.9027,8.9617],[79.8959,8.9602],[79.8913,8.9557],[79.8922,8.9522],[79.8931,8.9529],[79.9023,8.9468]]],[[[79.8907,8.9556],[79.9265,8.9825],[79.8531,9.0611],[79.9275,9.0097],[79.8621,9.0726],[79.7499,9.1064],[79.6898,9.0915],[79.6862,9.076],[79.8117,9.0351],[79.8907,8.9556]]],[[[79.984,9.3067],[79.9718,9.2859],[80.0021,9.2714],[79.984,9.3067]]],[[[80.0554,9.3309],[80.0588,9.3296],[80.0607,9.3314],[80.0578,9.3331],[80.0594,9.3407],[80.0574,9.3421],[80.0566,9.3482],[80.0538,9.3454],[80.0519,9.3382],[80.0532,9.3323],[80.0554,9.3309]]],[[[80.0101,9.4724],[80.0096,9.467],[80.0118,9.4658],[80.0149,9.467],[80.0141,9.47],[80.0175,9.4749],[80.0178,9.4812],[80.0143,9.4846],[80.0054,9.4847],[80.004,9.4802],[80.0101,9.4724]]],[[[79.7152,9.5295],[79.651,9.5473],[79.655,9.5051],[79.7201,9.4744],[79.7316,9.4922],[79.7152,9.5295]]],[[[80.9269,8.9921],[80.9213,9.0103],[80.908,8.9984],[80.8766,9.0254],[80.8941,9.0487],[80.9643,8.9894],[80.8108,9.293],[80.6709,9.4199],[80.7158,9.3542],[80.6651,9.4045],[80.67,9.4207],[80.3614,9.6646],[80.2521,9.8255],[80.2121,9.8358],[80.1011,9.8089],[80.0267,9.8229],[79.911,9.7745],[79.9421,9.6921],[79.9546,9.6885],[79.9734,9.7324],[79.9668,9.6982],[79.9979,9.6881],[80.0193,9.6499],[80.1342,9.6083],[80.0775,9.6596],[80.2089,9.5837],[80.1566,9.6454],[80.1741,9.6552],[80.3077,9.5845],[80.3847,9.5132],[80.4058,9.5157],[80.3907,9.5153],[80.3895,9.484],[80.3119,9.4618],[80.3071,9.442],[80.2358,9.4743],[80.2777,9.475],[80.2485,9.5061],[80.2818,9.4951],[80.2238,9.5346],[80.1706,9.5437],[80.0616,9.6115],[80.052,9.5992],[80.147,9.5353],[80.186,9.4856],[80.1451,9.4364],[80.0536,9.3896],[80.0634,9.3309],[80.1228,9.2974],[80.1098,9.2731],[80.12,9.2124],[80.0485,9.0298],[79.9475,8.9473],[79.9112,8.9388],[79.9356,8.9012],[79.915,8.8126],[79.9598,8.7241],[79.9198,8.5673],[80.0504,8.5219],[80.0444,8.6732],[80.1138,8.6494],[80.2354,8.6804],[80.2372,8.629],[80.2745,8.611],[80.2885,8.5606],[80.338,8.5462],[80.38,8.5838],[80.381,8.6218],[80.4242,8.674],[80.4513,8.6925],[80.5197,8.6588],[80.6514,8.7904],[80.6271,8.8371],[80.5923,8.8479],[80.5954,8.8697],[80.6675,8.8714],[80.753,8.9051],[80.7755,8.9467],[80.8697,8.9595],[80.9269,8.9921]]],[[[79.7747,9.596],[79.7706,9.622],[79.7635,9.5897],[79.7747,9.596]]],[[[79.8393,9.6116],[79.8542,9.6041],[79.8347,9.5916],[79.8104,9.6249],[79.8032,9.5775],[79.8614,9.5711],[79.8624,9.6069],[79.8393,9.6116]]],[[[79.8581,9.6292],[79.8579,9.6319],[79.8554,9.6349],[79.8521,9.6338],[79.8541,9.6234],[79.8596,9.6174],[79.8611,9.6168],[79.862,9.6184],[79.8595,9.618],[79.861,9.6183],[79.863,9.6223],[79.861,9.6234],[79.862,9.6265],[79.8581,9.6292]]],[[[79.9824,9.6222],[79.9837,9.6358],[79.9232,9.6611],[79.935,9.6767],[79.9064,9.6718],[79.9145,9.6516],[79.8866,9.6991],[79.8413,9.7034],[79.8571,9.6613],[79.878,9.6664],[79.8688,9.6391],[79.9003,9.6163],[79.918,9.6329],[79.9813,9.6218],[79.965,9.6079],[79.9878,9.5971],[80.0084,9.6287],[79.9947,9.6508],[79.9824,9.6222]]],[[[79.7827,9.6873],[79.7781,9.6841],[79.7762,9.68],[79.7711,9.6751],[79.7641,9.6605],[79.7646,9.6538],[79.7698,9.6511],[79.772,9.6512],[79.7763,9.6554],[79.78,9.6555],[79.7797,9.6588],[79.787,9.6658],[79.7834,9.67],[79.7845,9.6724],[79.7831,9.6793],[79.7841,9.6846],[79.7827,9.6873]]],[[[79.8129,9.69],[79.814,9.6946],[79.8118,9.7025],[79.8148,9.711],[79.814,9.7159],[79.8096,9.7084],[79.8073,9.6951],[79.8094,9.687],[79.8119,9.6854],[79.8131,9.6857],[79.8129,9.69]]],[[[79.8553,9.7457],[79.8502,9.7131],[79.8803,9.7037],[79.9019,9.7668],[79.8553,9.7457]]]]},"properties":{"iso3":"LKA","shapeId":"99731895B93054189817547","regionId":"LKA.104_1","name":"Northern"}},{"type":"Feature","geometry":{"type":"Polygon","coordinates":[[[80.753,8.9051],[80.8123,8.9153],[80.9126,8.8369],[80.8796,8.7685],[80.9134,8.681],[80.8939,8.6219],[80.944,8.5518],[80.9472,8.5075],[80.9909,8.4748],[80.9538,8.4392],[80.9242,8.3369],[80.9801,8.3125],[80.9888,8.2731],[81.1394,8.2609],[81.1994,8.2314],[81.2134,8.1795],[81.193,8.1512],[81.2326,8.1565],[81.2503,8.2261],[81.2824,8.2574],[81.3116,8.252],[81.3064,8.0294],[81.34,7.9374],[81.2893,7.9466],[81.2369,7.9198],[81.225,7.8235],[81.2394,7.6798],[81.214,7.647],[81.1176,7.6899],[81.0944,7.7252],[80.9891,7.7217],[80.9947,7.6615],[80.9779,7.625],[81.0133,7.5959],[81.0418,7.5053],[81.1636,7.5699],[81.2052,7.5565],[81.1827,7.4453],[81.1937,7.3776],[81.2201,7.3329],[81.2467,7.3344],[81.2855,7.2406],[81.323,7.2631],[81.3207,7.3375],[81.3633,7.3411],[81.386,7.3699],[81.375,7.4104],[81.4564,7.4584],[81.4788,7.4547],[81.462,7.4304],[81.4908,7.3378],[81.479,7.3247],[81.5188,7.2903],[81.5231,7.2429],[81.5531,7.2176],[81.5224,7.1976],[81.5003,7.1489],[81.5211,7.0975],[81.6142,7.0685],[81.6072,7.0259],[81.6372,6.96],[81.6083,6.58],[81.638,6.5422],[81.7079,6.5107],[81.7629,6.5965],[81.773,6.6717],[81.826,6.7642],[81.8229,6.8137],[81.879,7.0223],[81.8571,7.1215],[81.8658,7.3244],[81.779,7.6179],[81.699,7.7531],[81.5776,7.8508],[81.5637,7.899],[81.5827,7.9204],[81.557,7.9432],[81.5128,7.9137],[81.5487,7.9408],[81.5532,7.9884],[81.5091,7.9967],[81.4729,8.0426],[81.3526,8.4969],[81.3173,8.525],[81.2805,8.5071],[81.2787,8.4652],[81.2378,8.4541],[81.2036,8.4692],[81.1781,8.5119],[81.1259,8.4962],[81.1549,8.5451],[81.2128,8.5092],[81.1923,8.5715],[81.2199,8.5842],[81.2075,8.5653],[81.2277,8.5735],[81.2322,8.5361],[81.246,8.5826],[81.2196,8.6112],[81.2255,8.6532],[81.0802,8.8678],[81.0679,8.8573],[81.0476,8.8724],[80.9659,8.9848],[80.9453,8.9306],[80.9156,8.9357],[80.9061,8.9682],[80.9264,8.964],[80.9269,8.9921],[80.8697,8.9595],[80.7755,8.9467],[80.753,8.9051]]]},"properties":{"iso3":"LKA","shapeId":"99731895B51072878877669","regionId":"LKA.101_1","name":"Eastern"}},{"type":"Feature","geometry":{"type":"Polygon","coordinates":[[[80.9891,7.7217],[80.8836,7.7151],[80.8769,7.6797],[80.8531,7.7011],[80.8093,7.6717],[80.761,7.6956],[80.7745,7.7019],[80.7612,7.7922],[80.7956,7.8049],[80.8196,7.9245],[80.8533,7.9627],[80.8148,7.9835],[80.7879,7.9625],[80.7561,8.0123],[80.7059,7.9918],[80.6823,7.9567],[80.6587,7.9601],[80.6541,7.9152],[80.6228,7.8686],[80.5998,7.8558],[80.576,7.8684],[80.4999,7.8261],[80.4991,7.7826],[80.5373,7.7389],[80.5491,7.6422],[80.5779,7.605],[80.5527,7.5511],[80.5764,7.4787],[80.5403,7.4497],[80.5549,7.4178],[80.5168,7.4137],[80.5101,7.3857],[80.4616,7.411],[80.459,7.3513],[80.4221,7.3552],[80.4814,7.2848],[80.4795,7.2636],[80.5188,7.2409],[80.5133,7.2081],[80.5481,7.1694],[80.5005,7.128],[80.4454,7.113],[80.4713,7.0636],[80.4674,7.0171],[80.4331,6.9926],[80.4456,6.9654],[80.433,6.9136],[80.498,6.887],[80.5114,6.8475],[80.4917,6.8199],[80.5014,6.7783],[80.7063,6.755],[80.8343,6.8027],[80.8139,6.8285],[80.8366,6.8402],[80.824,6.8765],[80.7774,6.9179],[80.8162,6.9192],[80.8622,6.9782],[80.9191,6.9902],[80.9292,7.0382],[80.9651,7.0777],[80.9425,7.1971],[80.9729,7.1963],[81.0163,7.2313],[80.9695,7.4133],[80.9891,7.7217]]]},"properties":{"iso3":"LKA","shapeId":"99731895B28050807675820","regionId":"LKA.100_1","name":"Central"}},{"type":"Feature","geometry":{"type":"Polygon","coordinates":[[[80.0324,8.5272],[80.0319,8.4653],[79.9523,8.3751],[80.0001,8.2285],[80.0795,8.2236],[80.123,8.1813],[80.2664,8.1154],[80.3081,8.1171],[80.37,8.0578],[80.4194,8.0436],[80.4187,7.9533],[80.4611,7.9453],[80.4839,7.8231],[80.5244,7.8273],[80.576,7.8684],[80.5998,7.8558],[80.6228,7.8686],[80.6541,7.9152],[80.6587,7.9601],[80.6823,7.9567],[80.7059,7.9918],[80.7561,8.0123],[80.7879,7.9625],[80.8148,7.9835],[80.8533,7.9627],[80.8196,7.9245],[80.7956,7.8049],[80.7612,7.7922],[80.7708,7.6838],[80.8093,7.6717],[80.8531,7.7011],[80.8769,7.6797],[80.8836,7.7151],[81.0687,7.7308],[81.0944,7.7252],[81.1176,7.6899],[81.2179,7.6481],[81.2394,7.6798],[81.225,7.8235],[81.2369,7.9198],[81.2893,7.9466],[81.34,7.9374],[81.3064,8.0294],[81.3132,8.2466],[81.2824,8.2574],[81.2503,8.2261],[81.2326,8.1565],[81.193,8.1512],[81.2134,8.1795],[81.1994,8.2314],[81.1394,8.2609],[80.9888,8.2731],[80.9801,8.3125],[80.9242,8.3369],[80.9538,8.4392],[80.9909,8.4748],[80.9472,8.5075],[80.944,8.5518],[80.8939,8.6219],[80.9134,8.681],[80.8796,8.7685],[80.9126,8.8369],[80.8715,8.8821],[80.783,8.9202],[80.6675,8.8714],[80.5954,8.8697],[80.5923,8.8479],[80.6271,8.8371],[80.6514,8.7904],[80.5197,8.6588],[80.4513,8.6925],[80.4242,8.674],[80.381,8.6218],[80.38,8.5838],[80.338,8.5462],[80.2885,8.5606],[80.2745,8.611],[80.2372,8.629],[80.2354,8.6804],[80.1138,8.6494],[80.0444,8.6732],[80.0504,8.5219],[80.0324,8.5272]]]},"properties":{"iso3":"LKA","shapeId":"99731895B66209916164902","regionId":"LKA.102_1","name":"North Central"}},{"type":"Feature","geometry":{"type":"MultiPolygon","coordinates":[[[[79.7799,8.2621],[79.7817,8.2616],[79.7834,8.2629],[79.7854,8.2679],[79.7834,8.2682],[79.7756,8.2779],[79.7732,8.2791],[79.7724,8.2765],[79.7746,8.2696],[79.7799,8.2621]]],[[[79.9198,8.5673],[79.9158,8.5485],[79.8709,8.5364],[79.8377,8.3115],[79.8104,8.2389],[79.7895,8.2336],[79.8201,8.2029],[79.8342,8.1517],[79.7894,8.0756],[79.8357,8.0142],[79.8193,7.9971],[79.8204,7.9137],[79.8211,7.9611],[79.8091,7.9526],[79.8227,7.9796],[79.7572,7.9876],[79.7367,8.0139],[79.7555,8.0633],[79.7374,8.0727],[79.7271,8.1229],[79.7493,8.1816],[79.7378,8.2017],[79.7703,8.2212],[79.7768,8.2614],[79.7315,8.2282],[79.7639,8.2681],[79.751,8.2646],[79.7542,8.2901],[79.7861,8.3841],[79.7349,8.2355],[79.6927,8.2107],[79.7061,8.057],[79.7945,7.7195],[79.7893,7.5389],[79.842,7.2734],[79.9459,7.2739],[80.0086,7.3213],[80.0592,7.2839],[80.1242,7.3305],[80.2039,7.2591],[80.2793,7.3184],[80.3382,7.3212],[80.3559,7.3611],[80.347,7.3877],[80.3923,7.3965],[80.4144,7.3567],[80.457,7.35],[80.4616,7.411],[80.5101,7.3857],[80.5168,7.4137],[80.5549,7.4178],[80.5403,7.4497],[80.5764,7.4787],[80.5527,7.5511],[80.5779,7.605],[80.5491,7.6422],[80.5373,7.7389],[80.4691,7.85],[80.4798,7.8773],[80.4611,7.9453],[80.4187,7.9533],[80.4194,8.0436],[80.37,8.0578],[80.3081,8.1171],[80.2664,8.1154],[80.123,8.1813],[80.0795,8.2236],[80.0001,8.2285],[79.9523,8.3751],[80.0197,8.445],[80.0428,8.5],[80.0228,8.5326],[79.9198,8.5673]]],[[[79.8009,8.3407],[79.8065,8.3198],[79.8089,8.3176],[79.8113,8.3181],[79.8144,8.3202],[79.8137,8.3212],[79.8087,8.3217],[79.8067,8.3244],[79.8108,8.3288],[79.8108,8.3319],[79.8129,8.3331],[79.8072,8.3334],[79.8043,8.3363],[79.8115,8.3378],[79.8082,8.3388],[79.8033,8.338],[79.8009,8.3407]]],[[[79.7979,8.4518],[79.7857,8.5335],[79.7777,8.4979],[79.7979,8.4518]]]]},"properties":{"iso3":"LKA","shapeId":"99731895B5260290378804","regionId":"LKA.103_1","name":"North Western"}},{"type":"Feature","geometry":{"type":"Polygon","coordinates":[[[80.4221,7.3552],[80.3923,7.3965],[80.347,7.3877],[80.3559,7.3611],[80.3382,7.3212],[80.2548,7.3045],[80.1956,7.2582],[80.1843,7.1963],[80.1454,7.1883],[80.1627,7.1269],[80.2127,7.132],[80.1627,7.0571],[80.1792,6.9777],[80.2171,6.9753],[80.2224,6.9504],[80.175,6.8599],[80.2022,6.8317],[80.1772,6.8096],[80.1987,6.7273],[80.255,6.627],[80.3032,6.5959],[80.3045,6.5392],[80.4191,6.3924],[80.5031,6.3674],[80.5496,6.3961],[80.6188,6.3963],[80.6112,6.3459],[80.6613,6.3538],[80.6701,6.306],[80.798,6.2671],[80.8579,6.272],[80.9397,6.2279],[80.9531,6.2388],[80.903,6.3439],[80.8654,6.357],[80.8388,6.4017],[80.8278,6.4901],[80.928,6.6876],[80.8574,6.6575],[80.8297,6.6696],[80.8118,6.7036],[80.8549,6.7194],[80.8579,6.7415],[80.8115,6.7557],[80.8084,6.7919],[80.7448,6.7583],[80.6538,6.7512],[80.4942,6.7849],[80.5114,6.8475],[80.498,6.887],[80.433,6.9136],[80.4456,6.9654],[80.4331,6.9926],[80.4674,7.0171],[80.4713,7.0636],[80.4454,7.113],[80.5005,7.128],[80.5481,7.1694],[80.5133,7.2081],[80.5188,7.2409],[80.4795,7.2636],[80.4814,7.2848],[80.4221,7.3552]]]},"properties":{"iso3":"LKA","shapeId":"99731895B16804022686405","regionId":"LKA.105_1","name":"Sabaragamuwa"}},{"type":"Feature","geometry":{"type":"Polygon","coordinates":[[[81.6083,6.58],[81.4821,6.4958],[81.4721,6.4081],[81.3933,6.4147],[81.3673,6.3906],[81.2784,6.3691],[81.2535,6.3408],[81.2256,6.3447],[81.1843,6.4055],[81.1569,6.3926],[81.1369,6.4211],[81.0491,6.4218],[81.037,6.3913],[81.0083,6.3878],[81.0182,6.3447],[80.9214,6.2965],[80.9531,6.2388],[80.9397,6.2279],[80.8579,6.272],[80.798,6.2671],[80.6701,6.306],[80.6613,6.3538],[80.6112,6.3459],[80.6188,6.3963],[80.5496,6.3961],[80.4962,6.3674],[80.3689,6.4268],[80.2902,6.3918],[80.2968,6.3249],[80.2411,6.3766],[80.2175,6.3801],[80.1894,6.3545],[80.1307,6.3657],[80.0875,6.4018],[79.9876,6.4404],[80.063,6.1907],[80.18,6.0521],[80.2175,6.0236],[80.2386,6.0324],[80.2431,6.0053],[80.4174,5.9546],[80.438,5.9725],[80.4538,5.9412],[80.5573,5.9415],[80.5915,5.919],[80.6495,5.9548],[80.7223,5.96],[80.723,5.978],[80.7378,5.972],[80.8071,6.0372],[80.8607,6.0421],[81.0009,6.1012],[81.0942,6.1089],[81.0972,6.1278],[81.1276,6.1199],[81.2358,6.1795],[81.3241,6.1988],[81.4813,6.3107],[81.5035,6.3499],[81.567,6.3732],[81.7046,6.5012],[81.6083,6.58]]]},"properties":{"iso3":"LKA","shapeId":"99731895B60977758614393","regionId":"LKA.106_1","name":"Southern"}},{"type":"Feature","geometry":{"type":"Polygon","coordinates":[[[80.9779,7.625],[80.9695,7.4133],[81.0163,7.2313],[80.9729,7.1963],[80.9425,7.1971],[80.9651,7.0777],[80.9292,7.0382],[80.9191,6.9902],[80.8622,6.9782],[80.8268,6.9259],[80.7759,6.913],[80.81,6.9017],[80.8375,6.8451],[80.8139,6.8285],[80.8343,6.8027],[80.8084,6.7919],[80.8115,6.7557],[80.8579,6.7415],[80.8549,6.7194],[80.8118,6.7036],[80.8297,6.6696],[80.8574,6.6575],[80.928,6.6876],[80.8278,6.4901],[80.8388,6.4017],[80.8654,6.357],[80.903,6.3439],[80.9214,6.2965],[81.0182,6.3447],[81.0083,6.3878],[81.037,6.3913],[81.0491,6.4218],[81.1369,6.4211],[81.1569,6.3926],[81.1843,6.4055],[81.2256,6.3447],[81.2535,6.3408],[81.2784,6.3691],[81.3673,6.3906],[81.3933,6.4147],[81.4721,6.4081],[81.4821,6.4958],[81.6083,6.58],[81.6372,6.96],[81.6072,7.0259],[81.6142,7.0685],[81.5211,7.0975],[81.5003,7.1489],[81.5224,7.1976],[81.5531,7.2176],[81.5231,7.2429],[81.5188,7.2903],[81.479,7.3247],[81.4908,7.3378],[81.462,7.4304],[81.4788,7.4547],[81.4564,7.4584],[81.375,7.4104],[81.386,7.3699],[81.3633,7.3411],[81.3207,7.3375],[81.323,7.2631],[81.2855,7.2406],[81.2467,7.3344],[81.2201,7.3329],[81.1937,7.3776],[81.1827,7.4453],[81.2052,7.5565],[81.1636,7.5699],[81.0418,7.5053],[81.0133,7.5959],[80.9779,7.625]]]},"properties":{"iso3":"LKA","shapeId":"99731895B77537271836321","regionId":"LKA.107_1","name":"Uva"}},{"type":"Feature","geometry":{"type":"Polygon","coordinates":[[[79.842,7.2734],[79.8286,7.2078],[79.8656,7.1695],[79.8744,7.1139],[79.8628,7.1261],[79.8562,7.1012],[79.8169,7.2035],[79.8704,6.9785],[79.8476,6.9377],[79.8398,6.9608],[79.8428,6.9454],[79.8235,6.9454],[79.8311,6.9659],[79.8225,6.9453],[79.8404,6.9383],[79.8799,6.7705],[79.9815,6.5116],[79.9772,6.4523],[80.1307,6.3657],[80.1894,6.3545],[80.2175,6.3801],[80.2411,6.3766],[80.299,6.3258],[80.2902,6.3918],[80.3813,6.4256],[80.3045,6.5392],[80.3032,6.5959],[80.255,6.627],[80.2158,6.6919],[80.1772,6.8096],[80.2021,6.8194],[80.175,6.8599],[80.2232,6.9417],[80.2171,6.9753],[80.1792,6.9777],[80.1627,7.0571],[80.2127,7.132],[80.1627,7.1269],[80.1454,7.1883],[80.1843,7.1963],[80.2003,7.2494],[80.1242,7.3305],[80.0592,7.2839],[80.0086,7.3213],[79.9459,7.2739],[79.842,7.2734]]]},"properties":{"iso3":"LKA","shapeId":"99731895B46623695729728","regionId":"LKA.108_1","name":"Western"}}]}