{"type":"FeatureCollection","features":[{"type":"Feature","geometry":{"type":"Polygon","coordinates":[[[21.828,41.4197],[21.8225,41.4405],[21.7886,41.4269],[21.7501,41.4836],[21.7142,41.4846],[21.6494,41.4352],[21.5313,41.4992],[21.4845,41.5017],[21.4246,41.5963],[21.3739,41.6055],[21.3338,41.4988],[21.2966,41.5122],[21.2281,41.442],[21.1369,41.4265],[21.1345,41.3938],[21.0938,41.3603],[21.0202,41.3621],[20.9548,41.3239],[21.0391,41.215],[20.9439,41.1689],[20.9534,41.1577],[20.903,41.1249],[20.8952,41.0586],[20.8295,40.943],[20.8377,40.9277],[20.9493,40.9208],[20.9783,40.8976],[20.9802,40.8557],[21.1524,40.8569],[21.2066,40.8839],[21.2597,40.8594],[21.3442,40.8739],[21.4252,40.9174],[21.5256,40.9102],[21.5665,40.8664],[21.5932,40.866],[21.6356,40.8971],[21.6706,40.8984],[21.6866,40.9396],[21.785,40.9292],[21.8041,40.9447],[21.8015,40.9761],[21.912,41.0494],[21.9035,41.0704],[21.9296,41.1002],[21.9178,41.123],[21.9321,41.1386],[21.878,41.1629],[21.893,41.1974],[21.8658,41.2295],[21.8956,41.2792],[21.8344,41.2782],[21.8096,41.3096],[21.8431,41.3566],[21.823,41.3837],[21.828,41.4197]]]},"properties":{"iso3":"MKD","shapeId":"19869673B93268339583324","regionId":"MKD.102_1","name":"Pelagonia"}},{"type":"Feature","geometry":{"type":"Polygon","coordinates":[[[21.3739,41.6055],[21.3694,41.6495],[21.3974,41.6662],[21.3931,41.7211],[21.2964,41.7586],[21.2561,41.8215],[21.2045,41.8532],[21.1426,41.8424],[21.088,41.7922],[21.0161,41.7865],[21.0521,41.6606],[20.9764,41.6416],[20.902,41.6753],[20.8006,41.652],[20.7783,41.6289],[20.8114,41.6268],[20.8401,41.5872],[20.8104,41.5839],[20.7829,41.4901],[20.7453,41.5095],[20.729,41.4935],[20.6602,41.528],[20.6767,41.5438],[20.6119,41.5505],[20.5563,41.582],[20.456,41.5538],[20.4734,41.533],[20.4547,41.5135],[20.495,41.4905],[20.5076,41.4442],[20.5604,41.4085],[20.5257,41.3432],[20.4985,41.3466],[20.4944,41.3325],[20.5155,41.2328],[20.5902,41.143],[20.5956,41.0924],[20.6706,41.0874],[20.7325,40.9116],[20.8264,40.9058],[20.8291,40.9539],[20.8952,41.0586],[20.903,41.1249],[20.9534,41.1577],[20.9439,41.1689],[21.0391,41.215],[20.9548,41.3239],[21.0202,41.3621],[21.0938,41.3603],[21.1345,41.3938],[21.1369,41.4265],[21.2281,41.442],[21.2966,41.5122],[21.3338,41.4988],[21.3739,41.6055]]]},"properties":{"iso3":"MKD","shapeId":"19869673B24262378327284","regionId":"MKD.106_1","name":"Southwest"}},{"type":"Feature","geometry":{"type":"Polygon","coordinates":[[[21.9296,41.1002],[22.0669,41.1576],[22.1402,41.1252],[22.2157,41.1686],[22.2189,41.1991],[22.2695,41.2176],[22.2458,41.2438],[22.2997,41.2649],[22.2958,41.3299],[22.3561,41.3452],[22.3705,41.3783],[22.3373,41.3934],[22.3468,41.4847],[22.3142,41.4969],[22.2889,41.5413],[22.2161,41.5627],[22.1725,41.6031],[22.1244,41.6005],[22.1105,41.6576],[22.0735,41.6297],[22.0532,41.6567],[21.9672,41.6759],[21.9739,41.6885],[21.9564,41.694],[21.9471,41.7125],[21.9786,41.734],[22.0084,41.7236],[22.0264,41.7473],[22.0521,41.7328],[22.0455,41.787],[22.1125,41.8326],[22.098,41.8985],[22.1259,41.8987],[22.0356,41.9746],[22.0342,42.0159],[22.0137,42.0217],[21.9369,41.9846],[21.9194,42.0211],[21.8736,42.0108],[21.8213,41.9606],[21.8099,41.9187],[21.7441,41.8994],[21.7536,41.8733],[21.7309,41.8184],[21.7013,41.836],[21.6726,41.8185],[21.6747,41.8345],[21.6356,41.8352],[21.6409,41.7981],[21.6114,41.7592],[21.4526,41.7565],[21.4305,41.7173],[21.3834,41.7108],[21.3974,41.6662],[21.3694,41.6495],[21.3739,41.6055],[21.4246,41.5963],[21.4845,41.5017],[21.5313,41.4992],[21.6494,41.4352],[21.7338,41.4866],[21.7886,41.4269],[21.8225,41.4405],[21.823,41.3837],[21.8431,41.3566],[21.8096,41.3096],[21.8344,41.2782],[21.8956,41.2792],[21.8658,41.2295],[21.893,41.1974],[21.878,41.1629],[21.9321,41.1386],[21.9178,41.123],[21.9296,41.1002]]]},"properties":{"iso3":"MKD","shapeId":"19869673B59759079390778","regionId":"MKD.107_1","name":"Vardar"}},{"type":"Feature","geometry":{"type":"Polygon","coordinates":[[[21.2379,41.83],[21.2424,41.8812],[21.1767,41.9143],[21.1946,41.98],[21.1499,42.0128],[21.1974,42.0675],[21.1828,42.0932],[21.1583,42.0768],[21.1542,42.0979],[21.2071,42.1065],[21.2146,42.132],[21.1628,42.1962],[21.1024,42.2044],[21.0268,42.1525],[20.9214,42.1277],[20.8908,42.0973],[20.7846,42.0789],[20.7482,42.0257],[20.7681,41.9138],[20.728,41.8643],[20.6835,41.8577],[20.6524,41.8747],[20.6222,41.8528],[20.5943,41.8773],[20.5609,41.8692],[20.5743,41.7894],[20.5321,41.7769],[20.5166,41.6623],[20.5712,41.5669],[20.6767,41.5438],[20.6602,41.528],[20.729,41.4935],[20.7453,41.5095],[20.7829,41.4901],[20.8104,41.5839],[20.8401,41.5872],[20.8114,41.6268],[20.7783,41.6289],[20.8006,41.652],[20.902,41.6753],[20.9764,41.6416],[21.0521,41.6606],[21.0161,41.7865],[21.1028,41.7983],[21.1583,41.847],[21.2045,41.8532],[21.2379,41.83]]]},"properties":{"iso3":"MKD","shapeId":"19869673B18118429348634","regionId":"MKD.103_1","name":"Polog"}},{"type":"Feature","geometry":{"type":"Polygon","coordinates":[[[22.2157,41.1686],[22.3234,41.1509],[22.334,41.1205],[22.4024,41.1376],[22.4165,41.1194],[22.5621,41.1312],[22.5892,41.1175],[22.6632,41.1851],[22.7111,41.1395],[22.73,41.1455],[22.7474,41.163],[22.7681,41.3255],[22.9643,41.3542],[22.952,41.4175],[22.9795,41.4469],[22.9582,41.4951],[22.971,41.5169],[22.8754,41.5233],[22.8554,41.5433],[22.8131,41.528],[22.7675,41.5718],[22.6879,41.5803],[22.7071,41.6241],[22.6737,41.6446],[22.6404,41.626],[22.6397,41.6655],[22.6614,41.6899],[22.6264,41.7498],[22.5641,41.7711],[22.4994,41.7665],[22.4656,41.7873],[22.3873,41.6829],[22.333,41.6948],[22.3092,41.6756],[22.3273,41.6352],[22.3167,41.6243],[22.3416,41.6076],[22.2664,41.5564],[22.3218,41.4899],[22.3468,41.4847],[22.3373,41.3934],[22.3694,41.3853],[22.367,41.3568],[22.2958,41.3299],[22.2997,41.2649],[22.2458,41.2438],[22.2695,41.2176],[22.2189,41.1991],[22.2157,41.1686]]]},"properties":{"iso3":"MKD","shapeId":"19869673B18425588006505","regionId":"MKD.105_1","name":"Southeast"}},{"type":"Feature","geometry":{"type":"Polygon","coordinates":[[[22.2664,41.5564],[22.3416,41.6076],[22.3155,41.6273],[22.3176,41.6856],[22.3873,41.6829],[22.4656,41.7873],[22.4994,41.7665],[22.5641,41.7711],[22.6264,41.7498],[22.6614,41.6899],[22.6397,41.6655],[22.6404,41.626],[22.6737,41.6446],[22.7071,41.6241],[22.6879,41.5803],[22.7675,41.5718],[22.8131,41.528],[22.8554,41.5433],[22.8754,41.5233],[22.964,41.518],[22.9723,41.5636],[22.949,41.6338],[22.9835,41.6468],[23.0325,41.7249],[23.0093,41.7664],[22.9648,41.7732],[22.9222,41.8691],[22.9025,41.8758],[22.8672,42.0222],[22.6765,42.0647],[22.5104,42.1552],[22.4366,42.119],[22.3633,42.1148],[22.3878,42.0871],[22.361,42.042],[22.3211,42.0701],[22.2685,42.0707],[22.2626,42.0202],[22.189,42.0532],[22.111,42.0393],[22.0791,42.0084],[22.0404,42.0254],[22.0248,41.9932],[22.1259,41.8987],[22.098,41.8985],[22.1125,41.8326],[22.0455,41.787],[22.0521,41.7328],[22.0264,41.7473],[22.0084,41.7236],[21.9786,41.734],[21.9471,41.7125],[21.9564,41.694],[21.9739,41.6885],[21.9672,41.6759],[22.0532,41.6567],[22.0735,41.6297],[22.1105,41.6576],[22.1244,41.6005],[22.1725,41.6031],[22.2161,41.5627],[22.2664,41.5564]]]},"properties":{"iso3":"MKD","shapeId":"19869673B25367051519859","regionId":"MKD.100_1","name":"East"}},{"type":"Feature","geometry":{"type":"Polygon","coordinates":[[[21.3935,41.718],[21.404,41.7038],[21.4305,41.7173],[21.4711,41.7623],[21.6114,41.7592],[21.6409,41.7981],[21.6356,41.8352],[21.6747,41.8345],[21.6726,41.8185],[21.7013,41.836],[21.7309,41.8184],[21.7536,41.8733],[21.7441,41.8994],[21.8099,41.9187],[21.8213,41.9606],[21.7957,41.986],[21.7412,41.9736],[21.6944,42.001],[21.7008,42.0312],[21.6514,42.0444],[21.629,42.0797],[21.6112,42.0814],[21.6048,42.0511],[21.5591,42.0672],[21.4871,42.1634],[21.5139,42.1729],[21.5207,42.2041],[21.4706,42.2384],[21.3993,42.2492],[21.3337,42.2038],[21.3024,42.1413],[21.3183,42.1089],[21.2489,42.0908],[21.2137,42.1109],[21.1542,42.0979],[21.1583,42.0768],[21.1828,42.0932],[21.1974,42.0675],[21.1499,42.0128],[21.1946,41.98],[21.1767,41.9143],[21.2424,41.8812],[21.24,41.8262],[21.2964,41.7586],[21.3935,41.718]]]},"properties":{"iso3":"MKD","shapeId":"19869673B29343041094723","regionId":"MKD.104_1","name":"Skopje"}},{"type":"Feature","geometry":{"type":"Polygon","coordinates":[[[22.0342,42.0159],[22.0791,42.0084],[22.111,42.0393],[22.189,42.0532],[22.2626,42.0202],[22.2685,42.0707],[22.3211,42.0701],[22.361,42.042],[22.3878,42.0871],[22.3633,42.1148],[22.4523,42.1234],[22.5162,42.1579],[22.5009,42.1962],[22.4697,42.2026],[22.3785,42.3091],[22.2932,42.3487],[22.2943,42.3738],[22.2305,42.3362],[22.1948,42.3399],[22.1669,42.313],[22.0704,42.3002],[22.0263,42.2996],[21.9484,42.3434],[21.9252,42.3074],[21.8943,42.3007],[21.8427,42.3247],[21.7764,42.2667],[21.7273,42.2632],[21.6979,42.2343],[21.5869,42.2628],[21.5206,42.2473],[21.5138,42.266],[21.4685,42.2801],[21.4329,42.2584],[21.4431,42.2356],[21.4706,42.2384],[21.5207,42.2041],[21.5139,42.1729],[21.4871,42.1634],[21.5591,42.0672],[21.6048,42.0511],[21.6112,42.0814],[21.6434,42.0733],[21.6514,42.0444],[21.7008,42.0312],[21.6909,42.0058],[21.7412,41.9736],[21.7957,41.986],[21.8297,41.9617],[21.8569,41.9821],[21.8487,41.9941],[21.903,42.0187],[21.9246,42.0177],[21.9369,41.9846],[22.0342,42.0159]]]},"properties":{"iso3":"MKD","shapeId":"19869673B2276524487216","regionId":"MKD.101_1","name":"Northeast"}}]}