{"type":"FeatureCollection","features":[{"type":"Feature","geometry":{"type":"MultiPolygon","coordinates":[[[[101.2499,2.9077],[101.2537,2.9661],[101.2298,2.9458],[101.2355,2.9041],[101.2499,2.9077]]],[[[101.3064,2.9785],[101.2642,2.9492],[101.2659,2.9169],[101.3064,2.9785]]],[[[101.2789,2.8986],[101.2853,2.8841],[101.3211,2.9147],[101.3475,2.8967],[101.3369,2.9266],[101.3902,2.9915],[101.3267,2.9782],[101.2789,2.8986]]],[[[101.2501,2.9933],[101.2599,3.0164],[101.2235,3.0043],[101.2,2.9496],[101.2501,2.9933]]],[[[101.2501,3.0193],[101.2795,3.0403],[101.2683,3.0575],[101.2404,3.0505],[101.2096,3.0069],[101.2501,3.0193]]],[[[101.276,2.9983],[101.2635,2.9528],[101.3349,2.9977],[101.3344,3.0645],[101.3044,3.0633],[101.276,2.9983]]],[[[100.9307,3.8691],[100.8193,3.8462],[100.8139,3.7846],[100.8706,3.7691],[100.9396,3.6756],[100.9774,3.6698],[101.0377,3.6187],[101.192,3.3478],[101.2302,3.3316],[101.2993,3.2534],[101.3181,3.1125],[101.3601,3.0731],[101.3643,3.0009],[101.3929,2.9958],[101.3579,2.9258],[101.339,2.9221],[101.3503,2.8952],[101.3204,2.9109],[101.2876,2.8766],[101.2934,2.8376],[101.4098,2.8046],[101.48,2.6883],[101.7125,2.5953],[101.7037,2.6089],[101.7303,2.6191],[101.7621,2.7029],[101.7515,2.8695],[101.8829,2.8669],[101.9429,3.0166],[101.9712,3.0353],[101.9367,3.2492],[101.8294,3.2914],[101.7593,3.3716],[101.7932,3.4245],[101.7632,3.5082],[101.8066,3.5495],[101.8159,3.605],[101.7412,3.7094],[101.6859,3.7097],[101.6248,3.7725],[101.5812,3.77],[101.5781,3.7201],[101.5193,3.6773],[101.3566,3.803],[101.3267,3.7862],[101.3399,3.6924],[101.264,3.6683],[101.245,3.6833],[101.25,3.7179],[101.2126,3.7077],[101.1976,3.7279],[101.1748,3.7101],[101.1914,3.7312],[101.1704,3.7277],[101.167,3.749],[101.1637,3.7249],[101.1551,3.7447],[101.1536,3.7285],[101.1351,3.7344],[101.1326,3.764],[101.1221,3.7363],[101.1094,3.7472],[101.0757,3.7286],[101.0742,3.7589],[101.1017,3.7524],[101.0897,3.7829],[101.0574,3.7541],[101.059,3.7956],[101.0279,3.7822],[101.0235,3.806],[100.9949,3.8015],[100.9834,3.7717],[100.9659,3.7725],[100.9589,3.793],[100.9787,3.8156],[100.9401,3.8323],[100.9454,3.8663],[100.9307,3.8691]],[[101.6281,3.138],[101.6191,3.1979],[101.6374,3.2321],[101.6636,3.2443],[101.7147,3.2122],[101.7403,3.2332],[101.7592,3.1879],[101.7316,3.174],[101.7507,3.1608],[101.7351,3.1357],[101.7536,3.1036],[101.7309,3.0364],[101.7141,3.0542],[101.6685,3.0406],[101.6489,3.0575],[101.6597,3.1146],[101.6281,3.138]],[[101.6805,2.8805],[101.6597,2.8991],[101.6747,2.9468],[101.6628,2.9643],[101.7083,2.9824],[101.6998,2.9679],[101.7309,2.9548],[101.7327,2.9292],[101.7075,2.9293],[101.6805,2.8805]]]]},"properties":{"iso3":"MYS","shapeId":"15666254B89722251658211","regionId":"MYS.15_1","name":"Selangor"}},{"type":"Feature","geometry":{"type":"MultiPolygon","coordinates":[[[[104.0624,2.2179],[104.0901,2.1955],[104.0623,2.235],[104.0624,2.2179]]],[[[104.0923,2.3156],[104.112,2.2859],[104.1431,2.2905],[104.129,2.313],[104.0923,2.3156]]],[[[103.4204,1.3316],[103.4209,1.308],[103.4376,1.3152],[103.4204,1.3316]]],[[[103.2574,1.4621],[103.2606,1.4643],[103.2602,1.4665],[103.2618,1.4691],[103.266,1.4699],[103.2629,1.473],[103.2604,1.4717],[103.2586,1.473],[103.255,1.4725],[103.2489,1.4683],[103.2485,1.4651],[103.251,1.4637],[103.2559,1.4639],[103.2574,1.4621]]],[[[104.0626,1.4553],[104.0687,1.4899],[104.0401,1.4656],[104.0626,1.4553]]],[[[104.0071,1.537],[104.0076,1.5318],[104.0022,1.5299],[104.0023,1.5257],[104.0,1.5205],[104.0031,1.5159],[104.0049,1.5162],[104.0046,1.5181],[104.0064,1.5173],[104.0086,1.5185],[104.0151,1.5246],[104.0153,1.53],[104.0104,1.5382],[104.0071,1.537]]],[[[104.5092,2.4691],[104.5034,2.4437],[104.5276,2.4254],[104.541,2.4531],[104.5092,2.4691]]],[[[104.5012,2.4804],[104.4938,2.4734],[104.4939,2.4712],[104.5044,2.4705],[104.5115,2.4756],[104.5123,2.4777],[104.5123,2.4797],[104.5113,2.4797],[104.5089,2.4768],[104.5032,2.4765],[104.5029,2.4799],[104.5012,2.4804]]],[[[104.3108,2.5936],[104.3403,2.561],[104.3396,2.5837],[104.3108,2.5936]]],[[[104.1039,2.9068],[104.1107,2.9084],[104.1109,2.9106],[104.1137,2.9116],[104.1144,2.9133],[104.1119,2.916],[104.1088,2.9142],[104.1068,2.9145],[104.1046,2.9167],[104.1047,2.919],[104.102,2.9199],[104.1006,2.9186],[104.1044,2.9147],[104.1049,2.9109],[104.0979,2.9115],[104.0971,2.9103],[104.1004,2.9063],[104.1039,2.9068]]],[[[103.9757,2.4535],[103.9742,2.4502],[103.9763,2.4335],[103.9812,2.4283],[103.9905,2.4255],[103.9929,2.4231],[103.9975,2.4278],[103.9893,2.4388],[103.9895,2.4419],[103.9873,2.4425],[103.9856,2.4453],[103.9859,2.4479],[103.9786,2.4552],[103.9791,2.4581],[103.975,2.4589],[103.973,2.4576],[103.9757,2.4535]]],[[[102.4893,2.0991],[102.7078,1.8535],[102.782,1.8658],[102.8935,1.8217],[102.8866,1.7922],[102.9421,1.7406],[103.0002,1.7393],[103.0605,1.7124],[103.1673,1.6329],[103.3534,1.5425],[103.4415,1.325],[103.5091,1.2662],[103.5146,1.3056],[103.5464,1.3339],[103.5356,1.372],[103.5137,1.3579],[103.5326,1.3814],[103.5046,1.3626],[103.5117,1.3797],[103.4932,1.3823],[103.5299,1.3821],[103.5357,1.4011],[103.4963,1.3895],[103.5227,1.4048],[103.4921,1.4082],[103.5121,1.4169],[103.4993,1.4297],[103.4785,1.4247],[103.4989,1.4308],[103.4819,1.4364],[103.5009,1.4546],[103.5021,1.4276],[103.5359,1.4076],[103.5287,1.43],[103.5409,1.4198],[103.5476,1.4414],[103.5238,1.4467],[103.548,1.4442],[103.5398,1.4754],[103.5783,1.4405],[103.5525,1.4548],[103.5413,1.4054],[103.5652,1.4159],[103.5467,1.4017],[103.573,1.3893],[103.5398,1.3897],[103.5578,1.3306],[103.5593,1.3502],[103.6029,1.3448],[103.6342,1.3693],[103.6747,1.4429],[103.7171,1.4663],[103.7114,1.4814],[103.76,1.4533],[103.802,1.4979],[103.8019,1.4842],[103.8657,1.4713],[103.8925,1.4353],[103.9978,1.4345],[104.0085,1.5033],[103.9965,1.5375],[103.974,1.537],[104.0055,1.5313],[104.0093,1.5503],[103.9666,1.5936],[103.9672,1.6236],[104.0333,1.5549],[104.0405,1.4959],[104.0758,1.4835],[104.059,1.4463],[104.1126,1.3939],[104.0882,1.3688],[104.1369,1.342],[104.2011,1.3371],[104.2431,1.3683],[104.2831,1.37],[104.2762,1.4285],[104.2946,1.4471],[104.2729,1.4919],[104.2823,1.5257],[104.2542,1.5639],[104.2639,1.6106],[104.2477,1.654],[104.215,1.696],[104.1613,1.8462],[104.1344,1.8458],[104.1087,1.8777],[104.1091,1.9206],[104.1304,1.9205],[104.1154,1.9645],[103.9607,2.2063],[103.959,2.246],[103.9821,2.2472],[103.9522,2.2946],[103.9609,2.3127],[103.8394,2.4349],[103.8174,2.4907],[103.8462,2.5063],[103.8222,2.5397],[103.8235,2.5831],[103.7926,2.5921],[103.7858,2.6181],[103.7615,2.6157],[103.7558,2.6507],[103.7219,2.6332],[103.6611,2.6668],[103.5962,2.6638],[103.5952,2.638],[103.6167,2.6511],[103.6268,2.606],[103.5982,2.5744],[103.6139,2.5779],[103.6174,2.5572],[103.593,2.5517],[103.5903,2.5308],[103.6239,2.5331],[103.6385,2.4875],[103.6094,2.4579],[103.3536,2.5912],[103.1516,2.5236],[102.9731,2.5947],[102.8021,2.7994],[102.7002,2.8321],[102.6306,2.6328],[102.6435,2.6022],[102.6138,2.561],[102.6185,2.4697],[102.5965,2.4554],[102.5951,2.4122],[102.54,2.3911],[102.5096,2.3423],[102.4974,2.2261],[102.4709,2.2026],[102.483,2.1784],[102.53,2.1632],[102.537,2.1354],[102.5261,2.1188],[102.4913,2.12],[102.4893,2.0991]]],[[[103.779,2.6591],[103.7737,2.6672],[103.7699,2.6703],[103.7711,2.672],[103.7687,2.6726],[103.7694,2.6766],[103.7643,2.6803],[103.7634,2.6788],[103.7658,2.669],[103.7709,2.6651],[103.7713,2.6603],[103.7759,2.6576],[103.779,2.6591]]],[[[103.892,2.6818],[103.8953,2.685],[103.8964,2.6962],[103.8898,2.7005],[103.8827,2.6991],[103.881,2.6975],[103.8814,2.6919],[103.8838,2.6847],[103.887,2.6813],[103.892,2.6818]]],[[[104.1466,2.8124],[104.1178,2.7837],[104.1229,2.7441],[104.159,2.7165],[104.2147,2.7208],[104.2233,2.7689],[104.2024,2.7994],[104.2153,2.801],[104.1686,2.8973],[104.1462,2.8699],[104.1642,2.8289],[104.1466,2.8124]]],[[[103.9124,2.6751],[103.9226,2.6951],[103.9034,2.6977],[103.9124,2.6751]]]]},"properties":{"iso3":"MYS","shapeId":"15666254B42356713390762","regionId":"MYS.1_1","name":"Johor"}},{"type":"Feature","geometry":{"type":"Polygon","coordinates":[[[101.6281,3.138],[101.6597,3.1146],[101.6489,3.0575],[101.6685,3.0406],[101.7141,3.0542],[101.7309,3.0364],[101.7536,3.1036],[101.7351,3.1357],[101.7507,3.1608],[101.7316,3.174],[101.7592,3.1879],[101.7403,3.2332],[101.7147,3.2122],[101.6636,3.2443],[101.6374,3.2321],[101.6191,3.1979],[101.6281,3.138]]]},"properties":{"iso3":"MYS","shapeId":"15666254B97003483933575","regionId":"MYS.4_1","name":"Kuala Lumpur"}},{"type":"Feature","geometry":{"type":"MultiPolygon","coordinates":[[[[102.3192,2.1114],[102.3243,2.1095],[102.3253,2.1039],[102.3272,2.1026],[102.3302,2.1085],[102.3345,2.1117],[102.3352,2.116],[102.3285,2.1154],[102.3249,2.1175],[102.3192,2.1114]]],[[[102.5929,2.4104],[102.3683,2.4894],[102.2796,2.4583],[102.1788,2.4981],[102.1419,2.4571],[102.0623,2.455],[102.0513,2.4216],[102.0284,2.4335],[101.9701,2.3873],[102.0575,2.3403],[102.1544,2.2168],[102.1858,2.2189],[102.1895,2.2001],[102.4893,2.0991],[102.4913,2.12],[102.5261,2.1188],[102.537,2.1354],[102.53,2.1632],[102.483,2.1784],[102.4709,2.2026],[102.4974,2.2261],[102.5096,2.3423],[102.54,2.3911],[102.5929,2.4104]]]]},"properties":{"iso3":"MYS","shapeId":"15666254B45695250728659","regionId":null,"name":"Malacca"}},{"type":"Feature","geometry":{"type":"Polygon","coordinates":[[[101.7125,2.5953],[101.7559,2.6035],[101.7955,2.5734],[101.7902,2.522],[101.8207,2.5196],[101.8478,2.4809],[101.8536,2.4026],[101.9268,2.4237],[101.9761,2.3899],[102.0284,2.4335],[102.0513,2.4216],[102.0623,2.455],[102.1419,2.4571],[102.1788,2.4981],[102.2796,2.4583],[102.3683,2.4894],[102.5929,2.4104],[102.5965,2.4554],[102.6185,2.4697],[102.6138,2.561],[102.6435,2.6022],[102.6306,2.6328],[102.701,2.834],[102.695,2.873],[102.4843,3.0077],[102.3894,3.1172],[102.2534,3.1478],[102.1412,3.1972],[102.0623,3.166],[102.0442,3.2257],[101.9809,3.2394],[101.9751,3.2712],[101.938,3.2878],[101.915,3.2568],[101.9515,3.2137],[101.9422,3.1838],[101.9658,3.1391],[101.9504,3.1127],[101.9707,3.0324],[101.9429,3.0166],[101.8829,2.8669],[101.7515,2.8695],[101.7621,2.7029],[101.7303,2.6191],[101.7037,2.6089],[101.7125,2.5953]]]},"properties":{"iso3":"MYS","shapeId":"15666254B60207109163985","regionId":"MYS.7_1","name":"Negeri Sembilan"}},{"type":"Feature","geometry":{"type":"MultiPolygon","coordinates":[[[[117.6292,4.2016],[117.6355,4.1844],[117.6374,4.1843],[117.6441,4.1894],[117.639,4.1966],[117.6292,4.2016]]],[[[117.8998,4.1661],[117.8112,4.2024],[117.7531,4.2577],[117.6805,4.2645],[117.6259,4.2165],[117.684,4.1655],[117.8998,4.1661]]],[[[118.6532,4.3903],[118.648,4.3833],[118.6535,4.3826],[118.6602,4.3849],[118.665,4.3885],[118.6635,4.3915],[118.6532,4.3903]]],[[[118.6442,4.4153],[118.6842,4.4408],[118.7344,4.4386],[118.7515,4.4614],[118.6878,4.4757],[118.6859,4.491],[118.6269,4.4845],[118.6509,4.4542],[118.6442,4.4153]]],[[[118.5956,4.5524],[118.6032,4.556],[118.6102,4.5543],[118.6138,4.5577],[118.6113,4.5661],[118.6039,4.5647],[118.6025,4.5625],[118.6035,4.5592],[118.5956,4.5524]]],[[[118.5218,4.5413],[118.5762,4.549],[118.5826,4.5776],[118.5218,4.5413]]],[[[118.3237,4.6547],[118.5148,4.5954],[118.5337,4.5971],[118.538,4.6195],[118.5529,4.5866],[118.5864,4.625],[118.5165,4.6616],[118.4976,4.641],[118.4923,4.6747],[118.4642,4.6994],[118.4123,4.7115],[118.3895,4.699],[118.4382,4.6901],[118.4329,4.664],[118.3237,4.6547]]],[[[118.4607,4.7047],[118.4781,4.7192],[118.4533,4.7213],[118.4607,4.7047]]],[[[118.3919,4.7579],[118.3914,4.7639],[118.3857,4.7719],[118.3862,4.7743],[118.382,4.7773],[118.3814,4.776],[118.3852,4.7699],[118.38,4.7637],[118.3824,4.7637],[118.3864,4.7599],[118.3875,4.7587],[118.3866,4.7567],[118.3908,4.7567],[118.3919,4.7579]]],[[[118.3692,4.8001],[118.3799,4.7806],[118.4176,4.7844],[118.3594,4.8072],[118.3692,4.8001]]],[[[118.3144,4.798],[118.3271,4.7996],[118.3096,4.81],[118.3144,4.798]]],[[[118.3114,4.9671],[118.3138,4.9486],[118.3859,4.9794],[118.3452,4.9757],[118.3336,4.9913],[118.336,4.9669],[118.3114,4.9671]]],[[[119.108,5.4383],[119.1494,5.4547],[119.1145,5.4612],[119.108,5.4383]]],[[[115.634,5.7272],[115.6704,5.7103],[115.6569,5.7345],[115.634,5.7272]]],[[[118.0944,5.7663],[118.1221,5.7804],[118.093,5.7817],[118.0944,5.7663]]],[[[117.9156,5.7868],[117.9741,5.7417],[118.0154,5.7545],[118.0165,5.7739],[118.003,5.766],[118.0108,5.7757],[117.9811,5.7926],[117.9156,5.7868]]],[[[118.1886,5.8159],[118.23,5.8374],[118.1708,5.8495],[118.1526,5.8213],[118.1886,5.8159]]],[[[118.1439,5.8547],[118.1474,5.8578],[118.1472,5.8612],[118.151,5.8653],[118.1489,5.8737],[118.1451,5.879],[118.147,5.8822],[118.1398,5.8886],[118.1427,5.8828],[118.1398,5.8795],[118.1393,5.8751],[118.1422,5.8696],[118.1414,5.8631],[118.1439,5.8547]]],[[[118.0939,5.8993],[118.0962,5.899],[118.1009,5.9024],[118.0997,5.9087],[118.0961,5.909],[118.0878,5.9039],[118.0888,5.9018],[118.0939,5.8993]]],[[[118.1039,5.9135],[118.1115,5.9145],[118.1156,5.9184],[118.1156,5.9208],[118.1098,5.927],[118.1058,5.926],[118.1046,5.9229],[118.1022,5.9215],[118.1051,5.9176],[118.1039,5.9135]]],[[[117.6508,5.932],[117.6422,5.9293],[117.6363,5.9204],[117.6424,5.9188],[117.6528,5.9206],[117.6539,5.922],[117.6499,5.9264],[117.6532,5.9298],[117.6508,5.932]]],[[[117.6849,5.943],[117.6913,5.9446],[117.6942,5.9471],[117.6995,5.9569],[117.6978,5.9579],[117.6863,5.9565],[117.682,5.9497],[117.6849,5.943]]],[[[117.6632,5.9416],[117.7154,5.9824],[117.7103,6.0169],[117.6909,6.0099],[117.6881,5.9672],[117.6632,5.9416]]],[[[117.6982,6.0237],[117.7175,6.014],[117.7243,6.0331],[117.6982,6.0237]]],[[[116.0089,6.0121],[116.0313,6.0132],[116.0408,5.9917],[116.0662,5.9987],[116.0505,6.0316],[116.0295,6.024],[116.0144,6.0441],[116.0089,6.0121]]],[[[116.0717,6.0699],[116.0694,6.0684],[116.0677,6.0586],[116.0747,6.061],[116.0759,6.0657],[116.0796,6.0684],[116.0784,6.0714],[116.0804,6.0772],[116.0743,6.0735],[116.0715,6.0744],[116.0717,6.0699]]],[[[118.0186,6.1087],[118.0234,6.1109],[118.0324,6.1195],[118.0234,6.1228],[118.0194,6.1207],[118.0188,6.1169],[118.0171,6.1154],[118.0098,6.1133],[118.0144,6.1086],[118.0186,6.1087]]],[[[115.5839,6.2037],[115.5925,6.1874],[115.6084,6.1999],[115.5839,6.2037]]],[[[117.652,6.2332],[117.6475,6.2301],[117.643,6.2291],[117.6411,6.2207],[117.6386,6.217],[117.6398,6.2127],[117.6442,6.2083],[117.6449,6.2054],[117.6502,6.2087],[117.6573,6.2274],[117.6578,6.23],[117.652,6.2332]]],[[[117.7241,6.2717],[117.7275,6.2573],[117.7275,6.2515],[117.723,6.2404],[117.7254,6.2366],[117.7242,6.2286],[117.722,6.2283],[117.722,6.2265],[117.724,6.2254],[117.7265,6.226],[117.7283,6.2288],[117.7283,6.2445],[117.7304,6.2532],[117.7291,6.262],[117.7241,6.2717]]],[[[116.3681,6.7077],[116.3717,6.7098],[116.3665,6.7081],[116.3598,6.7131],[116.3487,6.7157],[116.3473,6.717],[116.3484,6.7203],[116.3422,6.7195],[116.3387,6.7169],[116.3417,6.7172],[116.3432,6.7159],[116.3445,6.7132],[116.344,6.7092],[116.3485,6.7093],[116.3579,6.7055],[116.3648,6.7058],[116.3681,6.7077]]],[[[117.395,6.6754],[117.3547,6.6822],[117.3253,6.6583],[117.3992,6.619],[117.4752,6.655],[117.4814,6.6424],[117.513,6.673],[117.4718,6.7576],[117.3904,6.7416],[117.3945,6.7134],[117.4534,6.6893],[117.4229,6.6843],[117.4323,6.67],[117.395,6.6754]]],[[[117.2582,6.8232],[117.2576,6.8215],[117.2594,6.8216],[117.2636,6.8162],[117.2682,6.8223],[117.2771,6.8243],[117.2879,6.8334],[117.2882,6.8406],[117.2726,6.8331],[117.2649,6.8258],[117.2582,6.8232]]],[[[117.1965,6.9746],[117.1996,6.9741],[117.2022,6.9711],[117.2037,6.9711],[117.2094,6.9753],[117.2094,6.9775],[117.2073,6.9803],[117.2007,6.9811],[117.1955,6.9785],[117.1953,6.9753],[117.1965,6.9746]]],[[[115.6709,4.1161],[115.7049,4.1985],[115.7307,4.1939],[115.7653,4.2502],[115.8011,4.2259],[115.8292,4.2404],[115.8243,4.2623],[115.8695,4.3005],[115.8719,4.3817],[115.9011,4.3949],[115.9299,4.3542],[115.9758,4.3582],[116.035,4.33],[116.039,4.2949],[116.079,4.2764],[116.1198,4.3389],[116.1628,4.3423],[116.1711,4.3931],[116.2718,4.3631],[116.3485,4.3914],[116.4327,4.3257],[116.441,4.2887],[116.4755,4.3041],[116.4857,4.3369],[116.537,4.3232],[116.536,4.3757],[116.5676,4.4078],[116.5864,4.3743],[116.6119,4.3767],[116.6301,4.3343],[116.667,4.3515],[116.7018,4.3333],[116.7521,4.389],[116.7897,4.3379],[116.8109,4.3512],[116.8402,4.3272],[116.9077,4.3687],[116.965,4.338],[117.0041,4.3462],[117.0193,4.3187],[117.0419,4.3468],[117.1061,4.3333],[117.1513,4.354],[117.1965,4.3358],[117.2459,4.374],[117.2962,4.3102],[117.3707,4.2858],[117.4064,4.2537],[117.4572,4.1791],[117.5293,4.1615],[117.5752,4.1813],[117.6177,4.1589],[117.6086,4.2151],[117.6585,4.2754],[117.6208,4.2952],[117.6191,4.362],[117.5868,4.3612],[117.5651,4.3951],[117.5777,4.4254],[117.5987,4.4091],[117.6443,4.435],[117.717,4.3596],[117.7875,4.3278],[117.7948,4.3918],[117.8118,4.388],[117.8072,4.3578],[117.8167,4.3673],[117.8268,4.342],[117.806,4.3445],[117.8126,4.3082],[117.8604,4.285],[117.8792,4.2447],[117.933,4.2488],[117.9965,4.2215],[118.1303,4.289],[118.2236,4.2971],[118.3341,4.3351],[118.3533,4.3159],[118.3728,4.348],[118.4144,4.3277],[118.4889,4.3601],[118.5515,4.3505],[118.5452,4.3761],[118.5963,4.3997],[118.575,4.4189],[118.5905,4.4412],[118.6098,4.403],[118.6451,4.4387],[118.6183,4.4792],[118.5709,4.5207],[118.5016,4.5166],[118.5063,4.5499],[118.435,4.6011],[118.4014,4.586],[118.3714,4.6277],[118.3107,4.6296],[118.3028,4.6561],[118.2668,4.6612],[118.2541,4.695],[118.2063,4.7305],[118.1965,4.7955],[118.1677,4.8378],[118.1286,4.8374],[118.1362,4.8644],[118.1201,4.8846],[118.1567,4.8788],[118.1626,4.9103],[118.1929,4.9213],[118.1943,4.9475],[118.2359,4.9781],[118.2829,4.9633],[118.2927,4.9956],[118.3036,4.9612],[118.3151,4.9852],[118.2994,5.0016],[118.3156,4.9972],[118.3345,5.0231],[118.408,5.0221],[118.446,4.9932],[118.4753,4.9234],[118.5186,4.9238],[118.5507,4.9594],[118.6779,4.9337],[118.8631,4.9924],[118.9285,5.0384],[119.0955,5.0767],[119.2148,5.1394],[119.2666,5.2078],[119.2675,5.2424],[119.2469,5.2647],[119.2645,5.3136],[119.2557,5.3577],[119.1947,5.4334],[119.1518,5.4512],[119.0737,5.4022],[118.9442,5.4309],[118.9415,5.399],[118.9235,5.3981],[118.935,5.4171],[118.9211,5.4385],[118.8096,5.5085],[118.8008,5.4353],[118.8045,5.5012],[118.6323,5.6427],[118.5951,5.6245],[118.594,5.5789],[118.561,5.5183],[118.5402,5.5139],[118.5552,5.5208],[118.5397,5.5337],[118.5718,5.5844],[118.5704,5.6262],[118.6011,5.6549],[118.3517,5.8271],[118.3411,5.7857],[118.3308,5.8026],[118.3081,5.7985],[118.3277,5.8164],[118.273,5.8146],[118.2382,5.842],[118.1523,5.8023],[118.1685,5.7792],[118.155,5.7669],[118.1859,5.7464],[118.1361,5.7408],[118.1486,5.6911],[118.1292,5.6646],[118.1133,5.7063],[118.0803,5.6974],[118.0592,5.7206],[117.948,5.6726],[117.9547,5.6909],[117.9308,5.7158],[117.9476,5.7327],[117.9114,5.7389],[117.9232,5.77],[117.8999,5.793],[117.996,5.8071],[118.0172,5.8579],[118.0074,5.8026],[118.0317,5.7877],[118.1345,5.8523],[118.0574,5.9242],[118.0271,5.9104],[118.0322,5.8954],[118.0146,5.9037],[118.0544,5.9267],[118.027,5.9819],[118.0462,5.9419],[118.0695,5.9587],[118.0353,6.0009],[118.0462,6.036],[118.0102,6.026],[118.0283,6.0127],[118.013,5.9966],[118.0106,6.06],[117.9839,6.0689],[117.9689,6.0355],[117.9092,5.9948],[117.8914,5.9485],[117.7588,5.9394],[117.7654,5.9047],[117.679,5.9095],[117.6134,5.8861],[117.6067,5.9208],[117.682,5.9676],[117.6799,5.9949],[117.6245,6.0268],[117.6586,6.0622],[117.6342,6.1168],[117.5936,6.1395],[117.6131,6.1455],[117.6069,6.1637],[117.5437,6.1539],[117.5815,6.1628],[117.5738,6.1836],[117.5517,6.1845],[117.5828,6.1773],[117.6066,6.2223],[117.6242,6.214],[117.6654,6.2452],[117.7065,6.2298],[117.7211,6.2463],[117.7333,6.3016],[117.716,6.411],[117.7318,6.3881],[117.7418,6.4263],[117.6566,6.4988],[117.5522,6.5401],[117.521,6.631],[117.4727,6.5587],[117.4254,6.5541],[117.3766,6.6104],[117.2913,6.6146],[117.264,6.7019],[117.2858,6.7275],[117.2183,6.8187],[117.257,6.8645],[117.2441,6.8746],[117.2587,6.8886],[117.2547,6.9416],[117.1986,6.9554],[117.1548,7.0123],[117.1328,7.0099],[117.1324,6.9844],[117.1032,6.9969],[117.0602,6.9743],[117.0623,6.9545],[117.0868,6.9482],[117.0752,6.9349],[117.0393,6.9508],[117.0271,6.934],[117.0328,6.8911],[117.0589,6.8697],[117.0511,6.8427],[117.0949,6.8087],[117.0662,6.8402],[117.0251,6.8232],[116.9926,6.7756],[117.0023,6.7517],[116.9883,6.7588],[116.9747,6.7395],[116.9826,6.7031],[116.8578,6.6149],[116.8551,6.579],[116.7741,6.5669],[116.7746,6.5845],[116.7662,6.5729],[116.7489,6.5902],[116.7548,6.629],[116.8586,6.7715],[116.8541,6.8155],[116.8686,6.8233],[116.8402,6.8371],[116.8572,6.8581],[116.7952,6.8521],[116.7888,6.8858],[116.8117,6.8691],[116.829,6.8943],[116.8514,6.8754],[116.8606,6.8932],[116.83,6.9663],[116.7415,7.0375],[116.6871,6.8959],[116.6405,6.864],[116.6435,6.8392],[116.6725,6.8199],[116.6268,6.7808],[116.642,6.7071],[116.616,6.668],[116.5702,6.6535],[116.4956,6.5332],[116.4882,6.4853],[116.3492,6.3946],[116.3656,6.3773],[116.3371,6.3885],[116.3464,6.3671],[116.32,6.3704],[116.311,6.3571],[116.328,6.3492],[116.3121,6.3402],[116.3296,6.3357],[116.3091,6.3219],[116.3328,6.3068],[116.2927,6.2968],[116.2898,6.3197],[116.2066,6.2418],[116.2849,6.2782],[116.2726,6.2417],[116.2931,6.2375],[116.2634,6.2181],[116.2752,6.2298],[116.2431,6.251],[116.1881,6.2268],[116.1377,6.1413],[116.1838,6.1436],[116.2079,6.1671],[116.2003,6.1427],[116.1318,6.1259],[116.1389,6.1014],[116.1589,6.1011],[116.1363,6.0956],[116.1176,6.1165],[116.1347,6.1404],[116.0855,6.1086],[116.102,6.0778],[116.1139,6.0986],[116.1324,6.0908],[116.1089,6.0008],[116.0809,5.9981],[116.04,5.9567],[116.0355,5.8319],[115.8999,5.7433],[115.8654,5.5726],[115.7519,5.5297],[115.659,5.5394],[115.6028,5.5705],[115.5993,5.5162],[115.5873,5.5556],[115.6209,5.6143],[115.5932,5.6319],[115.5474,5.5416],[115.3655,5.387],[115.3649,5.3285],[115.3393,5.2972],[115.3738,5.301],[115.4195,5.2658],[115.4565,5.2704],[115.4263,5.2599],[115.4965,5.2074],[115.5549,5.2034],[115.5506,5.1838],[115.572,5.1686],[115.5448,5.0702],[115.512,5.0313],[115.4664,5.0144],[115.4476,4.9794],[115.516,4.9595],[115.5931,4.9901],[115.6207,4.9654],[115.6521,4.8506],[115.6531,4.778],[115.6333,4.7683],[115.6017,4.6774],[115.5653,4.6456],[115.5455,4.5929],[115.5809,4.5177],[115.5599,4.4803],[115.5912,4.4315],[115.5871,4.3658],[115.6659,4.3257],[115.6295,4.1675],[115.644,4.1226],[115.6709,4.1161]]],[[[117.2806,7.0313],[117.3049,7.0143],[117.348,7.0493],[117.3019,7.0789],[117.2702,7.0747],[117.2623,7.0554],[117.2826,7.0476],[117.2638,7.0471],[117.2806,7.0313]]],[[[117.0441,7.0917],[117.0422,7.0925],[117.0374,7.0879],[117.0468,7.0798],[117.054,7.0818],[117.0589,7.0856],[117.054,7.091],[117.0482,7.0901],[117.0441,7.0917]]],[[[117.1349,7.1393],[117.1414,7.1251],[117.1491,7.1562],[117.117,7.1359],[117.1349,7.1393]]],[[[117.1706,7.171],[117.1627,7.1482],[117.2045,7.1749],[117.1706,7.171]]],[[[117.3215,7.2023],[117.3224,7.1998],[117.3258,7.1978],[117.342,7.1969],[117.3433,7.1987],[117.3356,7.2007],[117.3322,7.2024],[117.3311,7.2044],[117.3281,7.205],[117.3218,7.204],[117.3215,7.2023]]],[[[117.3203,7.2296],[117.3182,7.2241],[117.3208,7.2208],[117.3238,7.2227],[117.3246,7.2209],[117.3288,7.2224],[117.3333,7.2205],[117.3368,7.2234],[117.3385,7.2281],[117.3354,7.2319],[117.3301,7.2296],[117.3256,7.2296],[117.3235,7.232],[117.3203,7.2296]]],[[[117.3185,7.244],[117.2924,7.2279],[117.3063,7.2037],[117.3185,7.244]]],[[[117.3359,7.2715],[117.3356,7.2652],[117.3413,7.2604],[117.3462,7.2659],[117.3462,7.2684],[117.3383,7.2725],[117.3359,7.2715]]],[[[117.2929,7.3052],[117.2896,7.302],[117.2892,7.2956],[117.2862,7.2925],[117.2872,7.2881],[117.291,7.2855],[117.2937,7.2893],[117.2935,7.2963],[117.2976,7.2976],[117.2992,7.3006],[117.2966,7.3041],[117.297,7.3059],[117.2952,7.3065],[117.2929,7.3052]]],[[[116.8551,7.2064],[116.8605,7.1927],[116.8766,7.2048],[116.8602,7.2088],[116.8895,7.2007],[116.8852,7.2233],[116.8624,7.2144],[116.8784,7.2365],[116.8963,7.2249],[116.8972,7.2486],[116.9371,7.2302],[116.954,7.2476],[116.9866,7.2422],[116.9687,7.2926],[116.9976,7.3021],[117.0154,7.2745],[117.0106,7.3539],[116.9314,7.291],[116.8874,7.289],[116.8551,7.2064]]],[[[117.0587,7.1284],[117.0754,7.1003],[117.0891,7.1395],[117.1712,7.1852],[117.2212,7.1851],[117.2466,7.2247],[117.2412,7.1862],[117.2578,7.1878],[117.2831,7.2331],[117.2804,7.249],[117.2614,7.2454],[117.2777,7.2635],[117.2623,7.2767],[117.295,7.3253],[117.2787,7.3519],[117.1514,7.3518],[117.1235,7.3158],[117.0611,7.2933],[117.0539,7.1873],[117.0752,7.1772],[117.0587,7.1284]]]]},"properties":{"iso3":"MYS","shapeId":"15666254B50935235229272","regionId":"MYS.13_1","name":"Sabah"}},{"type":"Feature","geometry":{"type":"MultiPolygon","coordinates":[[[[110.2975,1.6635],[110.3018,1.6634],[110.301,1.6717],[110.2938,1.6774],[110.2893,1.6788],[110.2883,1.6764],[110.2893,1.6713],[110.2936,1.6657],[110.2975,1.6635]]],[[[111.3456,2.3701],[111.3662,2.3478],[111.3806,2.3717],[111.4226,2.3823],[111.3782,2.489],[111.3889,2.7184],[111.3309,2.8019],[111.2886,2.7458],[111.28,2.6707],[111.3108,2.5131],[111.3014,2.4351],[111.3398,2.4043],[111.3456,2.3701]]],[[[111.394,2.7178],[111.4051,2.7659],[111.3833,2.7529],[111.394,2.7178]]],[[[115.4476,4.9794],[115.4199,4.9765],[115.3872,4.9153],[115.3471,4.8934],[115.2466,4.9148],[115.2228,4.9661],[115.1943,4.9655],[115.1937,4.9285],[115.155,4.911],[115.1496,4.872],[115.1836,4.8668],[115.2349,4.8034],[115.259,4.6549],[115.2846,4.6332],[115.2723,4.4477],[115.3636,4.3448],[115.3306,4.2984],[115.2959,4.338],[115.2458,4.3412],[115.2393,4.3661],[115.0906,4.3854],[115.1043,4.4146],[115.0949,4.4917],[115.0411,4.6195],[115.0512,4.6507],[115.0291,4.6992],[115.0434,4.7312],[115.022,4.7482],[115.0552,4.7904],[115.0182,4.8011],[115.025,4.8966],[114.9885,4.8727],[114.9713,4.8082],[114.8963,4.8161],[114.8508,4.7914],[114.8288,4.7474],[114.77,4.7247],[114.8023,4.6754],[114.8285,4.4313],[114.8828,4.4254],[114.8802,4.3707],[114.814,4.2571],[114.8569,4.2782],[114.7938,4.1636],[114.8088,4.1572],[114.7933,4.1255],[114.7185,4.0437],[114.6492,4.0062],[114.6103,4.0038],[114.6273,4.0303],[114.5538,4.0823],[114.5449,4.126],[114.4951,4.1472],[114.4507,4.2779],[114.4224,4.2531],[114.3164,4.2636],[114.333,4.3487],[114.3066,4.3662],[114.308,4.4154],[114.2601,4.507],[114.1991,4.5314],[114.1626,4.5734],[113.9724,4.5986],[113.9966,4.4398],[113.9258,4.2522],[113.6839,3.945],[113.4333,3.7558],[113.3731,3.6227],[113.2972,3.5459],[113.306,3.5145],[113.1897,3.4133],[113.1279,3.321],[113.0642,3.2803],[113.074,3.2412],[113.0548,3.2431],[113.0673,3.2307],[113.008,3.1604],[112.9237,3.113],[112.8016,3.0837],[112.8198,3.0592],[112.7842,3.0856],[112.5836,3.0142],[111.6778,2.8355],[111.7235,2.8018],[111.6387,2.8493],[111.594,2.7902],[111.4345,2.7018],[111.3969,2.5341],[111.4444,2.4993],[111.4372,2.4823],[111.3921,2.4869],[111.419,2.4099],[111.4717,2.3729],[111.3893,2.3645],[111.3593,2.3362],[111.3299,2.3686],[111.3097,2.3593],[111.3279,2.3911],[111.2599,2.4171],[111.2512,2.4377],[111.1868,2.3695],[111.188,2.2506],[111.2075,2.2142],[111.1589,2.1579],[111.1802,2.137],[111.2381,2.1502],[111.2494,2.1332],[111.2099,2.0943],[111.0856,1.7573],[111.1435,1.6978],[111.1397,1.6779],[111.0348,1.674],[110.9943,1.5729],[110.9955,1.5243],[111.0369,1.5068],[111.064,1.4471],[111.1138,1.4245],[111.1018,1.3951],[111.0498,1.4119],[110.9935,1.4863],[110.9408,1.5211],[110.8091,1.5743],[110.7705,1.5671],[110.765,1.5108],[110.743,1.5118],[110.7209,1.5513],[110.6214,1.5944],[110.5336,1.5804],[110.4788,1.659],[110.5006,1.7102],[110.5264,1.7236],[110.5138,1.7412],[110.4432,1.7273],[110.4217,1.6787],[110.3769,1.69],[110.3535,1.7173],[110.3357,1.8061],[110.3026,1.7389],[110.3182,1.7079],[110.2944,1.6858],[110.2991,1.6413],[110.331,1.6378],[110.2934,1.6295],[110.3367,1.6236],[110.3172,1.6205],[110.3352,1.6156],[110.318,1.5938],[110.288,1.6316],[110.3032,1.6562],[110.2777,1.6831],[110.2867,1.7074],[110.2079,1.6927],[110.2482,1.6686],[110.2569,1.628],[110.2356,1.6502],[110.2347,1.6237],[110.2255,1.6505],[110.243,1.6668],[110.2054,1.6781],[110.1963,1.7064],[109.9989,1.6961],[109.8899,1.7206],[109.8533,1.7855],[109.7884,1.8082],[109.7862,1.7833],[109.7754,1.8179],[109.6811,1.861],[109.6474,1.9317],[109.65,1.982],[109.6665,1.9849],[109.6461,2.0108],[109.6578,2.0396],[109.645,2.0814],[109.6271,1.9909],[109.5603,1.9712],[109.5644,1.9366],[109.538,1.9267],[109.5861,1.7919],[109.6363,1.8054],[109.6854,1.7824],[109.6606,1.6931],[109.6622,1.6188],[109.7989,1.4995],[109.8068,1.4658],[109.8393,1.4861],[109.8357,1.4225],[109.9308,1.425],[109.962,1.4034],[109.9794,1.2983],[110.0649,1.2645],[110.0637,1.2086],[110.0858,1.2169],[110.0971,1.1977],[110.1922,1.183],[110.2092,1.1184],[110.2414,1.1174],[110.2626,1.0564],[110.2865,1.0442],[110.2777,0.9956],[110.3243,0.9934],[110.339,1.0129],[110.3591,0.9833],[110.3954,0.9965],[110.4055,0.9527],[110.4386,0.944],[110.446,0.908],[110.5758,0.8538],[110.6282,0.8721],[110.6332,0.9089],[110.6677,0.876],[110.7225,0.908],[110.7553,0.9],[110.7689,0.932],[110.8048,0.9005],[110.8088,0.9495],[110.8599,0.9504],[110.9055,1.0284],[111.142,1.0524],[111.1976,1.0648],[111.2249,1.0927],[111.2545,1.0635],[111.405,1.0094],[111.4892,1.0344],[111.54,0.9488],[111.5481,0.9784],[111.5768,0.9745],[111.5953,1.0083],[111.6667,1.0428],[111.7138,1.0259],[111.7163,1.0075],[111.7619,1.0212],[111.7755,0.9991],[111.826,0.9854],[111.8663,1.0091],[111.8804,1.0659],[111.928,1.0879],[111.9351,1.1184],[112.1539,1.1418],[112.1417,1.1856],[112.1683,1.219],[112.1584,1.2495],[112.2261,1.384],[112.195,1.4109],[112.208,1.4501],[112.2764,1.4663],[112.3186,1.5048],[112.4305,1.5228],[112.5004,1.5801],[112.6603,1.5686],[112.6774,1.5523],[112.7759,1.5615],[112.8423,1.537],[112.8848,1.5876],[112.9751,1.5635],[113.003,1.581],[113.0585,1.5585],[113.0708,1.5295],[113.0317,1.4928],[113.0403,1.4736],[112.9821,1.4496],[112.9747,1.4087],[113.0189,1.4042],[113.1063,1.445],[113.1413,1.3934],[113.1815,1.3795],[113.2328,1.3975],[113.3258,1.3769],[113.4191,1.2855],[113.5445,1.3198],[113.5819,1.3063],[113.63,1.216],[113.6646,1.2148],[113.7029,1.2627],[113.81,1.2989],[113.831,1.3472],[113.8148,1.3638],[113.9372,1.4156],[113.9757,1.4501],[114.1431,1.4648],[114.2128,1.4102],[114.2401,1.4472],[114.3011,1.4563],[114.4093,1.5209],[114.5669,1.4277],[114.611,1.5008],[114.6142,1.5742],[114.6488,1.5896],[114.7111,1.6715],[114.714,1.7853],[114.6919,1.8082],[114.7261,1.8326],[114.7163,1.8563],[114.7437,1.8695],[114.7919,1.8503],[114.8164,1.8931],[114.8787,1.9152],[114.8476,1.9526],[114.8787,2.0386],[114.8088,2.0228],[114.7931,2.0503],[114.8105,2.1004],[114.7802,2.1445],[114.7795,2.1992],[114.7998,2.2505],[114.864,2.272],[114.9148,2.2593],[114.9665,2.2952],[114.9463,2.3191],[114.9582,2.3685],[114.9937,2.351],[115.0339,2.3942],[115.0482,2.3893],[115.0463,2.4075],[115.0907,2.4056],[115.0995,2.4429],[115.1355,2.476],[115.1947,2.4713],[115.2374,2.506],[115.2328,2.536],[115.2122,2.5391],[115.1716,2.6063],[115.1099,2.581],[115.0868,2.6042],[115.1172,2.6472],[115.0921,2.6984],[115.1411,2.7443],[115.1529,2.7867],[115.0897,2.8232],[115.1511,2.8722],[115.1515,2.9138],[115.2491,2.9667],[115.2855,3.0496],[115.335,2.9737],[115.4064,2.9823],[115.4291,3.0172],[115.4533,3.0285],[115.4836,3.0146],[115.51,3.0427],[115.519,3.1136],[115.5674,3.1622],[115.5199,3.2036],[115.5382,3.3633],[115.5796,3.4502],[115.604,3.4476],[115.6185,3.4095],[115.6522,3.44],[115.611,3.5126],[115.606,3.5761],[115.5761,3.6108],[115.5794,3.7469],[115.6196,3.8689],[115.5584,3.9192],[115.581,3.9415],[115.6162,3.9378],[115.65,3.9888],[115.6779,4.1065],[115.644,4.1226],[115.6299,4.1785],[115.636,4.2378],[115.6715,4.2985],[115.6593,4.336],[115.6128,4.3415],[115.5871,4.3658],[115.5912,4.4315],[115.5599,4.4803],[115.5809,4.5177],[115.5455,4.5929],[115.5653,4.6456],[115.6017,4.6774],[115.6333,4.7683],[115.6531,4.778],[115.6521,4.8506],[115.6207,4.9654],[115.5931,4.9901],[115.516,4.9595],[115.4476,4.9794]]]]},"properties":{"iso3":"MYS","shapeId":"15666254B8535925993004","regionId":"MYS.14_1","name":"Sarawak"}},{"type":"Feature","geometry":{"type":"Polygon","coordinates":[[[101.6913,5.7551],[101.6954,5.7054],[101.6602,5.6715],[101.6541,5.6127],[101.6866,5.5856],[101.655,5.5265],[101.6919,5.5043],[101.7453,5.5101],[101.7382,5.3991],[101.7523,5.379],[101.6735,5.3325],[101.6104,5.3544],[101.5765,5.3351],[101.574,5.2976],[101.5466,5.27],[101.5214,5.2768],[101.5105,5.2065],[101.486,5.1798],[101.4854,5.0964],[101.4665,5.0831],[101.448,5.0049],[101.4246,4.9914],[101.4545,4.9327],[101.4465,4.8678],[101.403,4.852],[101.4134,4.8128],[101.3973,4.7727],[101.3746,4.7716],[101.3887,4.7308],[101.334,4.7074],[101.3729,4.6259],[101.4113,4.6272],[101.4676,4.5858],[101.4807,4.6121],[101.5225,4.6239],[101.5489,4.5893],[101.622,4.559],[101.6609,4.5748],[101.6715,4.6056],[101.7633,4.6341],[101.7742,4.7605],[101.7999,4.7735],[101.8208,4.7611],[101.8216,4.7294],[101.8399,4.7325],[101.8462,4.6969],[101.8865,4.684],[101.9008,4.6205],[101.9429,4.6812],[101.9486,4.7678],[101.9632,4.7759],[101.9848,4.7509],[102.0001,4.7732],[102.0156,4.7425],[102.022,4.7534],[102.0475,4.7353],[102.1136,4.7725],[102.1296,4.7224],[102.2211,4.6377],[102.2311,4.6619],[102.2684,4.6726],[102.3143,4.6473],[102.3408,4.6535],[102.3769,4.7247],[102.4447,4.7234],[102.4974,4.6788],[102.5497,4.7214],[102.5997,4.6983],[102.5906,4.7491],[102.6052,4.7923],[102.6523,4.7719],[102.6611,4.7838],[102.6399,4.825],[102.6491,4.8501],[102.5687,4.9041],[102.5013,4.9118],[102.5182,4.9698],[102.4955,5.0],[102.5159,5.0332],[102.4969,5.0838],[102.5231,5.1168],[102.4617,5.1717],[102.4086,5.1882],[102.4111,5.2994],[102.4382,5.3709],[102.3815,5.4309],[102.3986,5.4443],[102.3783,5.5248],[102.4054,5.5473],[102.3773,5.6941],[102.5326,5.8495],[102.4695,5.9189],[102.3455,6.1686],[102.2375,6.2181],[102.1606,6.2142],[102.0913,6.2442],[102.0776,6.1979],[102.0893,6.1385],[102.0539,6.08],[101.978,6.0311],[101.9294,5.9487],[101.938,5.8612],[101.8843,5.8377],[101.8664,5.7907],[101.8364,5.7893],[101.8244,5.7331],[101.7541,5.797],[101.7181,5.7878],[101.7144,5.7634],[101.6913,5.7551]]]},"properties":{"iso3":"MYS","shapeId":"15666254B53975248776023","regionId":"MYS.3_1","name":"Kelantan"}},{"type":"Feature","geometry":{"type":"Polygon","coordinates":[[[101.6805,2.8805],[101.7075,2.9293],[101.7327,2.9292],[101.7309,2.9548],[101.6998,2.9679],[101.7083,2.9824],[101.6628,2.9643],[101.6747,2.9468],[101.6597,2.8991],[101.6805,2.8805]]]},"properties":{"iso3":"MYS","shapeId":"15666254B54729125478011","regionId":null,"name":"Putrajaya"}},{"type":"Feature","geometry":{"type":"MultiPolygon","coordinates":[[[[103.6731,4.8033],[103.6822,4.7932],[103.6904,4.8116],[103.6731,4.8033]]],[[[103.2605,5.2222],[103.2633,5.2131],[103.2668,5.2128],[103.2689,5.2102],[103.2705,5.2145],[103.2694,5.2176],[103.2706,5.2191],[103.2682,5.2226],[103.2691,5.2239],[103.2676,5.2315],[103.2667,5.2282],[103.2615,5.2248],[103.2605,5.2222]]],[[[103.0561,5.6178],[103.0597,5.6146],[103.0593,5.6118],[103.0644,5.6106],[103.0688,5.613],[103.0714,5.6205],[103.0694,5.6257],[103.0638,5.6288],[103.0579,5.6248],[103.058,5.6206],[103.0561,5.6178]]],[[[102.889,5.8005],[102.8926,5.7966],[102.8923,5.791],[102.8976,5.7907],[102.8985,5.7889],[102.9013,5.7892],[102.9023,5.7878],[102.9029,5.7902],[102.9047,5.7913],[102.9034,5.7941],[102.9001,5.7944],[102.892,5.8035],[102.89,5.8032],[102.889,5.8005]]],[[[102.9885,5.7843],[102.9987,5.7491],[103.0132,5.7496],[103.044,5.7894],[103.0144,5.7857],[103.0188,5.8075],[103.0002,5.8178],[102.9885,5.7843]]],[[[102.6523,4.7719],[102.6721,4.7255],[102.723,4.6943],[102.8485,4.6718],[102.8745,4.6193],[102.8597,4.6052],[102.8745,4.5828],[102.8325,4.5515],[102.8544,4.499],[102.9183,4.4712],[102.9752,4.4842],[103.0219,4.4211],[103.0018,4.3774],[103.0131,4.3514],[102.9752,4.3479],[102.9302,4.2983],[102.9089,4.2322],[102.9231,4.1938],[102.8976,4.1578],[102.9095,4.1265],[102.9852,4.1425],[103.0586,4.1283],[103.1149,4.1005],[103.1658,4.0439],[103.2048,4.0557],[103.2125,4.0362],[103.241,4.0368],[103.2711,3.9966],[103.2806,3.9435],[103.3244,3.9405],[103.3339,3.9683],[103.3043,4.12],[103.3232,4.2062],[103.4407,4.2025],[103.4914,4.3106],[103.4446,4.4695],[103.4531,4.514],[103.4754,4.528],[103.4394,4.6381],[103.4492,4.6871],[103.4225,4.7656],[103.4394,4.7815],[103.1154,5.3958],[102.9601,5.5338],[102.8504,5.5751],[102.7004,5.6957],[102.595,5.8125],[102.5326,5.8495],[102.3773,5.6941],[102.4054,5.5473],[102.3776,5.5208],[102.3986,5.4443],[102.3825,5.414],[102.4382,5.3709],[102.4111,5.2994],[102.4086,5.1882],[102.4617,5.1717],[102.5231,5.1168],[102.4969,5.0838],[102.5159,5.0332],[102.4955,5.0],[102.5182,4.9698],[102.5013,4.9118],[102.5687,4.9041],[102.6449,4.8587],[102.6399,4.825],[102.6633,4.792],[102.6523,4.7719]]],[[[102.738,5.8945],[102.7698,5.8846],[102.7598,5.9246],[102.738,5.8945]]],[[[102.7146,5.8987],[102.7323,5.9006],[102.7265,5.9377],[102.7146,5.8987]]]]},"properties":{"iso3":"MYS","shapeId":"15666254B71460903090065","regionId":null,"name":"Terengganu"}},{"type":"Feature","geometry":{"type":"Polygon","coordinates":[[[101.915,3.2568],[101.938,3.2878],[101.973,3.2734],[101.9809,3.2394],[102.0442,3.2257],[102.0623,3.166],[102.1412,3.1972],[102.2534,3.1478],[102.3894,3.1172],[102.4843,3.0077],[102.6887,2.8824],[102.6983,2.833],[102.8021,2.7994],[102.9731,2.5947],[103.1516,2.5236],[103.3536,2.5912],[103.6094,2.4579],[103.6385,2.4875],[103.6239,2.5331],[103.5903,2.5308],[103.593,2.5517],[103.6174,2.5572],[103.6139,2.5779],[103.5982,2.5744],[103.6268,2.606],[103.6167,2.6511],[103.6018,2.6331],[103.5906,2.654],[103.6342,2.6642],[103.4831,2.8211],[103.4311,2.9321],[103.4489,3.1041],[103.4239,3.3634],[103.475,3.5221],[103.3688,3.6451],[103.3256,3.7375],[103.3418,3.8056],[103.3714,3.8006],[103.378,3.8189],[103.3762,3.9337],[103.4013,3.9668],[103.4399,3.9628],[103.4109,3.9831],[103.4312,3.9764],[103.3854,4.1107],[103.4163,4.1716],[103.4449,4.1778],[103.4407,4.2025],[103.3232,4.2062],[103.3049,4.0923],[103.3339,3.9683],[103.3025,3.9328],[103.2806,3.9435],[103.2711,3.9966],[103.241,4.0368],[103.2125,4.0362],[103.2048,4.0557],[103.1658,4.0439],[103.1018,4.1088],[103.0054,4.1407],[102.9095,4.1265],[102.8976,4.1578],[102.9231,4.1938],[102.9089,4.2322],[102.9302,4.2983],[102.9752,4.3479],[103.0131,4.3514],[103.0018,4.3774],[103.0219,4.4211],[102.9752,4.4842],[102.9183,4.4712],[102.8544,4.499],[102.8325,4.5515],[102.8745,4.5828],[102.8597,4.6052],[102.8745,4.6193],[102.8485,4.6718],[102.723,4.6943],[102.6249,4.7859],[102.5963,4.7794],[102.5997,4.6983],[102.5497,4.7214],[102.4974,4.6788],[102.4447,4.7234],[102.3769,4.7247],[102.331,4.6483],[102.2684,4.6726],[102.2311,4.6619],[102.2211,4.6377],[102.1947,4.6493],[102.1232,4.7315],[102.1136,4.7725],[102.0475,4.7353],[102.022,4.7534],[102.0156,4.7425],[102.0001,4.7732],[101.9848,4.7509],[101.9632,4.7759],[101.9486,4.7678],[101.9429,4.6812],[101.9008,4.6205],[101.8865,4.684],[101.8462,4.6969],[101.8399,4.7325],[101.8216,4.7294],[101.8208,4.7611],[101.7999,4.7735],[101.7742,4.7605],[101.7633,4.6341],[101.6715,4.6056],[101.6609,4.5748],[101.622,4.559],[101.5489,4.5893],[101.5225,4.6239],[101.4807,4.6121],[101.4676,4.5858],[101.4113,4.6272],[101.3729,4.6259],[101.3509,4.5715],[101.3853,4.5023],[101.3346,4.433],[101.358,4.3973],[101.3868,4.4089],[101.4357,4.3874],[101.4243,4.3414],[101.4485,4.3142],[101.463,4.2473],[101.4502,4.2279],[101.5038,4.207],[101.5023,4.1314],[101.5718,4.0822],[101.5587,4.0139],[101.5718,3.8965],[101.5974,3.8753],[101.5896,3.795],[101.6098,3.7932],[101.6859,3.7097],[101.7412,3.7094],[101.8159,3.605],[101.8066,3.5495],[101.7632,3.5082],[101.7932,3.4245],[101.7593,3.3716],[101.8294,3.2914],[101.915,3.2568]]]},"properties":{"iso3":"MYS","shapeId":"15666254B34720353032971","regionId":"MYS.8_1","name":"Pahang"}},{"type":"Feature","geometry":{"type":"MultiPolygon","coordinates":[[[[99.7214,6.2084],[99.7247,6.1779],[99.7516,6.2213],[99.7418,6.2337],[99.7214,6.2084]]],[[[99.7119,6.2355],[99.7102,6.2318],[99.7122,6.2306],[99.7129,6.2278],[99.7109,6.2211],[99.7126,6.2199],[99.713,6.2168],[99.7166,6.2151],[99.7221,6.2214],[99.721,6.2277],[99.7222,6.2293],[99.7188,6.2287],[99.7168,6.2299],[99.7119,6.2355]]],[[[99.8208,6.2344],[99.8554,6.2137],[99.8613,6.252],[99.8457,6.2691],[99.8208,6.2344]]],[[[99.768,6.2176],[99.7876,6.1766],[99.8021,6.1887],[99.8148,6.168],[99.8417,6.2949],[99.7984,6.2708],[99.768,6.2176]]],[[[99.6865,6.2926],[99.6883,6.2895],[99.6933,6.2915],[99.6946,6.2906],[99.6944,6.2917],[99.6978,6.2967],[99.6986,6.294],[99.695,6.2917],[99.6967,6.2908],[99.6992,6.2913],[99.7,6.2903],[99.7005,6.2934],[99.7026,6.2946],[99.7024,6.2969],[99.7042,6.2986],[99.7037,6.304],[99.6991,6.3023],[99.6975,6.3041],[99.6943,6.3043],[99.694,6.2985],[99.6865,6.2944],[99.6865,6.2926]]],[[[99.8839,6.3114],[99.9217,6.2938],[99.934,6.3185],[99.8839,6.3114]]],[[[99.9084,6.4121],[99.9106,6.4049],[99.9129,6.4018],[99.9141,6.403],[99.9128,6.4049],[99.9158,6.4169],[99.9151,6.4234],[99.9194,6.4351],[99.9193,6.4383],[99.9147,6.4296],[99.9153,6.425],[99.9132,6.4226],[99.9124,6.4237],[99.9124,6.4198],[99.9109,6.4192],[99.9114,6.4158],[99.9084,6.4121]]],[[[99.8795,6.4373],[99.9076,6.414],[99.8933,6.4521],[99.8795,6.4373]]],[[[99.6405,6.4341],[99.653,6.3623],[99.7169,6.3554],[99.7292,6.2594],[99.8067,6.3206],[99.8469,6.3219],[99.8609,6.2906],[99.8627,6.3081],[99.9146,6.3348],[99.8998,6.3654],[99.9102,6.3929],[99.8268,6.4771],[99.8187,6.4649],[99.8455,6.4447],[99.8282,6.4607],[99.7926,6.4247],[99.7473,6.4308],[99.7333,6.4093],[99.7321,6.4323],[99.6405,6.4341]]],[[[100.9984,5.7796],[100.9842,5.809],[101.0119,5.8375],[101.0258,5.913],[101.085,5.9092],[101.0951,5.9505],[101.1244,5.977],[101.107,5.9904],[101.1144,6.0391],[101.1003,6.0502],[101.1266,6.1069],[101.0587,6.1423],[101.0858,6.1787],[101.1267,6.1926],[101.1124,6.2516],[101.0153,6.2467],[100.969,6.2831],[100.9447,6.2433],[100.8989,6.2347],[100.8723,6.2646],[100.8537,6.2319],[100.8126,6.4422],[100.7532,6.4578],[100.7386,6.5104],[100.7094,6.4709],[100.6521,6.4426],[100.5625,6.496],[100.5188,6.4886],[100.4902,6.5255],[100.4207,6.5179],[100.3728,6.545],[100.3662,6.4517],[100.3256,6.4294],[100.2106,6.2972],[100.1951,6.2518],[100.2637,6.1749],[100.3502,5.9735],[100.3686,5.8137],[100.3512,5.7028],[100.3736,5.6708],[100.3323,5.6617],[100.3399,5.5771],[100.3839,5.5848],[100.4242,5.5625],[100.5285,5.5548],[100.5238,5.3638],[100.5506,5.1424],[100.4957,5.1399],[100.4991,5.1182],[100.5188,5.1169],[100.5129,5.0946],[100.541,5.0961],[100.5511,5.0755],[100.5861,5.0967],[100.6918,5.2462],[100.7306,5.2679],[100.734,5.312],[100.8174,5.3219],[100.8423,5.3491],[100.8928,5.5026],[100.9098,5.4959],[100.9385,5.5266],[100.9464,5.589],[100.9311,5.625],[100.9718,5.6524],[100.982,5.7272],[100.9514,5.7627],[100.9984,5.7796]]]]},"properties":{"iso3":"MYS","shapeId":"15666254B71428205180864","regionId":"MYS.2_1","name":"Kedah"}},{"type":"Feature","geometry":{"type":"Polygon","coordinates":[[[100.3719,6.5374],[100.3052,6.6052],[100.326,6.6214],[100.3275,6.6641],[100.2943,6.6798],[100.2907,6.7097],[100.265,6.6989],[100.2575,6.7114],[100.2404,6.6921],[100.2051,6.7261],[100.1858,6.7168],[100.1661,6.6316],[100.1836,6.5728],[100.1568,6.5793],[100.1591,6.4807],[100.1204,6.4227],[100.1909,6.2564],[100.2975,6.3984],[100.3662,6.4517],[100.3719,6.5374]]]},"properties":{"iso3":"MYS","shapeId":"15666254B44964481844598","regionId":"MYS.10_1","name":"Perlis"}},{"type":"Feature","geometry":{"type":"MultiPolygon","coordinates":[[[[100.6365,4.1572],[100.6372,4.1553],[100.6564,4.1554],[100.657,4.167],[100.6447,4.1696],[100.6372,4.1695],[100.6365,4.1572]]],[[[100.5381,4.1949],[100.5393,4.1875],[100.5475,4.1875],[100.5468,4.1909],[100.5493,4.1955],[100.5471,4.1983],[100.5474,4.2007],[100.5449,4.203],[100.5431,4.2009],[100.5402,4.2018],[100.5391,4.2001],[100.539,4.1987],[100.5428,4.1968],[100.5425,4.1949],[100.5381,4.1949]]],[[[100.5357,4.2454],[100.5451,4.212],[100.5817,4.1882],[100.5694,4.2489],[100.5405,4.2664],[100.5357,4.2454]]],[[[101.6248,3.7725],[101.5896,3.795],[101.5974,3.8753],[101.5718,3.8965],[101.5577,4.0376],[101.5718,4.0822],[101.5023,4.1314],[101.5038,4.207],[101.4502,4.2279],[101.463,4.2473],[101.4485,4.3142],[101.4243,4.3414],[101.4357,4.3874],[101.3868,4.4089],[101.358,4.3973],[101.3346,4.433],[101.3853,4.5023],[101.3509,4.5715],[101.3777,4.6417],[101.334,4.7074],[101.3887,4.7308],[101.3746,4.7716],[101.3973,4.7727],[101.4134,4.8128],[101.403,4.852],[101.4465,4.8678],[101.4545,4.9327],[101.4246,4.9914],[101.448,5.0049],[101.4665,5.0831],[101.4854,5.0964],[101.486,5.1798],[101.5105,5.2065],[101.5214,5.2768],[101.5466,5.27],[101.574,5.2976],[101.5765,5.3351],[101.6104,5.3544],[101.6735,5.3325],[101.7523,5.379],[101.7382,5.3991],[101.7453,5.5101],[101.6919,5.5043],[101.655,5.5265],[101.6866,5.5856],[101.6545,5.6108],[101.6584,5.666],[101.6954,5.7054],[101.6879,5.7819],[101.6583,5.8125],[101.6634,5.8662],[101.6233,5.8771],[101.6154,5.9109],[101.5818,5.9344],[101.5137,5.9032],[101.4859,5.8698],[101.3914,5.8757],[101.3461,5.8084],[101.2763,5.8118],[101.2494,5.7612],[101.26,5.7115],[101.1423,5.6135],[101.0602,5.7443],[101.0339,5.738],[101.0031,5.78],[100.9594,5.773],[100.9837,5.7094],[100.9718,5.6524],[100.9264,5.6102],[100.9464,5.589],[100.9385,5.5266],[100.9098,5.4959],[100.8928,5.5026],[100.8423,5.3491],[100.8174,5.3219],[100.734,5.312],[100.7306,5.2679],[100.6918,5.2462],[100.6604,5.1828],[100.5628,5.0787],[100.5129,5.0946],[100.5188,5.1169],[100.4925,5.1329],[100.389,5.1284],[100.3608,5.0878],[100.3799,5.077],[100.4024,4.9961],[100.4183,4.9975],[100.4429,4.916],[100.4684,4.9307],[100.5033,4.9155],[100.482,4.9009],[100.4853,4.867],[100.5168,4.8609],[100.549,4.8816],[100.5493,4.8632],[100.5726,4.8631],[100.5495,4.8465],[100.566,4.79],[100.6271,4.7947],[100.6189,4.7643],[100.5824,4.7626],[100.5799,4.7154],[100.5956,4.6692],[100.6483,4.6848],[100.6575,4.6731],[100.6021,4.6376],[100.5825,4.5673],[100.6575,4.5648],[100.6245,4.5305],[100.6179,4.4454],[100.5855,4.4242],[100.5947,4.3988],[100.5581,4.3089],[100.5862,4.2946],[100.6162,4.1646],[100.6879,4.1634],[100.7625,4.0852],[100.7621,4.005],[100.7523,3.992],[100.7146,4.0039],[100.7013,3.9746],[100.7031,3.9053],[100.7268,3.8603],[100.8314,3.8496],[100.9424,3.8702],[100.9401,3.8323],[100.9787,3.8156],[100.9589,3.793],[100.9659,3.7725],[100.9834,3.7717],[100.9949,3.8015],[101.0235,3.806],[101.0279,3.7822],[101.059,3.7956],[101.0574,3.7541],[101.0897,3.7829],[101.1017,3.7524],[101.0742,3.7589],[101.0757,3.7286],[101.1094,3.7472],[101.1221,3.7363],[101.1326,3.764],[101.1351,3.7344],[101.1536,3.7285],[101.1551,3.7447],[101.1637,3.7249],[101.167,3.749],[101.1704,3.7277],[101.1914,3.7312],[101.1748,3.7101],[101.1976,3.7279],[101.2126,3.7077],[101.25,3.7179],[101.245,3.6833],[101.264,3.6683],[101.3399,3.6924],[101.3267,3.7862],[101.3566,3.803],[101.5193,3.6773],[101.5781,3.7201],[101.5812,3.77],[101.6248,3.7725]]]]},"properties":{"iso3":"MYS","shapeId":"15666254B15173108486297","regionId":"MYS.9_1","name":"Perak"}},{"type":"Feature","geometry":{"type":"MultiPolygon","coordinates":[[[[100.3399,5.5771],[100.3782,5.4912],[100.3634,5.3933],[100.4054,5.3387],[100.4191,5.2814],[100.4061,5.2648],[100.4296,5.2092],[100.4293,5.1654],[100.389,5.1284],[100.5435,5.1387],[100.5285,5.5548],[100.4242,5.5625],[100.3839,5.5848],[100.3399,5.5771]]],[[[100.307,5.31],[100.3089,5.3018],[100.3109,5.3009],[100.3138,5.3054],[100.313,5.3121],[100.3228,5.3159],[100.3258,5.3185],[100.3266,5.3296],[100.3248,5.3301],[100.3232,5.3363],[100.3212,5.3365],[100.3199,5.3334],[100.3165,5.3314],[100.3152,5.3265],[100.3127,5.3255],[100.307,5.31]]],[[[100.1751,5.4722],[100.1957,5.4146],[100.1824,5.269],[100.2284,5.2871],[100.2823,5.2577],[100.317,5.3837],[100.3462,5.421],[100.3104,5.4388],[100.3138,5.462],[100.2713,5.4789],[100.2108,5.4587],[100.1751,5.4722]]]]},"properties":{"iso3":"MYS","shapeId":"15666254B92074897121205","regionId":null,"name":"Penang"}},{"type":"Feature","geometry":{"type":"MultiPolygon","coordinates":[[[[115.1315,5.217],[115.1469,5.2167],[115.1226,5.2339],[115.1315,5.217]]],[[[115.3126,5.2804],[115.3069,5.2678],[115.3267,5.2634],[115.3126,5.2804]]],[[[115.1914,5.3311],[115.1573,5.2509],[115.214,5.2797],[115.2411,5.2416],[115.2344,5.285],[115.2523,5.2719],[115.2696,5.2889],[115.244,5.3522],[115.252,5.3932],[115.1914,5.3311]]]]},"properties":{"iso3":"MYS","shapeId":"15666254B4265207353082","regionId":"MYS.5_1","name":"Labuan"}}]}