{"type":"FeatureCollection","features":[{"type":"Feature","geometry":{"type":"Polygon","coordinates":[[[6.3152,53.0941],[6.3444,53.0871],[6.4078,53.1781],[6.4823,53.2037],[6.5305,53.1956],[6.6348,53.1062],[6.7433,53.1166],[7.0456,52.9159],[7.0148,52.873],[7.0927,52.8382],[7.2174,53.007],[7.2028,53.1134],[7.1789,53.1383],[7.2037,53.1766],[7.2275,53.1803],[7.208,53.1885],[7.217,53.2148],[7.1876,53.3322],[7.0059,53.3265],[6.9159,53.4574],[6.8576,53.4687],[6.6371,53.5764],[6.4286,53.566],[6.3525,53.5397],[6.3521,53.5217],[6.4187,53.5056],[6.3516,53.497],[6.3504,53.4463],[6.194,53.4133],[6.1679,53.3908],[6.1786,53.3648],[6.287,53.3414],[6.2805,53.3126],[6.2944,53.3082],[6.218,53.2419],[6.23,53.2178],[6.1778,53.1679],[6.1753,53.1355],[6.3152,53.0941]]]},"properties":{"iso3":"NLD","shapeId":"6811986B22599492826393","regionId":"NLD.5_1","name":"Groningen"}},{"type":"Feature","geometry":{"type":"Polygon","coordinates":[[[6.3152,53.0941],[6.3053,53.0812],[6.3678,53.0674],[6.3625,53.034],[6.4276,52.9718],[6.3934,52.9328],[6.3345,52.9066],[6.2566,52.9276],[6.1198,52.8542],[6.2017,52.7937],[6.1206,52.7525],[6.164,52.6795],[6.325,52.67],[6.3838,52.6122],[6.4312,52.6284],[6.5186,52.6141],[6.5139,52.6463],[6.6145,52.674],[6.7085,52.6487],[6.7072,52.6268],[6.7897,52.6528],[7.0557,52.6434],[7.0716,52.8104],[7.0927,52.8382],[7.0148,52.873],[7.0456,52.9159],[6.7433,53.1166],[6.6348,53.1062],[6.5815,53.1636],[6.5637,53.1576],[6.5305,53.1956],[6.4823,53.2037],[6.4078,53.1781],[6.3444,53.0871],[6.3152,53.0941]]]},"properties":{"iso3":"NLD","shapeId":"6811986B35805836723247","regionId":"NLD.1_1","name":"Drenthe"}},{"type":"Feature","geometry":{"type":"Polygon","coordinates":[[[5.0269,51.8586],[5.1127,51.8878],[5.1802,51.9674],[5.2103,51.9598],[5.2369,51.9788],[5.3216,51.9549],[5.4862,51.9838],[5.6058,51.9432],[5.6273,51.9524],[5.6261,51.9741],[5.592,52.0014],[5.59,52.0344],[5.5579,52.0489],[5.5503,52.1054],[5.5227,52.0775],[5.4592,52.0802],[5.5141,52.1359],[5.4799,52.1658],[5.4399,52.1712],[5.441,52.2057],[5.3932,52.2206],[5.4046,52.2496],[5.3355,52.2902],[5.266,52.2819],[5.1926,52.1778],[5.0462,52.166],[5.0213,52.2019],[5.0577,52.2354],[5.0229,52.2725],[5.0655,52.2852],[5.0244,52.2814],[5.0143,52.3037],[4.9264,52.2798],[4.9108,52.2526],[4.7946,52.2267],[4.8029,52.201],[4.8923,52.1616],[4.8745,52.1388],[4.8329,52.1448],[4.7923,52.1232],[4.8254,52.1071],[4.8298,52.0668],[4.8732,52.0687],[4.8067,52.0332],[4.8031,52.0146],[4.8472,52.018],[4.8571,52.006],[4.8178,51.9998],[4.8778,51.938],[4.9295,51.9502],[4.9734,51.8972],[4.995,51.9023],[4.9962,51.8731],[5.027,51.8819],[5.0269,51.8586]]]},"properties":{"iso3":"NLD","shapeId":"6811986B73841275384957","regionId":"NLD.11_1","name":"Utrecht"}},{"type":"Feature","geometry":{"type":"Polygon","coordinates":[[[5.4046,52.2496],[5.5333,52.2727],[5.5857,52.3599],[5.6526,52.3654],[5.8115,52.4369],[5.8643,52.5182],[5.8551,52.5508],[5.7779,52.5809],[5.778,52.6075],[5.9327,52.6149],[6.0173,52.6432],[5.9331,52.6713],[5.9648,52.6981],[5.9226,52.7507],[5.8188,52.7847],[5.7247,52.844],[5.6603,52.8313],[5.6314,52.8031],[5.3773,52.7648],[5.3611,52.6757],[5.2876,52.6917],[5.2623,52.6768],[5.2572,52.6445],[5.0604,52.5789],[5.1855,52.4156],[5.1373,52.4156],[5.0792,52.3887],[5.0793,52.3704],[5.1489,52.3187],[5.2874,52.3151],[5.4046,52.2496]]]},"properties":{"iso3":"NLD","shapeId":"6811986B59803137683520","regionId":"NLD.2_1","name":"Flevoland"}},{"type":"Feature","geometry":{"type":"Polygon","coordinates":[[[6.1198,52.8542],[6.0312,52.815],[5.9965,52.8166],[5.97,52.8424],[5.8788,52.8008],[5.8197,52.8173],[5.7952,52.8065],[5.9226,52.7507],[5.9648,52.6981],[5.9331,52.6713],[6.0173,52.6432],[5.9327,52.6149],[5.778,52.6075],[5.7779,52.5809],[5.8551,52.5508],[5.8643,52.5182],[5.8873,52.5169],[5.9256,52.4741],[6.0279,52.5096],[6.0989,52.4705],[6.1195,52.4329],[6.1108,52.4077],[6.1306,52.4],[6.1222,52.3802],[6.0785,52.3695],[6.0949,52.357],[6.0662,52.3189],[6.1013,52.3012],[6.1239,52.2515],[6.1537,52.2468],[6.1477,52.2277],[6.4138,52.2426],[6.4924,52.1774],[6.645,52.1742],[6.6734,52.1632],[6.6624,52.1302],[6.8227,52.1184],[6.8735,52.1303],[6.9081,52.176],[6.9512,52.1811],[6.9853,52.2253],[7.0658,52.2412],[7.0262,52.2873],[7.0722,52.3736],[6.9876,52.4698],[6.9417,52.4354],[6.6975,52.4863],[6.7053,52.521],[6.6809,52.5533],[6.7667,52.5635],[6.7188,52.5886],[6.7273,52.6149],[6.7008,52.6285],[6.7085,52.6487],[6.6145,52.674],[6.5139,52.6463],[6.5186,52.6141],[6.4312,52.6284],[6.3838,52.6122],[6.325,52.67],[6.164,52.6795],[6.1206,52.7525],[6.2017,52.7937],[6.1198,52.8542]]]},"properties":{"iso3":"NLD","shapeId":"6811986B65865334514334","regionId":"NLD.10_1","name":"Overijssel"}},{"type":"Feature","geometry":{"type":"Polygon","coordinates":[[[5.3355,52.2902],[5.2293,52.3253],[5.1489,52.3187],[5.0793,52.3704],[5.0792,52.3887],[5.1373,52.4156],[5.1855,52.4156],[5.0604,52.5789],[5.2572,52.6445],[5.2623,52.6768],[5.2876,52.6917],[5.3611,52.6757],[5.3773,52.7648],[5.2387,52.8741],[5.1691,52.9976],[5.051,53.1433],[4.8184,53.2143],[4.8188,53.1828],[4.6864,53.0473],[4.6871,53.0024],[4.613,52.9795],[4.6462,52.9411],[4.6294,52.8897],[4.6938,52.8834],[4.6297,52.7449],[4.5768,52.5138],[4.5547,52.4781],[4.5186,52.4671],[4.5432,52.4353],[4.4776,52.3325],[4.6117,52.3136],[4.568,52.2681],[4.557,52.2191],[4.7049,52.2338],[4.7242,52.2324],[4.7343,52.2065],[4.9108,52.2526],[4.9264,52.2798],[5.0215,52.3025],[5.0244,52.2814],[5.0655,52.2852],[5.0229,52.2725],[5.0577,52.2354],[5.0213,52.2019],[5.0462,52.166],[5.1926,52.1778],[5.266,52.2819],[5.3355,52.2902]]]},"properties":{"iso3":"NLD","shapeId":"6811986B7118592816602","regionId":"NLD.9_1","name":"Noord-Holland"}},{"type":"Feature","geometry":{"type":"Polygon","coordinates":[[[5.0269,51.8586],[4.994,51.8612],[4.9993,51.8446],[5.0314,51.8411],[5.0264,51.8189],[5.0004,51.8209],[5.0684,51.7799],[5.1376,51.7729],[5.1281,51.7376],[5.3003,51.7373],[5.3576,51.7579],[5.4032,51.8216],[5.4583,51.8103],[5.4931,51.8308],[5.6381,51.819],[5.7608,51.7535],[5.8645,51.7577],[5.8679,51.7755],[5.8934,51.7779],[5.9359,51.741],[5.9921,51.7702],[5.9466,51.8135],[5.963,51.8369],[6.0023,51.8325],[6.0635,51.8655],[6.1666,51.8407],[6.167,51.8616],[6.1034,51.8925],[6.1179,51.9017],[6.1698,51.9013],[6.2151,51.8676],[6.2799,51.8741],[6.3062,51.8491],[6.4018,51.8273],[6.409,51.8533],[6.3906,51.874],[6.4725,51.8538],[6.6842,51.9176],[6.722,51.8961],[6.8328,51.9718],[6.8266,51.9935],[6.753,52.0284],[6.6879,52.0399],[6.6947,52.0698],[6.7509,52.085],[6.7606,52.1188],[6.6624,52.1302],[6.6713,52.1657],[6.4924,52.1774],[6.4166,52.2421],[6.3819,52.2461],[6.3204,52.2257],[6.1787,52.2336],[6.1639,52.2175],[6.1013,52.3012],[6.0662,52.3189],[6.0949,52.357],[6.0785,52.3695],[6.1222,52.3802],[6.1306,52.4],[6.1108,52.4077],[6.1195,52.4329],[6.0989,52.4705],[6.0279,52.5096],[5.9256,52.4741],[5.8762,52.522],[5.8043,52.4321],[5.6526,52.3654],[5.5857,52.3599],[5.5333,52.2727],[5.4046,52.2496],[5.3932,52.2206],[5.441,52.2057],[5.4399,52.1712],[5.4799,52.1658],[5.5141,52.1359],[5.4592,52.0802],[5.5227,52.0775],[5.5503,52.1054],[5.5579,52.0489],[5.59,52.0344],[5.586,52.0118],[5.6273,51.9524],[5.6058,51.9432],[5.4862,51.9838],[5.3216,51.9549],[5.2369,51.9788],[5.2103,51.9598],[5.1802,51.9674],[5.1127,51.8878],[5.0269,51.8586]]]},"properties":{"iso3":"NLD","shapeId":"6811986B62088949697264","regionId":"NLD.4_1","name":"Gelderland"}},{"type":"Feature","geometry":{"type":"Polygon","coordinates":[[[4.7946,52.2267],[4.7343,52.2065],[4.7242,52.2324],[4.7049,52.2338],[4.557,52.2191],[4.568,52.2681],[4.6117,52.3136],[4.4776,52.3325],[4.36,52.1927],[4.12,52.0107],[3.9531,51.9891],[3.9407,51.9216],[3.9726,51.911],[3.9531,51.85],[3.8604,51.8284],[3.7737,51.7815],[3.8759,51.7477],[3.9403,51.7738],[4.0133,51.759],[4.0478,51.6944],[4.1518,51.6852],[4.275,51.6438],[4.365,51.6646],[4.4235,51.7095],[4.5149,51.6925],[4.6752,51.7242],[4.7972,51.7998],[4.9227,51.8281],[5.0264,51.8189],[5.0314,51.8411],[4.9993,51.8446],[4.994,51.8612],[5.0269,51.8586],[5.027,51.8819],[4.9962,51.8731],[4.995,51.9023],[4.9734,51.8972],[4.9295,51.9502],[4.8778,51.938],[4.8178,51.9998],[4.8571,52.006],[4.8472,52.018],[4.7987,52.0223],[4.8732,52.0687],[4.8298,52.0668],[4.8254,52.1071],[4.7923,52.1232],[4.8329,52.1448],[4.8745,52.1388],[4.8923,52.1616],[4.8029,52.201],[4.7946,52.2267]]]},"properties":{"iso3":"NLD","shapeId":"6811986B20589914738510","regionId":"NLD.14_1","name":"Zuid-Holland"}},{"type":"Feature","geometry":{"type":"Polygon","coordinates":[[[6.3525,53.5397],[6.1861,53.514],[6.126,53.5233],[6.1105,53.4965],[5.839,53.4753],[5.7034,53.4713],[5.6132,53.4939],[5.3571,53.4313],[5.1767,53.4086],[5.1618,53.3861],[5.1018,53.368],[5.0871,53.3231],[5.0271,53.3139],[4.8184,53.2143],[5.051,53.1433],[5.1691,52.9976],[5.2387,52.8741],[5.3773,52.7648],[5.6314,52.8031],[5.6603,52.8313],[5.7247,52.844],[5.7898,52.8037],[5.8197,52.8173],[5.8788,52.8008],[5.97,52.8424],[5.9965,52.8166],[6.0312,52.815],[6.2566,52.9276],[6.3345,52.9066],[6.3934,52.9328],[6.4276,52.9718],[6.3625,53.034],[6.3678,53.0674],[6.1753,53.1355],[6.1778,53.1679],[6.23,53.2178],[6.218,53.2419],[6.2944,53.3082],[6.2805,53.3126],[6.287,53.3414],[6.1786,53.3648],[6.1679,53.3908],[6.194,53.4133],[6.3504,53.4463],[6.3516,53.497],[6.415,53.4975],[6.4044,53.5209],[6.3521,53.5217],[6.3525,53.5397]]]},"properties":{"iso3":"NLD","shapeId":"6811986B16797155540126","regionId":null,"name":"Fryslân"}},{"type":"Feature","geometry":{"type":"MultiPolygon","coordinates":[[[[5.0004,51.8209],[4.9113,51.826],[4.7735,51.7933],[4.6752,51.7242],[4.5149,51.6925],[4.4235,51.7095],[4.3524,51.6594],[4.2428,51.6471],[4.1904,51.5992],[4.2352,51.554],[4.2189,51.5049],[4.2759,51.425],[4.2663,51.3865],[4.3345,51.3776],[4.3414,51.3576],[4.4314,51.3639],[4.3837,51.4211],[4.3988,51.4352],[4.3827,51.4502],[4.5382,51.4824],[4.5354,51.423],[4.6413,51.422],[4.7738,51.5051],[4.8417,51.4808],[4.844,51.4591],[4.8234,51.4486],[4.8365,51.4173],[4.7867,51.4327],[4.7666,51.4305],[4.7712,51.4149],[4.9,51.4147],[4.921,51.3937],[5.0046,51.4439],[5.0108,51.4723],[5.0388,51.487],[5.0458,51.4711],[5.0793,51.4713],[5.1046,51.4313],[5.0712,51.3935],[5.1317,51.347],[5.1344,51.3155],[5.2003,51.3227],[5.2422,51.3052],[5.226,51.2683],[5.2379,51.2614],[5.3461,51.2758],[5.4174,51.2623],[5.4876,51.2997],[5.5562,51.2666],[5.566,51.2209],[5.6188,51.2294],[5.626,51.2736],[5.672,51.3151],[5.8745,51.3533],[5.9313,51.3848],[5.8717,51.4501],[5.8382,51.5664],[6.0481,51.5585],[6.0206,51.6213],[5.9651,51.6522],[5.9553,51.7093],[5.8904,51.7237],[5.8645,51.7577],[5.7464,51.7584],[5.6381,51.819],[5.4032,51.8216],[5.3576,51.7579],[5.2482,51.7336],[5.1281,51.7376],[5.1376,51.7729],[5.0684,51.7799],[5.0004,51.8209]],[[4.94,51.4361],[4.9422,51.4365],[4.9428,51.4351],[4.941,51.4346],[4.94,51.4361]],[[4.94,51.4361],[4.9362,51.4342],[4.9399,51.4341],[4.9397,51.4307],[4.9362,51.4295],[4.9336,51.431],[4.9288,51.4305],[4.926,51.4339],[4.915,51.4354],[4.9212,51.4369],[4.9212,51.4404],[4.9192,51.4407],[4.9224,51.4427],[4.9212,51.4453],[4.9183,51.4458],[4.9193,51.4469],[4.9205,51.446],[4.923,51.4474],[4.9237,51.4439],[4.9281,51.4436],[4.9258,51.4428],[4.9283,51.4386],[4.9287,51.4416],[4.9337,51.4432],[4.9355,51.4463],[4.9355,51.4443],[4.9381,51.4447],[4.9395,51.4418],[4.9385,51.4434],[4.9381,51.4419],[4.9343,51.4421],[4.9364,51.4397],[4.9347,51.4385],[4.939,51.438],[4.9399,51.4394],[4.94,51.4361]],[[4.9435,51.4475],[4.9397,51.4466],[4.9401,51.4452],[4.9331,51.4495],[4.9476,51.4506],[4.9515,51.4537],[4.9524,51.4502],[4.9483,51.449],[4.948,51.4473],[4.9448,51.4478],[4.946,51.4491],[4.9435,51.4475]],[[4.9357,51.4093],[4.9364,51.4053],[4.9285,51.4051],[4.9324,51.4065],[4.9273,51.4082],[4.9357,51.4093]],[[4.8886,51.4247],[4.8923,51.4241],[4.8894,51.4235],[4.8886,51.4247]],[[4.84,51.4188],[4.8409,51.4175],[4.8387,51.4182],[4.84,51.4188]],[[4.9481,51.4437],[4.9439,51.4438],[4.9477,51.4457],[4.9498,51.445],[4.9481,51.4437]],[[4.9317,51.4471],[4.9333,51.4483],[4.9341,51.4474],[4.9317,51.4471]],[[4.9296,51.4495],[4.9307,51.4504],[4.9318,51.4493],[4.9296,51.4495]]],[[[4.8712,51.4113],[4.8722,51.4129],[4.8692,51.4118],[4.8712,51.4113]]],[[[4.9322,51.4388],[4.9324,51.44],[4.9306,51.4399],[4.9322,51.4388]]],[[[4.9247,51.439],[4.9241,51.4419],[4.9215,51.4392],[4.9223,51.4377],[4.9247,51.439]]]]},"properties":{"iso3":"NLD","shapeId":"6811986B61109061302483","regionId":"NLD.8_1","name":"Noord-Brabant"}},{"type":"Feature","geometry":{"type":"Polygon","coordinates":[[[5.8645,51.7577],[5.8904,51.7237],[5.9553,51.7093],[5.9651,51.6522],[6.0206,51.6213],[6.0481,51.5585],[5.8382,51.5664],[5.8717,51.4501],[5.9313,51.3848],[5.8745,51.3533],[5.672,51.3151],[5.626,51.2736],[5.6188,51.2294],[5.566,51.2209],[5.658,51.1847],[5.7491,51.1887],[5.7767,51.1785],[5.7776,51.1513],[5.8243,51.1678],[5.8558,51.1446],[5.8098,51.1184],[5.8324,51.0974],[5.796,51.0915],[5.8003,51.0612],[5.7736,51.0624],[5.7584,51.035],[5.7764,51.0233],[5.7676,50.9997],[5.7201,50.9624],[5.7588,50.9517],[5.7228,50.9092],[5.6442,50.8713],[5.654,50.8201],[5.6939,50.8115],[5.6885,50.7557],[5.7392,50.7571],[5.7736,50.7832],[5.8077,50.756],[5.8865,50.7702],[5.9016,50.7514],[6.021,50.7543],[6.0276,50.7742],[5.9757,50.8024],[6.025,50.8141],[6.0189,50.8463],[6.0742,50.8465],[6.0941,50.9207],[6.0182,50.9347],[6.0052,50.9568],[6.0265,50.9833],[5.8971,50.9749],[5.9055,51.0022],[5.8663,51.0511],[5.9132,51.0669],[5.9578,51.0347],[5.9978,51.0842],[6.1754,51.1585],[6.1388,51.1733],[6.1807,51.1864],[6.1652,51.1944],[6.0822,51.1716],[6.0727,51.2426],[6.1245,51.2747],[6.1686,51.333],[6.2264,51.3603],[6.2144,51.3896],[6.2267,51.4003],[6.2053,51.3995],[6.2236,51.475],[6.212,51.5134],[6.0914,51.6058],[6.1181,51.656],[6.0323,51.6741],[6.0261,51.7087],[6.0449,51.7169],[6.0295,51.7255],[5.9328,51.7419],[5.8934,51.7779],[5.8679,51.7755],[5.8645,51.7577]]]},"properties":{"iso3":"NLD","shapeId":"6811986B81587772601460","regionId":"NLD.7_1","name":"Limburg"}},{"type":"Feature","geometry":{"type":"Polygon","coordinates":[[[3.7737,51.7815],[3.6854,51.7336],[3.5709,51.6047],[3.4859,51.5736],[3.4526,51.6164],[3.3873,51.5925],[3.3079,51.4334],[3.3835,51.3412],[3.3584,51.315],[3.3781,51.3027],[3.377,51.276],[3.4275,51.2447],[3.5276,51.246],[3.5154,51.2872],[3.5818,51.2869],[3.59,51.306],[3.7738,51.264],[3.7955,51.2561],[3.7896,51.2159],[3.8885,51.223],[3.8864,51.2002],[4.0148,51.2451],[4.0618,51.2446],[4.1661,51.2929],[4.242,51.354],[4.2176,51.3739],[4.2774,51.376],[4.2637,51.4164],[4.2759,51.425],[4.2189,51.5049],[4.2352,51.554],[4.1904,51.5992],[4.2428,51.6471],[4.1518,51.6852],[4.0478,51.6944],[4.0133,51.759],[3.9403,51.7738],[3.8759,51.7477],[3.7737,51.7815]]]},"properties":{"iso3":"NLD","shapeId":"6811986B50931527975892","regionId":"NLD.12_1","name":"Zeeland"}}]}