{"type":"FeatureCollection","features":[{"type":"Feature","geometry":{"type":"Polygon","coordinates":[[[-69.5799,-17.3031],[-69.6056,-17.2883],[-69.5984,-17.2596],[-69.5502,-17.199],[-69.386,-17.1026],[-69.3594,-17.0308],[-69.143,-16.7491],[-69.0162,-16.6782],[-69.0321,-16.5455],[-69.0834,-16.5013],[-69.0208,-16.4234],[-69.0228,-16.3844],[-69.0854,-16.3023],[-69.1244,-16.2961],[-69.0957,-16.2715],[-68.952,-16.2879],[-68.9336,-16.2294],[-68.9685,-16.1987],[-69.0464,-16.211],[-69.2188,-16.2838],[-69.3173,-16.2787],[-69.4,-16.2174],[-69.4882,-16.2062],[-69.469,-16.1565],[-69.4128,-16.1036],[-69.4225,-16.0571],[-69.469,-16.0026],[-69.6036,-15.9721],[-69.6631,-15.9062],[-69.7328,-15.8878],[-69.7872,-15.7872],[-69.8457,-15.8088],[-69.8703,-15.8724],[-69.9421,-15.8591],[-69.9904,-15.7513],[-69.9011,-15.6826],[-69.9196,-15.6128],[-69.9021,-15.6025],[-69.8108,-15.7041],[-69.7513,-15.7195],[-69.8159,-15.582],[-69.9247,-15.4599],[-69.9144,-15.4148],[-69.8611,-15.3768],[-69.8539,-15.3307],[-69.7636,-15.3266],[-69.6877,-15.2619],[-69.6518,-15.2742],[-69.5953,-15.3666],[-69.5482,-15.3809],[-69.4414,-15.4753],[-69.3081,-15.5348],[-69.2657,-15.4587],[-69.2183,-15.4858],[-69.2215,-15.3773],[-69.1747,-15.3028],[-69.1141,-15.2683],[-69.1263,-15.2231],[-69.2018,-15.1433],[-69.2614,-15.1103],[-69.3428,-14.9747],[-69.3377,-14.8628],[-69.3145,-14.7963],[-69.238,-14.754],[-69.2272,-14.7182],[-69.2447,-14.6858],[-69.2214,-14.6293],[-69.1416,-14.5794],[-69.0818,-14.4872],[-68.9771,-14.3808],[-68.987,-14.3359],[-68.9687,-14.2611],[-68.9264,-14.2287],[-68.8241,-14.1996],[-68.8856,-14.0476],[-68.938,-14.0027],[-68.9746,-13.9329],[-68.9189,-13.8115],[-69.0219,-13.7259],[-69.046,-13.6727],[-68.9546,-13.6104],[-68.9089,-13.5456],[-68.8748,-13.3761],[-68.8391,-13.322],[-68.8308,-13.219],[-68.8605,-13.1452],[-68.847,-13.0059],[-69.6066,-13.373],[-70.2914,-13.1461],[-70.3781,-13.1454],[-70.3942,-13.1619],[-70.3781,-13.1907],[-70.3958,-13.2656],[-70.3558,-13.2859],[-70.3518,-13.3102],[-70.4208,-13.3857],[-70.5285,-13.5742],[-70.6999,-13.7023],[-70.7176,-13.7357],[-70.69,-13.8185],[-70.7005,-13.8428],[-70.8305,-13.8093],[-70.8437,-13.8257],[-70.8062,-13.9262],[-70.8325,-14.0496],[-70.7833,-14.1087],[-70.8667,-14.2079],[-70.8759,-14.3005],[-70.9658,-14.4081],[-70.9687,-14.5837],[-71.0704,-14.6509],[-71.094,-14.6954],[-71.0472,-14.7503],[-70.9684,-14.7713],[-70.956,-14.7936],[-70.9908,-15.0024],[-70.9691,-15.051],[-70.9507,-15.3143],[-71.0283,-15.4444],[-70.9868,-15.4759],[-71.0091,-15.5389],[-71.0013,-15.5665],[-70.9133,-15.661],[-70.8929,-15.7254],[-70.9222,-15.7991],[-70.8877,-15.8712],[-70.7956,-16.0154],[-70.6894,-16.0366],[-70.5685,-16.0091],[-70.4379,-16.057],[-70.3115,-16.2612],[-70.3402,-16.3259],[-70.3484,-16.411],[-70.1874,-16.5578],[-70.1278,-16.6419],[-70.0016,-16.6634],[-69.9914,-16.7486],[-70.0445,-16.8056],[-70.1174,-16.9415],[-70.0846,-17.0249],[-70.0334,-17.0676],[-70.0084,-17.1451],[-69.9316,-17.2133],[-69.7891,-17.2619],[-69.7188,-17.3145],[-69.5799,-17.3031]]]},"properties":{"iso3":"PER","shapeId":"1875124B3772980127380","regionId":"PER.22_1","name":"Puno"}},{"type":"Feature","geometry":{"type":"Polygon","coordinates":[[[-80.4937,-4.0729],[-80.4566,-3.9822],[-80.3962,-3.9624],[-80.2916,-3.9939],[-80.1617,-3.8902],[-80.2005,-3.7243],[-80.1947,-3.633],[-80.2305,-3.5511],[-80.2573,-3.3979],[-80.315,-3.3888],[-80.3644,-3.4518],[-80.4382,-3.4876],[-80.4908,-3.4876],[-80.5894,-3.6105],[-80.7569,-3.7045],[-80.82,-3.7766],[-80.8434,-3.8578],[-80.9841,-3.9624],[-81.0556,-4.0797],[-80.9318,-4.1599],[-80.7406,-4.1644],[-80.6847,-4.1995],[-80.6207,-4.2085],[-80.4937,-4.0729]]]},"properties":{"iso3":"PER","shapeId":"1875124B82769317880582","regionId":"PER.25_1","name":"Tumbes"}},{"type":"Feature","geometry":{"type":"Polygon","coordinates":[[[-81.0556,-4.0797],[-81.2572,-4.2679],[-81.2583,-4.3706],[-81.312,-4.4612],[-81.2916,-4.6044],[-81.3277,-4.6504],[-81.3268,-4.6865],[-81.1008,-4.9518],[-81.0835,-5.0031],[-81.0962,-5.0609],[-81.1718,-5.0868],[-81.1985,-5.2274],[-81.0252,-5.3655],[-80.9364,-5.467],[-80.866,-5.6755],[-80.8994,-5.8065],[-80.9535,-5.8426],[-81.0734,-5.7975],[-81.1446,-5.8516],[-81.16,-5.9517],[-81.1356,-6.0328],[-80.8597,-6.2393],[-80.6391,-6.3562],[-80.5206,-6.2129],[-80.3621,-5.9641],[-80.2934,-5.9102],[-80.2032,-5.8967],[-80.1184,-5.857],[-80.0219,-5.756],[-79.9985,-5.7226],[-79.9922,-5.6288],[-79.9543,-5.508],[-79.902,-5.4855],[-79.8849,-5.4927],[-79.8452,-5.6297],[-79.7604,-5.6721],[-79.737,-5.8146],[-79.7036,-5.829],[-79.6513,-5.8137],[-79.6342,-5.8967],[-79.6017,-5.9273],[-79.5115,-5.9039],[-79.415,-5.9553],[-79.3573,-5.8777],[-79.3591,-5.8362],[-79.4042,-5.7695],[-79.397,-5.5657],[-79.379,-5.5233],[-79.3122,-5.5125],[-79.2897,-5.4873],[-79.3564,-5.3033],[-79.3736,-5.1725],[-79.2701,-5.043],[-79.223,-4.9523],[-79.3132,-4.9173],[-79.4187,-4.7767],[-79.4926,-4.6351],[-79.509,-4.527],[-79.6447,-4.4289],[-79.7549,-4.4687],[-79.8432,-4.4716],[-79.905,-4.396],[-79.9673,-4.3845],[-80.1202,-4.2881],[-80.1883,-4.299],[-80.3332,-4.4445],[-80.3961,-4.4722],[-80.4782,-4.3961],[-80.471,-4.3637],[-80.3583,-4.2248],[-80.444,-4.1716],[-80.4937,-4.0729],[-80.6207,-4.2085],[-80.6847,-4.1995],[-80.7406,-4.1644],[-80.9318,-4.1599],[-81.0556,-4.0797]]]},"properties":{"iso3":"PER","shapeId":"1875124B64829338827261","regionId":"PER.21_1","name":"Piura"}},{"type":"Feature","geometry":{"type":"Polygon","coordinates":[[[-80.6391,-6.3562],[-80.2311,-6.5685],[-80.0328,-6.7182],[-79.9487,-6.845],[-79.7402,-7.0591],[-79.6989,-7.1329],[-79.6297,-7.0969],[-79.4536,-6.9348],[-79.3469,-7.0191],[-79.3151,-7.011],[-79.3342,-6.9325],[-79.3134,-6.8933],[-79.1368,-6.7692],[-79.1633,-6.7005],[-79.344,-6.6341],[-79.3723,-6.5435],[-79.4283,-6.5054],[-79.4349,-6.4233],[-79.4619,-6.3908],[-79.4322,-6.3106],[-79.287,-6.2312],[-79.2672,-6.2042],[-79.2861,-6.1627],[-79.2771,-6.141],[-79.1945,-6.0408],[-79.2967,-6.0045],[-79.3284,-6.0137],[-79.4962,-5.9066],[-79.5801,-5.9264],[-79.6243,-5.9147],[-79.6513,-5.8137],[-79.7036,-5.829],[-79.737,-5.8146],[-79.7604,-5.6721],[-79.8452,-5.6297],[-79.8849,-5.4927],[-79.902,-5.4855],[-79.9543,-5.508],[-79.9922,-5.6288],[-79.9985,-5.7226],[-80.0219,-5.756],[-80.1184,-5.857],[-80.2032,-5.8967],[-80.2934,-5.9102],[-80.3621,-5.9641],[-80.5206,-6.2129],[-80.6391,-6.3562]]]},"properties":{"iso3":"PER","shapeId":"1875124B61751373376494","regionId":"PER.14_1","name":"Lambayeque"}},{"type":"Feature","geometry":{"type":"Polygon","coordinates":[[[-79.4153,-5.9552],[-79.3284,-6.0137],[-79.2967,-6.0045],[-79.1945,-6.0408],[-79.2771,-6.141],[-79.2861,-6.1627],[-79.2672,-6.2042],[-79.287,-6.2312],[-79.4448,-6.3277],[-79.4619,-6.3908],[-79.4349,-6.4233],[-79.4283,-6.5054],[-79.3723,-6.5435],[-79.344,-6.6341],[-79.1633,-6.7005],[-79.1368,-6.7692],[-79.3024,-6.88],[-79.3342,-6.9325],[-79.3151,-7.011],[-79.3394,-7.0172],[-79.2834,-7.1952],[-79.2942,-7.2619],[-79.351,-7.3269],[-79.2067,-7.3855],[-79.1103,-7.4504],[-79.0345,-7.6046],[-78.9876,-7.6488],[-78.9506,-7.629],[-78.8379,-7.4315],[-78.8091,-7.4107],[-78.7225,-7.4125],[-78.6377,-7.4396],[-78.6476,-7.5081],[-78.599,-7.5451],[-78.507,-7.5505],[-78.4466,-7.4982],[-78.3735,-7.491],[-78.3492,-7.5054],[-78.3834,-7.601],[-78.369,-7.6515],[-78.2391,-7.7336],[-78.194,-7.7219],[-78.1312,-7.6669],[-78.0614,-7.6835],[-77.9472,-7.6407],[-77.8652,-7.5321],[-77.7603,-7.4637],[-77.9867,-7.0148],[-78.0498,-6.72],[-78.13,-6.5973],[-78.1634,-6.5035],[-78.3122,-6.3548],[-78.4962,-6.0934],[-78.6168,-6.0408],[-78.7005,-5.8752],[-78.6948,-5.7233],[-78.5118,-5.4071],[-78.5966,-5.2975],[-78.6682,-5.264],[-78.7097,-5.2069],[-78.708,-5.1238],[-78.6509,-5.0176],[-78.6641,-4.9166],[-78.6393,-4.7781],[-78.6595,-4.669],[-78.7043,-4.61],[-78.8569,-4.6612],[-78.892,-4.7298],[-78.9182,-4.8668],[-79.0282,-4.9913],[-79.223,-4.9523],[-79.2701,-5.043],[-79.3736,-5.1725],[-79.3564,-5.3033],[-79.2897,-5.4873],[-79.3122,-5.5125],[-79.379,-5.5233],[-79.397,-5.5657],[-79.4042,-5.7695],[-79.3591,-5.8362],[-79.3573,-5.8777],[-79.4153,-5.9552]]]},"properties":{"iso3":"PER","shapeId":"1875124B51528250409360","regionId":"PER.6_1","name":"Cajamarca"}},{"type":"Feature","geometry":{"type":"Polygon","coordinates":[[[-77.9924,-6.9745],[-77.8667,-6.9503],[-77.808,-6.9644],[-77.7234,-6.906],[-77.7557,-6.8021],[-77.7367,-6.7657],[-77.7511,-6.727],[-77.7112,-6.6397],[-77.6706,-6.6201],[-77.5915,-6.6205],[-77.5136,-6.7006],[-77.4377,-6.6953],[-77.3921,-6.7149],[-77.3973,-6.6555],[-77.4245,-6.6168],[-77.346,-6.5227],[-77.2842,-6.3442],[-77.2488,-6.3372],[-77.1926,-6.3804],[-77.1332,-6.3098],[-77.2111,-6.212],[-77.237,-6.1436],[-77.3197,-6.1204],[-77.41,-6.0304],[-77.462,-6.0108],[-77.5214,-6.0293],[-77.6311,-5.9883],[-77.6882,-5.8342],[-77.7592,-5.8075],[-77.7895,-5.7462],[-77.7511,-5.6415],[-77.7615,-5.4406],[-77.6887,-5.3491],[-77.6843,-5.2808],[-77.7107,-5.1948],[-77.724,-5.0268],[-77.8187,-4.8143],[-77.7748,-4.7105],[-77.687,-4.6286],[-77.6449,-4.512],[-77.5738,-4.4194],[-77.598,-4.2545],[-77.5331,-4.0616],[-77.5727,-3.8803],[-77.6368,-3.8037],[-77.6485,-3.5917],[-77.7594,-3.4691],[-77.7801,-3.4105],[-77.7856,-3.1427],[-77.8263,-2.9807],[-77.8811,-2.9903],[-77.9722,-3.0561],[-78.0489,-3.1977],[-78.1851,-3.3641],[-78.1747,-3.4357],[-78.1978,-3.4905],[-78.2238,-3.4991],[-78.2819,-3.407],[-78.3439,-3.3915],[-78.4256,-3.7776],[-78.5809,-4.0102],[-78.5656,-4.0913],[-78.6558,-4.3276],[-78.6237,-4.4127],[-78.6318,-4.4572],[-78.6711,-4.5738],[-78.7043,-4.61],[-78.6595,-4.669],[-78.6393,-4.7781],[-78.6641,-4.9166],[-78.6509,-5.0176],[-78.708,-5.1238],[-78.7097,-5.2069],[-78.6682,-5.264],[-78.5966,-5.2975],[-78.5118,-5.4071],[-78.6948,-5.7233],[-78.7005,-5.8752],[-78.6168,-6.0408],[-78.4962,-6.0934],[-78.3122,-6.3548],[-78.1634,-6.5035],[-78.13,-6.5973],[-78.0498,-6.72],[-77.9924,-6.9745]]]},"properties":{"iso3":"PER","shapeId":"1875124B1797874831789","regionId":"PER.1_1","name":"Amazonas"}},{"type":"Feature","geometry":{"type":"Polygon","coordinates":[[[-79.6989,-7.1329],[-79.6077,-7.2959],[-79.5753,-7.4664],[-79.4601,-7.6371],[-79.452,-7.7363],[-79.3077,-7.9256],[-78.9937,-8.216],[-78.9175,-8.3569],[-78.9083,-8.4577],[-78.8289,-8.5109],[-78.773,-8.5794],[-78.7504,-8.684],[-78.7568,-8.7958],[-78.6702,-8.8995],[-78.6529,-8.9561],[-78.6076,-8.9415],[-78.5654,-8.7955],[-78.5227,-8.7545],[-78.4148,-8.7153],[-78.3669,-8.6783],[-78.2094,-8.6293],[-78.2163,-8.5629],[-78.1445,-8.427],[-78.1255,-8.3468],[-78.0768,-8.2755],[-77.9398,-8.1736],[-77.8811,-8.0564],[-77.6461,-8.0683],[-77.6114,-8.1514],[-77.4793,-8.3124],[-77.4343,-8.4186],[-77.3708,-8.4994],[-77.3218,-8.5294],[-77.2652,-8.4677],[-77.2173,-8.4821],[-77.137,-8.4648],[-77.0441,-8.3892],[-76.9449,-8.3638],[-76.9137,-8.3142],[-76.9258,-8.1485],[-77.0303,-8.0533],[-77.1878,-8.0106],[-77.2898,-8.0435],[-77.3657,-8.0404],[-77.4007,-8.0057],[-77.4043,-7.9062],[-77.4309,-7.8464],[-77.5231,-7.7578],[-77.4897,-7.692],[-77.5289,-7.6268],[-77.5156,-7.6072],[-77.5301,-7.5402],[-77.5658,-7.4652],[-77.6345,-7.3931],[-77.627,-7.1864],[-77.6449,-7.1495],[-77.7107,-7.0978],[-77.7745,-6.9396],[-77.808,-6.9644],[-77.8667,-6.9503],[-77.9924,-6.9745],[-77.9867,-7.0148],[-77.8595,-7.2565],[-77.8487,-7.3142],[-77.7603,-7.4637],[-77.8652,-7.5321],[-77.9472,-7.6407],[-78.0614,-7.6835],[-78.1312,-7.6669],[-78.194,-7.7219],[-78.2391,-7.7336],[-78.369,-7.6515],[-78.3834,-7.601],[-78.3492,-7.5054],[-78.4132,-7.4919],[-78.4466,-7.4982],[-78.507,-7.5505],[-78.599,-7.5451],[-78.6476,-7.5081],[-78.6377,-7.4396],[-78.7225,-7.4125],[-78.8091,-7.4107],[-78.8379,-7.4315],[-78.874,-7.5189],[-78.9019,-7.5343],[-78.9642,-7.647],[-78.9876,-7.6488],[-79.0345,-7.6046],[-79.1103,-7.4504],[-79.2067,-7.3855],[-79.351,-7.3269],[-79.2942,-7.2619],[-79.2834,-7.1781],[-79.3394,-7.0172],[-79.4536,-6.9348],[-79.6297,-7.0969],[-79.6989,-7.1329]]]},"properties":{"iso3":"PER","shapeId":"1875124B91024374055933","regionId":"PER.13_1","name":"La Libertad"}},{"type":"Feature","geometry":{"type":"Polygon","coordinates":[[[-78.6529,-8.9561],[-78.6594,-9.033],[-78.6152,-9.0799],[-78.5917,-9.0817],[-78.5566,-9.1331],[-78.6053,-9.1593],[-78.6107,-9.1872],[-78.5827,-9.2224],[-78.5575,-9.1773],[-78.498,-9.1845],[-78.5106,-9.281],[-78.4231,-9.3874],[-78.3825,-9.5849],[-78.2368,-9.7969],[-78.2509,-9.9068],[-78.1818,-10.0603],[-78.1691,-10.1378],[-78.1043,-10.2167],[-78.0452,-10.3576],[-77.9002,-10.5926],[-77.7955,-10.5705],[-77.7576,-10.3388],[-77.7224,-10.3207],[-77.6467,-10.327],[-77.6124,-10.3406],[-77.6124,-10.3721],[-77.6981,-10.4623],[-77.7351,-10.5471],[-77.6553,-10.5344],[-77.627,-10.5886],[-77.5878,-10.6169],[-77.5809,-10.6885],[-77.5987,-10.7635],[-77.4371,-10.7341],[-77.3263,-10.5841],[-77.1952,-10.5295],[-77.1168,-10.4074],[-77.0222,-10.3133],[-76.9218,-10.2908],[-76.9054,-10.2459],[-76.919,-10.1467],[-76.8279,-10.0818],[-76.8162,-10.0475],[-76.8477,-9.9203],[-76.9235,-9.7443],[-77.0187,-9.7016],[-77.0435,-9.6473],[-76.95,-9.5348],[-76.9208,-9.363],[-76.851,-9.2792],[-76.7682,-9.3564],[-76.7342,-9.2612],[-76.7406,-9.2162],[-76.7873,-9.1516],[-76.9939,-9.0442],[-77.1332,-8.9323],[-77.2496,-8.7256],[-77.3218,-8.5294],[-77.3708,-8.4994],[-77.4343,-8.4186],[-77.4793,-8.3124],[-77.6114,-8.1514],[-77.6461,-8.0683],[-77.8811,-8.0564],[-77.9398,-8.1736],[-78.0768,-8.2755],[-78.1255,-8.3468],[-78.1445,-8.427],[-78.2163,-8.5629],[-78.2094,-8.6293],[-78.3669,-8.6783],[-78.4148,-8.7153],[-78.5227,-8.7545],[-78.5654,-8.7955],[-78.6076,-8.9415],[-78.6529,-8.9561]]]},"properties":{"iso3":"PER","shapeId":"1875124B15182629165166","regionId":"PER.2_1","name":"Ancash"}},{"type":"Feature","geometry":{"type":"Polygon","coordinates":[[[-77.7745,-6.9396],[-77.7107,-7.0978],[-77.6449,-7.1495],[-77.627,-7.1864],[-77.6345,-7.3931],[-77.5658,-7.4652],[-77.5301,-7.5402],[-77.5156,-7.6072],[-77.5289,-7.6268],[-77.4897,-7.692],[-77.5231,-7.7578],[-77.4309,-7.8464],[-77.4043,-7.9062],[-77.4007,-8.0057],[-77.3657,-8.0404],[-77.2898,-8.0435],[-77.1878,-8.0106],[-77.0303,-8.0533],[-76.9137,-8.1768],[-76.9137,-8.3142],[-76.9449,-8.3638],[-77.0441,-8.3892],[-77.1285,-8.4577],[-77.0668,-8.5199],[-76.9343,-8.565],[-76.8026,-8.5199],[-76.6457,-8.528],[-76.5736,-8.4946],[-76.5402,-8.5019],[-76.5123,-8.5343],[-76.5023,-8.5938],[-76.4888,-8.5938],[-76.4131,-8.4306],[-76.3572,-8.4207],[-76.2778,-8.5956],[-76.2715,-8.6696],[-76.2399,-8.7309],[-76.2435,-8.785],[-76.1732,-8.7435],[-76.1182,-8.6507],[-76.1353,-8.556],[-76.1101,-8.3819],[-76.0722,-8.3315],[-75.9707,-8.3015],[-75.9326,-8.2668],[-75.9409,-8.1098],[-75.846,-8.0383],[-75.8391,-7.9956],[-75.8876,-7.9246],[-75.9672,-7.9292],[-75.9909,-7.913],[-76.0624,-7.7849],[-76.093,-7.7007],[-76.0797,-7.576],[-76.1998,-7.4444],[-76.2159,-7.3861],[-76.2067,-7.3273],[-76.1715,-7.2442],[-76.0474,-7.138],[-76.0105,-7.0762],[-76.0047,-7.0046],[-76.052,-6.9296],[-76.0163,-6.8979],[-76.0595,-6.8142],[-76.0145,-6.7946],[-75.887,-6.7946],[-75.734,-6.8772],[-75.6764,-6.8399],[-75.5713,-6.8182],[-75.5159,-6.7559],[-75.5488,-6.5845],[-75.5165,-6.4795],[-75.5517,-6.334],[-75.4968,-6.2671],[-75.4974,-6.2446],[-75.5395,-6.1499],[-75.5528,-6.0339],[-75.5921,-6.0299],[-75.6665,-6.0985],[-75.7358,-6.128],[-75.805,-6.1101],[-75.8529,-6.1291],[-75.917,-6.1257],[-75.977,-6.0824],[-76.0186,-6.0789],[-76.063,-6.0876],[-76.1028,-6.1228],[-76.183,-6.1378],[-76.3083,-6.0893],[-76.3908,-5.9433],[-76.4197,-5.9398],[-76.5391,-6.005],[-76.6384,-5.9987],[-76.6944,-6.0206],[-76.7538,-5.9687],[-76.8237,-5.7829],[-77.088,-5.627],[-77.1907,-5.6132],[-77.2582,-5.5664],[-77.3465,-5.5785],[-77.477,-5.5376],[-77.5381,-5.4262],[-77.6178,-5.4354],[-77.7124,-5.3775],[-77.7615,-5.4406],[-77.7476,-5.593],[-77.7836,-5.707],[-77.7773,-5.7868],[-77.6882,-5.8342],[-77.6311,-5.9883],[-77.5214,-6.0293],[-77.462,-6.0108],[-77.41,-6.0304],[-77.3197,-6.1204],[-77.237,-6.1436],[-77.2111,-6.212],[-77.1332,-6.3098],[-77.1926,-6.3804],[-77.2488,-6.3372],[-77.2842,-6.3442],[-77.346,-6.5227],[-77.4245,-6.6168],[-77.3973,-6.6555],[-77.3921,-6.7149],[-77.4377,-6.6953],[-77.5136,-6.7006],[-77.5915,-6.6205],[-77.6706,-6.6201],[-77.7112,-6.6397],[-77.7511,-6.727],[-77.7367,-6.7657],[-77.7557,-6.8021],[-77.7234,-6.906],[-77.7745,-6.9396]]]},"properties":{"iso3":"PER","shapeId":"1875124B60950944289640","regionId":"PER.23_1","name":"San Martin"}},{"type":"Feature","geometry":{"type":"Polygon","coordinates":[[[-77.3218,-8.5294],[-77.2496,-8.7256],[-77.1332,-8.9323],[-76.9939,-9.0442],[-76.7873,-9.1516],[-76.7406,-9.2162],[-76.7342,-9.2612],[-76.7682,-9.3564],[-76.851,-9.2792],[-76.9208,-9.363],[-76.95,-9.5348],[-77.0435,-9.6473],[-77.0187,-9.7016],[-76.9235,-9.7443],[-76.8477,-9.9203],[-76.8162,-10.0475],[-76.8279,-10.0818],[-76.919,-10.1467],[-76.9054,-10.2459],[-76.9183,-10.2861],[-76.8214,-10.4143],[-76.7602,-10.4617],[-76.7244,-10.4663],[-76.6153,-10.4051],[-76.5305,-10.3918],[-76.4883,-10.3422],[-76.3752,-10.3001],[-76.3446,-10.3064],[-76.299,-10.3809],[-76.2713,-10.3953],[-76.2171,-10.3826],[-75.9868,-10.483],[-75.9505,-10.457],[-75.928,-10.3791],[-75.8766,-10.3104],[-75.8212,-10.2631],[-75.7352,-10.2279],[-75.6815,-10.0767],[-75.599,-9.9971],[-75.502,-9.9815],[-75.3739,-9.8845],[-75.3087,-9.8689],[-75.2591,-9.7841],[-75.1407,-9.8407],[-75.0442,-9.8211],[-75.018,-9.832],[-74.9089,-9.7427],[-74.8359,-9.7292],[-74.8052,-9.7003],[-74.743,-9.5678],[-74.7322,-9.492],[-74.5942,-9.3008],[-74.6285,-9.1412],[-74.6609,-9.079],[-74.6375,-9.015],[-74.6564,-8.9455],[-74.6122,-8.8391],[-74.5307,-8.7764],[-74.5007,-8.7037],[-74.5925,-8.6131],[-74.791,-8.6189],[-74.836,-8.6858],[-74.8528,-8.7614],[-74.8972,-8.8088],[-74.9353,-8.9253],[-74.9561,-8.9455],[-75.0409,-8.904],[-75.0836,-8.9155],[-75.1321,-8.9715],[-75.165,-9.0962],[-75.2567,-9.2855],[-75.3168,-9.3103],[-75.4056,-9.2987],[-75.5118,-9.3865],[-75.5978,-9.4072],[-75.6827,-9.3374],[-75.8702,-9.0258],[-75.928,-8.762],[-75.9766,-8.6452],[-75.9586,-8.3873],[-76.0034,-8.3141],[-76.0722,-8.3315],[-76.1101,-8.3819],[-76.1353,-8.556],[-76.1182,-8.6507],[-76.1732,-8.7435],[-76.2435,-8.785],[-76.2399,-8.7309],[-76.2715,-8.6696],[-76.2778,-8.5956],[-76.3572,-8.4207],[-76.4131,-8.4306],[-76.4888,-8.5938],[-76.5023,-8.5938],[-76.5123,-8.5343],[-76.5402,-8.5019],[-76.5736,-8.4946],[-76.6457,-8.528],[-76.8026,-8.5199],[-76.9343,-8.565],[-77.0668,-8.5199],[-77.1285,-8.4577],[-77.2173,-8.4821],[-77.2652,-8.4677],[-77.3218,-8.5294]]]},"properties":{"iso3":"PER","shapeId":"1875124B5969368354394","regionId":"PER.10_1","name":"Huanuco"}},{"type":"Feature","geometry":{"type":"Polygon","coordinates":[[[-76.7348,-10.4649],[-76.7296,-10.5245],[-76.6719,-10.6246],[-76.6502,-10.7364],[-76.5616,-10.9461],[-76.5799,-10.9945],[-76.4975,-11.0839],[-76.3435,-11.0948],[-76.2598,-11.1542],[-76.2379,-11.1259],[-76.2777,-10.962],[-76.2627,-10.9268],[-76.1421,-10.9505],[-76.0041,-10.8299],[-75.9412,-10.872],[-75.8523,-10.8789],[-75.7358,-10.8143],[-75.6509,-10.8333],[-75.6036,-10.8166],[-75.5523,-10.7448],[-75.4817,-10.7651],[-75.4932,-10.8375],[-75.4777,-10.8796],[-75.375,-10.8597],[-75.3007,-10.8667],[-75.2162,-10.7304],[-75.1183,-10.7237],[-75.0614,-10.665],[-75.0315,-10.6691],[-74.9853,-10.7285],[-74.9125,-10.7633],[-74.8575,-10.7574],[-74.8014,-10.8128],[-74.69,-10.8778],[-74.533,-10.9089],[-74.2381,-10.651],[-74.1902,-10.6429],[-74.136,-10.6608],[-74.1261,-10.5984],[-74.1914,-10.4761],[-74.2624,-10.4271],[-74.2768,-10.3866],[-74.2416,-10.3126],[-74.2389,-10.236],[-74.367,-10.0736],[-74.4779,-9.6552],[-74.5744,-9.5407],[-74.589,-9.4782],[-74.6775,-9.4308],[-74.7322,-9.492],[-74.743,-9.5678],[-74.8052,-9.7003],[-74.8359,-9.7292],[-74.9089,-9.7427],[-75.018,-9.832],[-75.0442,-9.8211],[-75.1407,-9.8407],[-75.2591,-9.7841],[-75.3087,-9.8689],[-75.3739,-9.8845],[-75.502,-9.9815],[-75.5724,-9.9815],[-75.659,-10.0427],[-75.7352,-10.2279],[-75.8212,-10.2631],[-75.8766,-10.3104],[-75.928,-10.3791],[-75.9505,-10.457],[-75.9868,-10.483],[-76.2171,-10.3826],[-76.2713,-10.3953],[-76.299,-10.3809],[-76.3446,-10.3064],[-76.3752,-10.3001],[-76.4883,-10.3422],[-76.5305,-10.3918],[-76.6153,-10.4051],[-76.7348,-10.4649]]]},"properties":{"iso3":"PER","shapeId":"1875124B19837374654956","regionId":"PER.20_1","name":"Pasco"}},{"type":"Feature","geometry":{"type":"Polygon","coordinates":[[[-77.9002,-10.5926],[-77.791,-10.7382],[-77.6575,-10.9772],[-77.6352,-11.085],[-77.5952,-11.1661],[-77.6003,-11.2092],[-77.6413,-11.2615],[-77.6311,-11.3138],[-77.3746,-11.4616],[-77.2956,-11.5426],[-77.2066,-11.6915],[-77.0617,-11.5835],[-77.0363,-11.5962],[-77.0222,-11.6638],[-76.9729,-11.7272],[-76.8447,-11.754],[-76.8447,-11.7962],[-76.9236,-11.8456],[-76.9109,-11.8963],[-76.9306,-11.9498],[-76.9067,-11.9667],[-76.7362,-11.8991],[-76.7136,-11.8977],[-76.6685,-11.9371],[-76.6671,-11.9851],[-76.7108,-12.0273],[-76.6911,-12.0513],[-76.7094,-12.1105],[-76.6333,-12.2373],[-76.6322,-12.2769],[-76.7152,-12.4014],[-76.7818,-12.4188],[-76.7761,-12.4484],[-76.8033,-12.4708],[-76.8049,-12.5013],[-76.7071,-12.5943],[-76.6102,-12.7769],[-76.5322,-12.8528],[-76.5055,-12.9206],[-76.5096,-12.9739],[-76.4635,-13.0745],[-76.2426,-13.3335],[-76.1461,-13.2001],[-76.0145,-13.0937],[-75.943,-13.0062],[-75.7998,-13.0622],[-75.7496,-13.0374],[-75.6954,-13.0657],[-75.6515,-13.0524],[-75.6117,-12.9785],[-75.6342,-12.9162],[-75.5217,-12.7967],[-75.5667,-12.7211],[-75.5776,-12.6565],[-75.5655,-12.5705],[-75.5401,-12.5301],[-75.5407,-12.4782],[-75.5707,-12.4158],[-75.5465,-12.3725],[-75.6619,-12.2063],[-75.6457,-12.1324],[-75.7025,-12.0675],[-75.8918,-11.9998],[-76.0347,-11.9714],[-76.074,-11.8802],[-76.1894,-11.7446],[-76.2107,-11.5969],[-76.25,-11.5784],[-76.3008,-11.5848],[-76.366,-11.5149],[-76.4174,-11.3787],[-76.486,-11.2714],[-76.5149,-11.1381],[-76.4931,-11.0848],[-76.5293,-11.065],[-76.5799,-10.9945],[-76.5616,-10.9461],[-76.6502,-10.7364],[-76.6719,-10.6246],[-76.7296,-10.5245],[-76.7348,-10.4649],[-76.8214,-10.4143],[-76.9183,-10.2861],[-76.9945,-10.296],[-77.1168,-10.4074],[-77.1952,-10.5295],[-77.3263,-10.5841],[-77.4158,-10.7191],[-77.5843,-10.7693],[-77.5987,-10.7635],[-77.5809,-10.6885],[-77.5878,-10.6169],[-77.627,-10.5886],[-77.6553,-10.5344],[-77.7351,-10.5471],[-77.6981,-10.4623],[-77.6305,-10.4028],[-77.6124,-10.3406],[-77.7224,-10.3207],[-77.7576,-10.3388],[-77.7738,-10.3866],[-77.7639,-10.4172],[-77.7955,-10.5705],[-77.9002,-10.5926]]]},"properties":{"iso3":"PER","shapeId":"1875124B65618634887963","regionId":"PER.16_1","name":"Lima"}},{"type":"Feature","geometry":{"type":"MultiPolygon","coordinates":[[[[-77.1709,-12.1453],[-77.1717,-12.1374],[-77.1772,-12.1311],[-77.1938,-12.1382],[-77.1843,-12.1469],[-77.1709,-12.1453]]],[[[-77.1978,-12.1223],[-77.2374,-12.0851],[-77.2668,-12.0851],[-77.2168,-12.1287],[-77.1978,-12.1223]]],[[[-77.1164,-12.0803],[-77.0831,-12.026],[-77.1182,-11.9457],[-77.0939,-11.8898],[-77.1273,-11.8222],[-77.1706,-11.8168],[-77.1964,-11.8297],[-77.1265,-11.9825],[-77.1659,-12.0626],[-77.1164,-12.0803]]]]},"properties":{"iso3":"PER","shapeId":"1875124B73300566086976","regionId":null,"name":"El Callao"}},{"type":"Feature","geometry":{"type":"Polygon","coordinates":[[[-77.2066,-11.6915],[-77.1751,-11.7317],[-77.1994,-11.8249],[-77.1273,-11.8222],[-77.1002,-11.8655],[-77.1182,-11.9457],[-77.0831,-12.026],[-77.1164,-12.0803],[-77.0398,-12.1383],[-77.0487,-12.1812],[-77.0222,-12.2237],[-76.9877,-12.2304],[-76.8338,-12.3458],[-76.7818,-12.4188],[-76.7152,-12.4014],[-76.6322,-12.2769],[-76.6333,-12.2373],[-76.7094,-12.1105],[-76.6911,-12.0513],[-76.7108,-12.0273],[-76.6671,-11.9851],[-76.6685,-11.9371],[-76.7136,-11.8977],[-76.9067,-11.9667],[-76.9306,-11.9498],[-76.9109,-11.8963],[-76.9236,-11.8456],[-76.8348,-11.7737],[-76.8447,-11.754],[-76.9729,-11.7272],[-77.0222,-11.6638],[-77.0363,-11.5962],[-77.0617,-11.5835],[-77.2066,-11.6915]]]},"properties":{"iso3":"PER","shapeId":"1875124B43998217738279","regionId":null,"name":"Municipalidad Metropolitana de Lima"}},{"type":"Feature","geometry":{"type":"Polygon","coordinates":[[[-74.6775,-9.4308],[-74.589,-9.4782],[-74.5744,-9.5407],[-74.4779,-9.6552],[-74.367,-10.0736],[-74.2389,-10.236],[-74.2416,-10.3126],[-74.2768,-10.3866],[-74.2624,-10.4271],[-74.1914,-10.4761],[-74.1261,-10.5984],[-74.136,-10.6608],[-74.1902,-10.6429],[-74.2381,-10.651],[-74.5325,-10.9086],[-74.4029,-11.0382],[-74.3197,-11.0537],[-74.1605,-10.9973],[-74.0323,-10.9917],[-73.9886,-11.0424],[-73.9647,-11.134],[-73.8886,-11.1777],[-73.8604,-11.1396],[-73.8519,-10.9818],[-73.8223,-10.941],[-73.8181,-10.8508],[-73.7801,-10.7733],[-73.7378,-10.7465],[-73.5927,-10.8536],[-73.5405,-11.0255],[-73.4757,-11.0847],[-73.4461,-11.2495],[-73.4673,-11.3186],[-73.4377,-11.3707],[-73.3056,-11.3073],[-73.1406,-11.3],[-72.988,-11.2385],[-72.9569,-11.2529],[-72.9338,-11.3227],[-72.9009,-11.3533],[-72.8057,-11.3851],[-72.6977,-11.3654],[-72.6169,-11.4214],[-72.549,-11.4362],[-72.2902,-11.3009],[-72.2388,-11.3226],[-72.2235,-11.3091],[-72.1937,-11.2216],[-72.1243,-11.1359],[-72.1693,-11.0322],[-72.1243,-10.9862],[-72.0458,-10.998],[-71.9466,-10.9466],[-71.8249,-10.9817],[-71.4551,-10.9853],[-71.3,-10.9312],[-71.2333,-10.823],[-71.2241,-10.6874],[-71.1931,-10.6352],[-71.1509,-10.5746],[-70.8395,-10.3097],[-70.8324,-10.1167],[-70.6915,-9.9786],[-70.6233,-9.9504],[-70.6234,-9.8358],[-70.5237,-9.7502],[-70.5217,-9.6899],[-70.5896,-9.59],[-70.5059,-9.5017],[-70.4903,-9.4387],[-70.56,-9.4252],[-70.652,-9.5227],[-70.9421,-9.7454],[-70.973,-9.7938],[-71.1148,-9.8572],[-71.2044,-9.9642],[-71.2385,-9.98],[-71.2979,-9.9959],[-71.3376,-9.9721],[-71.3654,-10.0122],[-72.1337,-10.0087],[-72.1597,-9.9245],[-72.1448,-9.8155],[-72.2513,-9.7399],[-72.2526,-9.6285],[-72.2934,-9.5443],[-72.3417,-9.5145],[-72.3851,-9.491],[-72.499,-9.4898],[-72.5461,-9.4625],[-72.7306,-9.4192],[-73.1877,-9.4194],[-73.1779,-9.3666],[-73.0701,-9.2311],[-72.9782,-9.1692],[-72.9512,-9.128],[-72.9536,-8.9806],[-73.059,-8.8704],[-73.1527,-8.72],[-73.1796,-8.6957],[-73.2567,-8.682],[-73.3039,-8.6409],[-73.3419,-8.4862],[-73.519,-8.3579],[-73.5869,-8.2197],[-73.575,-8.1928],[-73.6209,-8.0787],[-73.7581,-7.8884],[-73.6788,-7.8282],[-73.6986,-7.7616],[-73.812,-7.7085],[-74.0373,-7.4831],[-74.2075,-7.4398],[-74.2618,-7.3827],[-74.4522,-7.2788],[-74.5088,-7.2926],[-74.5567,-7.3428],[-74.6386,-7.5108],[-74.6492,-7.5496],[-74.5744,-7.6398],[-74.5671,-7.6921],[-74.5284,-7.7525],[-74.6799,-7.9635],[-74.7373,-7.9967],[-74.8666,-8.0262],[-75.0294,-7.976],[-75.1713,-8.0123],[-75.2354,-8.126],[-75.2585,-8.137],[-75.3052,-8.1191],[-75.3958,-8.1549],[-75.5159,-8.2697],[-75.5141,-8.3095],[-75.4501,-8.3898],[-75.4611,-8.4348],[-75.6128,-8.399],[-75.6625,-8.4094],[-75.7669,-8.4994],[-75.8281,-8.6322],[-75.9535,-8.7009],[-75.8702,-9.0258],[-75.6827,-9.3374],[-75.6348,-9.3911],[-75.5765,-9.4078],[-75.5118,-9.3865],[-75.4056,-9.2987],[-75.3168,-9.3103],[-75.2567,-9.2855],[-75.165,-9.0962],[-75.1321,-8.9715],[-75.0836,-8.9155],[-75.0409,-8.904],[-74.9561,-8.9455],[-74.9353,-8.9253],[-74.8972,-8.8088],[-74.8528,-8.7614],[-74.836,-8.6858],[-74.791,-8.6189],[-74.6929,-8.6275],[-74.6375,-8.6096],[-74.57,-8.6252],[-74.5146,-8.6772],[-74.5024,-8.7256],[-74.5307,-8.7764],[-74.6122,-8.8391],[-74.6564,-8.9455],[-74.6375,-9.015],[-74.6609,-9.079],[-74.6285,-9.1412],[-74.5942,-9.3008],[-74.6775,-9.4308]]]},"properties":{"iso3":"PER","shapeId":"1875124B80189625477090","regionId":"PER.26_1","name":"Ucayali"}},{"type":"Feature","geometry":{"type":"Polygon","coordinates":[[[-76.4931,-11.0848],[-76.5149,-11.1381],[-76.486,-11.2714],[-76.4174,-11.3787],[-76.366,-11.5149],[-76.3008,-11.5848],[-76.25,-11.5784],[-76.2107,-11.5969],[-76.1894,-11.7446],[-76.074,-11.8802],[-76.0347,-11.9714],[-75.8918,-11.9998],[-75.7025,-12.0675],[-75.6457,-12.1324],[-75.6619,-12.2063],[-75.5465,-12.3725],[-75.5707,-12.4158],[-75.5407,-12.4782],[-75.5401,-12.5301],[-75.5776,-12.6474],[-75.4616,-12.6657],[-75.3035,-12.5007],[-75.2354,-12.4695],[-75.1875,-12.3847],[-75.1442,-12.3927],[-75.0513,-12.2161],[-75.0761,-12.1405],[-75.0582,-12.0441],[-75.0063,-12.0216],[-74.9315,-12.0287],[-74.8449,-12.0711],[-74.706,-12.0566],[-74.6222,-11.9899],[-74.5699,-11.9953],[-74.4643,-12.044],[-74.3002,-12.2424],[-74.1608,-12.331],[-74.1146,-12.3241],[-74.0569,-12.2767],[-73.9813,-12.2981],[-73.9149,-12.2421],[-73.8757,-12.2571],[-73.7891,-12.2479],[-73.6829,-12.3062],[-73.639,-12.3731],[-73.605,-12.3922],[-73.5877,-12.3847],[-73.5554,-12.2812],[-73.4778,-12.2478],[-73.366,-12.1333],[-73.449,-11.9042],[-73.5606,-11.7891],[-73.5969,-11.6863],[-73.5842,-11.6107],[-73.4769,-11.5091],[-73.4252,-11.3715],[-73.4616,-11.3496],[-73.4673,-11.3186],[-73.4461,-11.2495],[-73.4757,-11.0847],[-73.5405,-11.0255],[-73.5786,-10.8719],[-73.7153,-10.7522],[-73.7547,-10.7508],[-73.8054,-10.817],[-73.8223,-10.941],[-73.8519,-10.9818],[-73.8604,-11.1396],[-73.8886,-11.1777],[-73.9647,-11.134],[-73.9886,-11.0424],[-74.0323,-10.9917],[-74.1267,-10.9903],[-74.3719,-11.0551],[-74.5325,-10.9086],[-74.69,-10.8778],[-74.8014,-10.8128],[-74.8575,-10.7574],[-74.9125,-10.7633],[-74.9853,-10.7285],[-75.0315,-10.6691],[-75.0614,-10.665],[-75.1183,-10.7237],[-75.2162,-10.7304],[-75.3007,-10.8667],[-75.375,-10.8597],[-75.4777,-10.8796],[-75.4932,-10.8375],[-75.4817,-10.7651],[-75.5523,-10.7448],[-75.5736,-10.7566],[-75.5799,-10.7958],[-75.6509,-10.8333],[-75.7358,-10.8143],[-75.8523,-10.8789],[-75.9412,-10.872],[-76.0041,-10.8299],[-76.1421,-10.9505],[-76.2627,-10.9268],[-76.2777,-10.962],[-76.2379,-11.1259],[-76.2598,-11.1542],[-76.3435,-11.0948],[-76.4931,-11.0848]]]},"properties":{"iso3":"PER","shapeId":"1875124B61678101818850","regionId":"PER.12_1","name":"Junin"}},{"type":"Feature","geometry":{"type":"MultiPolygon","coordinates":[[[[-76.433,-13.8732],[-76.4388,-13.8412],[-76.464,-13.8501],[-76.4602,-13.8702],[-76.433,-13.8732]]],[[[-76.2426,-13.3335],[-76.1905,-13.4356],[-76.1711,-13.569],[-76.1834,-13.6182],[-76.2479,-13.8447],[-76.2945,-13.8493],[-76.3162,-13.7955],[-76.3818,-13.8493],[-76.393,-13.8881],[-76.3628,-13.9216],[-76.307,-13.9019],[-76.2807,-13.9189],[-76.2613,-14.0615],[-76.286,-14.1784],[-76.2706,-14.199],[-76.2665,-14.16],[-76.2429,-14.1682],[-76.128,-14.2687],[-76.1095,-14.3087],[-76.1772,-14.3098],[-76.0213,-14.4483],[-75.9074,-14.6596],[-75.735,-14.8023],[-75.539,-14.9028],[-75.4385,-15.0362],[-75.3667,-15.1696],[-75.3072,-15.1726],[-75.2384,-15.227],[-75.2323,-15.2742],[-75.2651,-15.2763],[-75.1676,-15.3327],[-75.1594,-15.3625],[-75.1974,-15.3799],[-75.1029,-15.4333],[-75.0074,-15.3725],[-74.9261,-15.2109],[-74.6692,-15.0643],[-74.6645,-15.0225],[-74.6709,-14.8846],[-74.7592,-14.798],[-74.7268,-14.7502],[-74.8016,-14.7628],[-74.8354,-14.7261],[-74.8089,-14.6389],[-74.8741,-14.6008],[-74.892,-14.5668],[-74.9647,-14.6176],[-75.0351,-14.6384],[-75.0709,-14.5876],[-75.09,-14.5091],[-75.0657,-14.4618],[-75.12,-14.4046],[-75.0463,-14.2778],[-75.0791,-14.2264],[-75.0524,-14.1247],[-75.1188,-14.0745],[-75.326,-14.0301],[-75.4091,-13.9458],[-75.5696,-13.8725],[-75.532,-13.8309],[-75.5315,-13.753],[-75.492,-13.6533],[-75.516,-13.6111],[-75.4751,-13.5265],[-75.4723,-13.4518],[-75.5019,-13.4025],[-75.6991,-13.4434],[-75.795,-13.3969],[-75.7682,-13.3292],[-75.7048,-13.2658],[-75.6921,-13.1926],[-75.7161,-13.1193],[-75.7103,-13.0562],[-75.7496,-13.0374],[-75.7998,-13.0622],[-75.943,-13.0062],[-76.0145,-13.0937],[-76.1461,-13.2001],[-76.2426,-13.3335]]]]},"properties":{"iso3":"PER","shapeId":"1875124B25343038633883","regionId":"PER.11_1","name":"Ica"}},{"type":"Feature","geometry":{"type":"Polygon","coordinates":[[[-75.7103,-13.0562],[-75.7161,-13.1193],[-75.6921,-13.1926],[-75.7048,-13.2658],[-75.7682,-13.3292],[-75.795,-13.3969],[-75.6991,-13.4434],[-75.5019,-13.4025],[-75.4723,-13.4518],[-75.4751,-13.5265],[-75.516,-13.6111],[-75.492,-13.6533],[-75.5315,-13.753],[-75.532,-13.8309],[-75.5696,-13.8725],[-75.4091,-13.9458],[-75.326,-14.0301],[-75.1188,-14.0745],[-75.0627,-14.1117],[-74.9884,-14.0843],[-74.9272,-14.0982],[-74.7668,-14.082],[-74.7645,-14.0479],[-74.787,-14.0283],[-74.7668,-13.9908],[-74.7881,-13.9285],[-74.7685,-13.8748],[-74.7685,-13.6399],[-74.8089,-13.547],[-74.8874,-13.4754],[-74.9001,-13.4223],[-74.8533,-13.3716],[-74.765,-13.3502],[-74.6767,-13.3617],[-74.6444,-13.2844],[-74.5786,-13.2169],[-74.4465,-13.1938],[-74.3899,-13.1528],[-74.4037,-13.102],[-74.368,-13.0409],[-74.3033,-13.0587],[-74.2791,-13.0374],[-74.3039,-12.8406],[-74.282,-12.7938],[-74.3404,-12.7017],[-74.3323,-12.6016],[-74.3762,-12.5635],[-74.4257,-12.4598],[-74.5336,-12.4077],[-74.5792,-12.3316],[-74.5348,-12.3004],[-74.4043,-12.2912],[-74.3471,-12.1835],[-74.3552,-12.1694],[-74.4643,-12.044],[-74.5699,-11.9953],[-74.6222,-11.9899],[-74.725,-12.0611],[-74.8449,-12.0711],[-74.9567,-12.0224],[-75.0582,-12.0441],[-75.0761,-12.1405],[-75.0513,-12.2161],[-75.1442,-12.3927],[-75.1875,-12.3847],[-75.2354,-12.4695],[-75.3035,-12.5007],[-75.4616,-12.6657],[-75.5776,-12.6474],[-75.5667,-12.7211],[-75.5217,-12.7967],[-75.6342,-12.9162],[-75.6117,-12.9785],[-75.6515,-13.0524],[-75.7103,-13.0562]]]},"properties":{"iso3":"PER","shapeId":"1875124B3070334250121","regionId":"PER.9_1","name":"Huancavelica"}},{"type":"Feature","geometry":{"type":"Polygon","coordinates":[[[-68.847,-13.0059],[-68.8631,-12.8971],[-68.78,-12.7673],[-68.7034,-12.6933],[-68.7216,-12.6556],[-68.6502,-12.5517],[-68.6428,-12.4909],[-69.0574,-11.7222],[-69.5413,-10.9718],[-69.5638,-10.9502],[-69.6901,-10.9726],[-69.8081,-10.9344],[-69.9459,-10.9398],[-70.1603,-11.0504],[-70.2986,-11.0781],[-70.4257,-11.0329],[-70.5161,-10.9361],[-70.6221,-10.9996],[-70.6233,-9.9504],[-70.6915,-9.9786],[-70.8324,-10.1167],[-70.8395,-10.3097],[-71.1509,-10.5746],[-71.2241,-10.6874],[-71.2333,-10.823],[-71.3226,-10.9475],[-71.4551,-10.9853],[-71.8249,-10.9817],[-71.9466,-10.9466],[-72.0458,-10.998],[-72.1243,-10.9862],[-72.1693,-11.0322],[-72.1243,-11.1359],[-72.1937,-11.2216],[-72.2081,-11.2874],[-72.2446,-11.32],[-72.2376,-11.3631],[-72.3514,-11.6981],[-72.3931,-11.7703],[-72.3995,-11.8152],[-72.3578,-11.8633],[-72.3434,-11.9354],[-72.2616,-12.0412],[-72.167,-12.0604],[-72.0949,-12.1005],[-72.0965,-12.1855],[-72.0757,-12.2432],[-71.949,-12.2945],[-71.9378,-12.333],[-72.0611,-12.4737],[-72.004,-12.5308],[-71.9449,-12.6805],[-71.9035,-12.7094],[-71.8221,-12.7232],[-71.7741,-12.7692],[-71.7157,-12.7862],[-71.5909,-12.6969],[-71.5522,-12.6963],[-71.4727,-12.7784],[-71.4093,-12.8826],[-71.2739,-12.9493],[-71.1703,-12.9688],[-71.1415,-13.1278],[-71.0974,-13.2294],[-70.9969,-13.2468],[-70.882,-13.0909],[-70.8327,-13.0755],[-70.7274,-13.1132],[-70.5863,-13.1086],[-70.5009,-13.1599],[-70.3919,-13.1618],[-70.3387,-13.1369],[-70.2914,-13.1461],[-69.6066,-13.373],[-68.847,-13.0059]]]},"properties":{"iso3":"PER","shapeId":"1875124B2667580847298","regionId":"PER.18_1","name":"Madre de Dios"}},{"type":"Feature","geometry":{"type":"Polygon","coordinates":[[[-70.3942,-13.1619],[-70.5009,-13.1599],[-70.5863,-13.1086],[-70.7274,-13.1132],[-70.8584,-13.0786],[-70.9702,-13.1924],[-70.9969,-13.2468],[-71.0625,-13.2427],[-71.1149,-13.2037],[-71.1703,-12.9688],[-71.2739,-12.9493],[-71.4093,-12.8826],[-71.4727,-12.7784],[-71.5522,-12.6963],[-71.5909,-12.6969],[-71.7157,-12.7862],[-71.7741,-12.7692],[-71.8221,-12.7232],[-71.9035,-12.7094],[-71.9449,-12.6805],[-72.004,-12.5308],[-72.0611,-12.4737],[-71.9378,-12.333],[-71.949,-12.2945],[-72.0757,-12.2432],[-72.0965,-12.1855],[-72.0949,-12.1005],[-72.167,-12.0604],[-72.2616,-12.0412],[-72.3258,-11.9691],[-72.3578,-11.8633],[-72.3995,-11.8152],[-72.2376,-11.3631],[-72.2446,-11.32],[-72.2749,-11.3037],[-72.3515,-11.3253],[-72.549,-11.4362],[-72.6169,-11.4214],[-72.6977,-11.3654],[-72.8057,-11.3851],[-72.9009,-11.3533],[-72.9338,-11.3227],[-72.9569,-11.2529],[-72.988,-11.2385],[-73.1406,-11.3],[-73.3056,-11.3073],[-73.4252,-11.3715],[-73.4769,-11.5091],[-73.5842,-11.6107],[-73.5969,-11.6863],[-73.5606,-11.7891],[-73.449,-11.9042],[-73.366,-12.1333],[-73.4778,-12.2478],[-73.5554,-12.2812],[-73.5877,-12.3847],[-73.605,-12.3922],[-73.639,-12.3731],[-73.6829,-12.3062],[-73.7891,-12.2479],[-73.8757,-12.2571],[-73.9149,-12.2421],[-73.9792,-12.296],[-73.7828,-12.6227],[-73.6594,-12.7318],[-73.5363,-12.9134],[-73.3895,-13.2294],[-73.278,-13.383],[-73.2155,-13.4295],[-73.0856,-13.4456],[-72.9221,-13.3846],[-72.5742,-13.5722],[-72.454,-13.6043],[-72.3033,-13.7133],[-72.2167,-13.718],[-72.1353,-13.7922],[-72.0808,-13.8933],[-72.0475,-14.0081],[-72.0865,-14.2297],[-72.2855,-14.4349],[-72.4754,-14.5417],[-72.4836,-14.5919],[-72.4579,-14.6391],[-72.4815,-14.754],[-72.3933,-14.8197],[-72.2661,-14.8248],[-72.1399,-14.7992],[-72.0875,-14.8679],[-72.0485,-14.8813],[-72.0249,-14.8423],[-72.0167,-14.6956],[-71.9972,-14.6566],[-71.9644,-14.6555],[-71.9254,-14.6997],[-71.9213,-14.7663],[-71.8782,-14.8023],[-71.8454,-14.8802],[-71.7541,-14.9695],[-71.75,-14.988],[-71.8156,-15.069],[-71.8023,-15.0988],[-71.6819,-15.1077],[-71.6092,-15.1489],[-71.4894,-15.0766],[-71.4932,-15.0245],[-71.4705,-15.0052],[-71.411,-15.0234],[-71.3526,-15.095],[-71.3092,-15.1167],[-71.2029,-15.0727],[-71.1444,-15.1383],[-71.1779,-15.2703],[-71.1497,-15.3708],[-71.1674,-15.422],[-71.1589,-15.443],[-71.0748,-15.4719],[-71.0354,-15.4542],[-70.9507,-15.3143],[-70.9691,-15.051],[-70.9908,-15.0024],[-70.956,-14.7936],[-70.9684,-14.7713],[-71.0472,-14.7503],[-71.094,-14.6954],[-71.0704,-14.6509],[-70.9687,-14.5837],[-70.9658,-14.4081],[-70.8759,-14.3005],[-70.8667,-14.2079],[-70.7833,-14.1087],[-70.8325,-14.0496],[-70.8062,-13.9262],[-70.8437,-13.8257],[-70.8305,-13.8093],[-70.7005,-13.8428],[-70.69,-13.8185],[-70.7176,-13.7357],[-70.6999,-13.7023],[-70.5285,-13.5742],[-70.4208,-13.3857],[-70.3518,-13.3102],[-70.3558,-13.2859],[-70.3958,-13.2656],[-70.3781,-13.1907],[-70.3942,-13.1619]]]},"properties":{"iso3":"PER","shapeId":"1875124B5984096006894","regionId":"PER.8_1","name":"Cusco"}},{"type":"Feature","geometry":{"type":"Polygon","coordinates":[[[-73.2092,-13.4314],[-73.2428,-13.4767],[-73.3208,-13.4479],[-73.4603,-13.4315],[-73.7244,-13.2695],[-73.727,-13.2006],[-73.75,-13.1776],[-73.8065,-13.2373],[-73.8229,-13.2945],[-73.8432,-13.4317],[-73.8196,-13.5217],[-73.7743,-13.6418],[-73.6876,-13.7377],[-73.7447,-13.7942],[-73.7375,-13.8172],[-73.6929,-13.8776],[-73.6009,-14.1081],[-73.5171,-14.2508],[-73.5113,-14.3168],[-73.5672,-14.4521],[-73.5103,-14.5782],[-73.5248,-14.6334],[-73.5129,-14.6524],[-73.5635,-14.7378],[-73.5418,-14.8021],[-73.4775,-14.8593],[-73.4112,-14.7949],[-73.3619,-14.703],[-73.2726,-14.743],[-73.0388,-14.661],[-72.9804,-14.6623],[-72.8353,-14.7332],[-72.7565,-14.6603],[-72.5936,-14.7063],[-72.4716,-14.6912],[-72.4579,-14.6391],[-72.4836,-14.5919],[-72.4754,-14.5417],[-72.2855,-14.4349],[-72.0865,-14.2297],[-72.0475,-14.0081],[-72.1038,-13.8441],[-72.2167,-13.718],[-72.3033,-13.7133],[-72.454,-13.6043],[-72.5742,-13.5722],[-72.9221,-13.3846],[-73.0392,-13.4391],[-73.2092,-13.4314]]]},"properties":{"iso3":"PER","shapeId":"1875124B63771233756824","regionId":"PER.3_1","name":"Apurimac"}},{"type":"Feature","geometry":{"type":"Polygon","coordinates":[[[-74.3471,-12.1835],[-74.4043,-12.2912],[-74.5348,-12.3004],[-74.5792,-12.3316],[-74.5336,-12.4077],[-74.4257,-12.4598],[-74.3762,-12.5635],[-74.3323,-12.6016],[-74.3404,-12.7017],[-74.282,-12.7938],[-74.3039,-12.8406],[-74.2791,-13.0374],[-74.3033,-13.0587],[-74.368,-13.0409],[-74.4037,-13.102],[-74.3899,-13.1528],[-74.4465,-13.1938],[-74.5786,-13.2169],[-74.6444,-13.2844],[-74.6767,-13.3617],[-74.765,-13.3502],[-74.8914,-13.3969],[-74.9007,-13.4529],[-74.8089,-13.547],[-74.7685,-13.6399],[-74.7685,-13.8748],[-74.7881,-13.9285],[-74.7668,-13.9908],[-74.787,-14.0283],[-74.7645,-14.0479],[-74.7668,-14.082],[-74.9272,-14.0982],[-74.9884,-14.0843],[-75.0627,-14.1117],[-75.0524,-14.1247],[-75.0791,-14.2264],[-75.0463,-14.2778],[-75.12,-14.4046],[-75.0657,-14.4618],[-75.0888,-14.527],[-75.0496,-14.6326],[-74.9855,-14.6274],[-74.892,-14.5668],[-74.8741,-14.6008],[-74.8089,-14.6389],[-74.8354,-14.7261],[-74.8187,-14.7547],[-74.7268,-14.7502],[-74.7592,-14.798],[-74.6709,-14.8846],[-74.6692,-15.0643],[-74.7704,-15.1238],[-74.6004,-15.1613],[-74.5485,-15.1508],[-74.4217,-15.1817],[-74.3784,-15.2099],[-74.3968,-15.3209],[-74.3193,-15.3721],[-74.3042,-15.4693],[-74.2845,-15.489],[-74.1873,-15.5008],[-74.1144,-15.4351],[-74.0442,-15.4404],[-74.0297,-15.4778],[-74.075,-15.6124],[-74.0606,-15.6354],[-74.01,-15.6065],[-73.8761,-15.4496],[-73.878,-15.3728],[-73.8268,-15.3301],[-73.7979,-15.3353],[-73.7375,-15.4069],[-73.6784,-15.4437],[-73.5221,-15.4181],[-73.4657,-15.3885],[-73.3516,-15.4148],[-73.3136,-15.4056],[-73.2459,-15.2999],[-73.1874,-15.305],[-73.1484,-15.2814],[-73.0181,-15.1285],[-72.9791,-14.989],[-73.012,-14.9192],[-73.013,-14.869],[-72.9699,-14.8053],[-72.8806,-14.7961],[-72.8324,-14.7561],[-72.8336,-14.7317],[-72.9804,-14.6623],[-73.0388,-14.661],[-73.2726,-14.743],[-73.3619,-14.703],[-73.4112,-14.7949],[-73.4775,-14.8593],[-73.5418,-14.8021],[-73.5635,-14.7378],[-73.5129,-14.6524],[-73.5248,-14.6334],[-73.5103,-14.5782],[-73.5672,-14.4521],[-73.5113,-14.3168],[-73.5171,-14.2508],[-73.6009,-14.1081],[-73.6929,-13.8776],[-73.7375,-13.8172],[-73.7447,-13.7942],[-73.6876,-13.7377],[-73.7743,-13.6418],[-73.8196,-13.5217],[-73.8432,-13.4317],[-73.8229,-13.2945],[-73.8065,-13.2373],[-73.75,-13.1776],[-73.727,-13.2006],[-73.7244,-13.2695],[-73.4603,-13.4315],[-73.3208,-13.4479],[-73.2428,-13.4767],[-73.2092,-13.4314],[-73.278,-13.383],[-73.3557,-13.2838],[-73.5363,-12.9134],[-73.6594,-12.7318],[-73.7828,-12.6227],[-73.9792,-12.296],[-74.0569,-12.2767],[-74.1146,-12.3241],[-74.1608,-12.331],[-74.3002,-12.2424],[-74.3471,-12.1835]]]},"properties":{"iso3":"PER","shapeId":"1875124B76579830071892","regionId":"PER.5_1","name":"Ayacucho"}},{"type":"Feature","geometry":{"type":"Polygon","coordinates":[[[-71.0283,-15.4444],[-71.0748,-15.4719],[-71.1589,-15.443],[-71.1497,-15.3708],[-71.1779,-15.2703],[-71.1444,-15.1383],[-71.2029,-15.0727],[-71.3092,-15.1167],[-71.3526,-15.095],[-71.411,-15.0234],[-71.4705,-15.0052],[-71.4932,-15.0245],[-71.4894,-15.0766],[-71.6092,-15.1489],[-71.6819,-15.1077],[-71.8023,-15.0988],[-71.8156,-15.069],[-71.75,-14.988],[-71.7541,-14.9695],[-71.8454,-14.8802],[-71.8782,-14.8023],[-71.9213,-14.7663],[-71.9254,-14.6997],[-71.9644,-14.6555],[-71.9972,-14.6566],[-72.0167,-14.6956],[-72.0249,-14.8423],[-72.0485,-14.8813],[-72.0875,-14.8679],[-72.1399,-14.7992],[-72.2661,-14.8248],[-72.3933,-14.8197],[-72.4815,-14.754],[-72.4716,-14.6912],[-72.5936,-14.7063],[-72.7729,-14.6629],[-72.8488,-14.7715],[-72.8806,-14.7961],[-72.9699,-14.8053],[-73.013,-14.869],[-73.012,-14.9192],[-72.9791,-14.989],[-73.0181,-15.1285],[-73.1484,-15.2814],[-73.1874,-15.305],[-73.2459,-15.2999],[-73.3136,-15.4056],[-73.3516,-15.4148],[-73.4657,-15.3885],[-73.5221,-15.4181],[-73.6784,-15.4437],[-73.7375,-15.4069],[-73.7979,-15.3353],[-73.8268,-15.3301],[-73.878,-15.3728],[-73.8761,-15.4496],[-74.01,-15.6065],[-74.0606,-15.6354],[-74.075,-15.6124],[-74.0297,-15.4778],[-74.0442,-15.4404],[-74.1144,-15.4351],[-74.2018,-15.5034],[-74.297,-15.4831],[-74.3193,-15.3721],[-74.3968,-15.3209],[-74.3784,-15.2099],[-74.4217,-15.1817],[-74.5485,-15.1508],[-74.6004,-15.1613],[-74.7704,-15.1238],[-74.9261,-15.2109],[-75.0074,-15.3725],[-75.1029,-15.4333],[-74.514,-15.7051],[-74.3878,-15.8313],[-74.3232,-15.8416],[-74.0811,-15.9545],[-73.9046,-16.1238],[-73.6943,-16.2438],[-73.5968,-16.2479],[-73.4583,-16.2848],[-73.3187,-16.3495],[-73.2654,-16.4172],[-72.9083,-16.5331],[-72.7524,-16.6429],[-72.4405,-16.7271],[-72.3143,-16.8194],[-72.0875,-17.0328],[-71.9583,-17.0585],[-71.8331,-17.1806],[-71.4762,-17.2974],[-71.2948,-17.124],[-71.3151,-17.0682],[-71.3861,-17.0229],[-71.4318,-16.953],[-71.4248,-16.7945],[-71.3847,-16.7512],[-71.3013,-16.7512],[-71.226,-16.5717],[-71.226,-16.5188],[-71.1955,-16.4883],[-71.0737,-16.4755],[-70.9727,-16.5092],[-70.9519,-16.4723],[-70.9679,-16.3617],[-70.9487,-16.3296],[-70.8428,-16.2655],[-70.8647,-16.1076],[-70.8102,-16.0668],[-70.799,-15.9907],[-70.9174,-15.8126],[-70.8929,-15.7254],[-70.9284,-15.6367],[-71.0013,-15.5665],[-71.0091,-15.5389],[-70.9868,-15.4759],[-71.0283,-15.4444]]]},"properties":{"iso3":"PER","shapeId":"1875124B34173194899706","regionId":"PER.4_1","name":"Arequipa"}},{"type":"Feature","geometry":{"type":"Polygon","coordinates":[[[-70.7956,-16.0154],[-70.8102,-16.0668],[-70.8647,-16.1076],[-70.8428,-16.2655],[-70.9487,-16.3296],[-70.9679,-16.3617],[-70.9519,-16.4723],[-70.9727,-16.5092],[-71.0737,-16.4755],[-71.1955,-16.4883],[-71.226,-16.5188],[-71.226,-16.5717],[-71.3013,-16.7512],[-71.3847,-16.7512],[-71.436,-16.8186],[-71.4197,-16.9203],[-71.4318,-16.953],[-71.3861,-17.0229],[-71.3151,-17.0682],[-71.2948,-17.124],[-71.4762,-17.2974],[-71.3642,-17.4401],[-71.3529,-17.5756],[-71.3273,-17.6423],[-71.3426,-17.6936],[-71.3714,-17.711],[-71.3632,-17.7254],[-71.3119,-17.7202],[-71.197,-17.7777],[-71.1441,-17.8294],[-71.0749,-17.751],[-70.8912,-17.6864],[-70.845,-17.555],[-70.7301,-17.4319],[-70.7178,-17.3386],[-70.6747,-17.2698],[-70.623,-17.2258],[-70.5456,-17.2101],[-70.4549,-17.1024],[-70.4372,-17.0669],[-70.4342,-16.8984],[-70.369,-16.8232],[-70.2804,-16.7896],[-70.1822,-16.8358],[-70.1802,-16.8543],[-70.2304,-16.8881],[-70.2397,-16.9189],[-70.2233,-16.9754],[-70.1172,-16.9423],[-70.0445,-16.8056],[-69.9914,-16.7486],[-70.0016,-16.6634],[-70.1278,-16.6419],[-70.1874,-16.5578],[-70.3484,-16.411],[-70.3402,-16.3259],[-70.3115,-16.2612],[-70.4379,-16.057],[-70.5685,-16.0091],[-70.6894,-16.0366],[-70.7956,-16.0154]]]},"properties":{"iso3":"PER","shapeId":"1875124B48847835594727","regionId":null,"name":"Moquegua"}},{"type":"Feature","geometry":{"type":"Polygon","coordinates":[[[-70.1172,-16.9423],[-70.2233,-16.9754],[-70.2397,-16.9189],[-70.2304,-16.8881],[-70.1802,-16.8543],[-70.1822,-16.8358],[-70.2804,-16.7896],[-70.369,-16.8232],[-70.4342,-16.8984],[-70.4372,-17.0669],[-70.4549,-17.1024],[-70.5456,-17.2101],[-70.623,-17.2258],[-70.6747,-17.2698],[-70.7178,-17.3386],[-70.7301,-17.4319],[-70.845,-17.555],[-70.8912,-17.6864],[-71.0749,-17.751],[-71.1441,-17.8294],[-70.9497,-17.9213],[-70.844,-18.0373],[-70.3885,-18.3553],[-69.9811,-18.2927],[-69.8457,-18.2014],[-69.7482,-18.0393],[-69.7492,-17.949],[-69.8149,-17.7089],[-69.7503,-17.6669],[-69.6197,-17.6572],[-69.4903,-17.5633],[-69.4673,-17.5088],[-69.4733,-17.3858],[-69.4979,-17.3529],[-69.5799,-17.3031],[-69.7188,-17.3145],[-69.7891,-17.2619],[-69.9316,-17.2133],[-70.0084,-17.1451],[-70.0334,-17.0676],[-70.0846,-17.0249],[-70.1172,-16.9423]]]},"properties":{"iso3":"PER","shapeId":"1875124B58976419670313","regionId":"PER.24_1","name":"Tacna"}},{"type":"Feature","geometry":{"type":"Polygon","coordinates":[[[-77.7124,-5.3775],[-77.6178,-5.4354],[-77.5381,-5.4262],[-77.477,-5.5376],[-77.3465,-5.5785],[-77.2582,-5.5664],[-77.1907,-5.6132],[-77.088,-5.627],[-76.8237,-5.7829],[-76.7538,-5.9687],[-76.6944,-6.0206],[-76.6384,-5.9987],[-76.5391,-6.005],[-76.4197,-5.9398],[-76.3908,-5.9433],[-76.3083,-6.0893],[-76.183,-6.1378],[-76.1028,-6.1228],[-76.063,-6.0876],[-76.0186,-6.0789],[-75.977,-6.0824],[-75.917,-6.1257],[-75.8529,-6.1291],[-75.805,-6.1101],[-75.7358,-6.128],[-75.6665,-6.0985],[-75.5921,-6.0299],[-75.5528,-6.0339],[-75.5395,-6.1499],[-75.4974,-6.2446],[-75.4968,-6.2671],[-75.5517,-6.334],[-75.5165,-6.4795],[-75.5488,-6.5845],[-75.5159,-6.7559],[-75.5713,-6.8182],[-75.6764,-6.8399],[-75.734,-6.8772],[-75.887,-6.7946],[-76.0145,-6.7946],[-76.0595,-6.8142],[-76.0163,-6.8979],[-76.052,-6.9296],[-76.0047,-7.0046],[-76.0105,-7.0762],[-76.0474,-7.138],[-76.1715,-7.2442],[-76.2159,-7.3861],[-76.1669,-7.4912],[-76.0797,-7.576],[-76.0861,-7.7382],[-75.9909,-7.913],[-75.9672,-7.9292],[-75.8876,-7.9246],[-75.8391,-7.9956],[-75.846,-8.0383],[-75.9409,-8.1098],[-75.9326,-8.2668],[-76.0034,-8.3141],[-75.9586,-8.3873],[-75.9766,-8.6452],[-75.955,-8.7012],[-75.9251,-8.6956],[-75.8281,-8.6322],[-75.7669,-8.4994],[-75.6625,-8.4094],[-75.6128,-8.399],[-75.4611,-8.4348],[-75.4501,-8.3898],[-75.5141,-8.3095],[-75.5159,-8.2697],[-75.3958,-8.1549],[-75.3052,-8.1191],[-75.2585,-8.137],[-75.2354,-8.126],[-75.1713,-8.0123],[-75.0294,-7.976],[-74.8666,-8.0262],[-74.7373,-7.9967],[-74.6799,-7.9635],[-74.5284,-7.7525],[-74.5671,-7.6921],[-74.5744,-7.6398],[-74.6492,-7.5496],[-74.5567,-7.3428],[-74.5088,-7.2926],[-74.4522,-7.2788],[-74.3939,-7.3024],[-74.2618,-7.3827],[-74.2075,-7.4398],[-74.0806,-7.464],[-73.974,-7.5419],[-73.9356,-7.4929],[-73.9269,-7.4478],[-73.9728,-7.3336],[-73.8651,-7.3424],[-73.7692,-7.3059],[-73.8135,-7.2274],[-73.8817,-7.1727],[-73.8833,-7.141],[-73.8294,-7.0729],[-73.7279,-7.0008],[-73.7485,-6.9421],[-73.6788,-6.8074],[-73.5988,-6.7242],[-73.4941,-6.6586],[-73.3617,-6.5947],[-73.2293,-6.5784],[-73.1304,-6.4877],[-73.0939,-6.406],[-73.2235,-6.1663],[-73.2388,-6.0987],[-73.1404,-5.8544],[-72.9755,-5.6727],[-72.9465,-5.5335],[-72.9586,-5.4481],[-72.8951,-5.3108],[-72.8692,-5.29],[-72.8803,-5.1626],[-72.744,-5.0562],[-72.6731,-5.0274],[-72.6269,-5.0477],[-72.5846,-4.9778],[-72.4155,-4.8779],[-72.3602,-4.7977],[-72.1759,-4.7386],[-71.9463,-4.5697],[-71.8978,-4.5085],[-71.7576,-4.4531],[-71.6912,-4.4901],[-71.6456,-4.4606],[-71.5666,-4.4953],[-71.4597,-4.4178],[-71.3974,-4.4259],[-71.3316,-4.4015],[-71.2964,-4.4169],[-71.2369,-4.3691],[-71.1792,-4.3862],[-71.0728,-4.3528],[-70.9384,-4.3555],[-70.8465,-4.2536],[-70.8131,-4.1842],[-70.7346,-4.1391],[-70.6589,-4.1671],[-70.6309,-4.1355],[-70.5588,-4.177],[-70.5056,-4.1382],[-70.465,-4.1472],[-70.3823,-4.1051],[-70.2801,-4.1652],[-70.2599,-4.2598],[-70.2063,-4.2962],[-70.1711,-4.3158],[-70.0932,-4.2448],[-69.957,-4.3568],[-69.9541,-4.2177],[-70.0529,-4.0832],[-70.1647,-3.9957],[-70.18,-3.8965],[-70.3108,-3.7919],[-70.3757,-3.7982],[-70.4704,-3.8569],[-70.7103,-3.7919],[-70.061,-2.7811],[-70.0448,-2.7414],[-70.0655,-2.6395],[-70.1043,-2.6801],[-70.1314,-2.6792],[-70.2026,-2.6106],[-70.2242,-2.5475],[-70.2612,-2.524],[-70.3216,-2.5475],[-70.318,-2.4735],[-70.3424,-2.4654],[-70.3775,-2.497],[-70.4181,-2.5042],[-70.4497,-2.4501],[-70.502,-2.4438],[-70.5065,-2.424],[-70.5462,-2.4095],[-70.5723,-2.451],[-70.6003,-2.4582],[-70.6282,-2.4402],[-70.6886,-2.313],[-70.8203,-2.2607],[-70.8591,-2.2021],[-70.9141,-2.24],[-70.9799,-2.203],[-70.9871,-2.2679],[-71.0755,-2.258],[-71.108,-2.2688],[-71.1323,-2.3211],[-71.1765,-2.3491],[-71.2315,-2.3275],[-71.2892,-2.3302],[-71.3731,-2.3626],[-71.3794,-2.3861],[-71.457,-2.2598],[-71.4858,-2.313],[-71.521,-2.2274],[-71.6391,-2.1814],[-71.7085,-2.1904],[-71.7103,-2.1255],[-71.8231,-2.1976],[-71.87,-2.2815],[-71.943,-2.3446],[-71.9782,-2.3518],[-72.0296,-2.3284],[-72.081,-2.3464],[-72.1216,-2.396],[-72.1378,-2.4537],[-72.2372,-2.4271],[-72.3595,-2.4544],[-72.4175,-2.4127],[-72.6008,-2.342],[-72.6764,-2.4078],[-72.7739,-2.3755],[-72.8813,-2.4211],[-72.9205,-2.4107],[-72.9873,-2.332],[-73.1126,-2.2833],[-73.1658,-2.1976],[-73.0882,-2.0687],[-73.1216,-1.8784],[-73.1667,-1.7738],[-73.2208,-1.7494],[-73.3344,-1.7918],[-73.4201,-1.7612],[-73.5256,-1.6872],[-73.5247,-1.6511],[-73.485,-1.606],[-73.476,-1.5023],[-73.568,-1.3725],[-73.6041,-1.2868],[-73.6852,-1.2192],[-73.7366,-1.2075],[-73.7934,-1.23],[-73.8448,-1.2084],[-73.9107,-1.1191],[-73.9819,-1.0706],[-74.0084,-1.0036],[-74.0488,-1.0406],[-74.2577,-0.9534],[-74.2873,-0.8496],[-74.2676,-0.7947],[-74.3676,-0.7059],[-74.3507,-0.6467],[-74.3958,-0.5354],[-74.5945,-0.3551],[-74.71,-0.3213],[-74.7777,-0.1691],[-74.803,-0.162],[-74.8791,-0.2043],[-74.9383,-0.1874],[-75.0651,-0.0705],[-75.175,-0.0141],[-75.2511,-0.0803],[-75.3708,-0.1381],[-75.4314,-0.1381],[-75.5371,-0.093],[-75.6118,-0.093],[-75.6104,-0.1761],[-75.5005,-0.248],[-75.2328,-0.5749],[-75.2694,-0.7383],[-75.2175,-0.9257],[-75.2198,-0.9436],[-75.307,-0.9621],[-75.3706,-0.9135],[-75.5538,-1.5301],[-76.0373,-2.1149],[-76.6436,-2.5718],[-77.8263,-2.9807],[-77.7856,-3.1427],[-77.7801,-3.4105],[-77.7594,-3.4691],[-77.6485,-3.5917],[-77.6368,-3.8037],[-77.5727,-3.8803],[-77.534,-4.0174],[-77.5331,-4.0616],[-77.598,-4.2545],[-77.5738,-4.4194],[-77.6449,-4.512],[-77.687,-4.6286],[-77.7748,-4.7105],[-77.8187,-4.8143],[-77.7188,-5.0499],[-77.7107,-5.1948],[-77.6843,-5.2808],[-77.6887,-5.3491],[-77.7124,-5.3775]]]},"properties":{"iso3":"PER","shapeId":"1875124B3524833739478","regionId":"PER.17_1","name":"Loreto"}}]}