{"type":"FeatureCollection","features":[{"type":"Feature","geometry":{"type":"Polygon","coordinates":[[[-57.6421,-25.3804],[-57.6154,-25.3131],[-57.5861,-25.3414],[-57.5604,-25.3203],[-57.5278,-25.2431],[-57.5746,-25.2239],[-57.6687,-25.28],[-57.6678,-25.3453],[-57.6421,-25.3804]]]},"properties":{"iso3":"PRY","shapeId":"63826900B42428386495226","regionId":"PRY.4_1","name":"Asunción"}},{"type":"Feature","geometry":{"type":"Polygon","coordinates":[[[-56.8261,-22.2959],[-56.8673,-22.2886],[-56.8866,-22.2459],[-56.9056,-22.2664],[-56.9588,-22.2379],[-56.9869,-22.2425],[-56.9964,-22.2224],[-57.044,-22.2426],[-57.0597,-22.2295],[-57.0826,-22.2511],[-57.1122,-22.2412],[-57.1101,-22.2254],[-57.1865,-22.2342],[-57.2047,-22.2086],[-57.2401,-22.2493],[-57.2919,-22.2185],[-57.3203,-22.2459],[-57.3352,-22.2291],[-57.3743,-22.2322],[-57.407,-22.1977],[-57.4887,-22.1913],[-57.5216,-22.1683],[-57.5802,-22.1753],[-57.6115,-22.0945],[-57.6527,-22.1071],[-57.7073,-22.0908],[-57.7172,-22.1135],[-57.7382,-22.1028],[-57.7394,-22.1345],[-57.7793,-22.125],[-57.804,-22.151],[-57.8281,-22.1203],[-57.8633,-22.1374],[-57.93,-22.1205],[-57.9416,-22.0831],[-57.993,-22.0869],[-57.9562,-22.1336],[-57.9726,-22.1943],[-57.9538,-22.2738],[-57.8913,-22.2672],[-57.8777,-22.3293],[-57.8175,-22.3783],[-57.8654,-22.4173],[-57.8396,-22.4471],[-57.8277,-22.5707],[-57.7729,-22.6394],[-57.7861,-22.6638],[-57.9094,-22.6591],[-57.9389,-22.6926],[-57.9319,-22.7332],[-57.8876,-22.7586],[-57.8753,-22.803],[-57.8102,-22.819],[-57.7895,-22.8775],[-57.8214,-22.915],[-57.766,-22.9712],[-57.7884,-23.0301],[-57.7341,-23.0577],[-57.7109,-23.0939],[-57.6319,-23.0945],[-57.6427,-23.1372],[-57.6231,-23.1784],[-57.549,-23.212],[-57.4932,-23.2797],[-57.4891,-23.3179],[-57.5224,-23.3472],[-57.4619,-23.4255],[-57.4501,-23.4775],[-57.362,-23.5095],[-57.2677,-23.499],[-57.2408,-23.4726],[-57.1496,-23.4831],[-57.1354,-23.465],[-57.0329,-23.4421],[-56.8166,-23.4398],[-56.8043,-23.4253],[-56.752,-23.4512],[-56.7271,-23.4327],[-56.6886,-23.4514],[-56.6432,-23.4415],[-56.6076,-23.4586],[-56.5562,-23.4434],[-56.5258,-23.4569],[-56.5151,-23.428],[-56.4767,-23.4093],[-56.418,-23.4216],[-56.353,-23.3796],[-56.3595,-23.3602],[-56.2876,-23.3178],[-56.2995,-23.2965],[-56.2668,-23.2489],[-56.2388,-23.2266],[-56.2011,-23.2266],[-56.2187,-23.1913],[-56.2076,-23.1618],[-56.1824,-23.1605],[-56.1857,-23.1235],[-56.1417,-23.1212],[-56.152,-23.0981],[-56.1258,-23.0693],[-56.1304,-23.0429],[-56.2944,-22.6876],[-56.328,-22.6876],[-56.3639,-22.7201],[-56.3852,-22.7135],[-56.3981,-22.7492],[-56.4118,-22.7437],[-56.4427,-22.7779],[-56.5048,-22.783],[-56.5595,-22.8995],[-56.5968,-22.9135],[-56.6646,-22.8811],[-56.7087,-22.9059],[-56.7132,-22.8434],[-56.6773,-22.8436],[-56.6491,-22.802],[-56.6698,-22.7665],[-56.6656,-22.7228],[-56.696,-22.7093],[-56.6942,-22.6822],[-56.7268,-22.6515],[-56.7153,-22.6221],[-56.7387,-22.5437],[-56.7168,-22.4587],[-56.6487,-22.4221],[-56.6449,-22.3845],[-56.6094,-22.3653],[-56.8261,-22.2959]]]},"properties":{"iso3":"PRY","shapeId":"63826900B27882980507950","regionId":"PRY.10_1","name":"Concepción"}},{"type":"Feature","geometry":{"type":"Polygon","coordinates":[[[-57.447,-23.4776],[-57.4735,-23.5362],[-57.4191,-23.6537],[-57.2567,-23.736],[-57.2557,-23.7614],[-57.278,-23.7716],[-57.2527,-23.7871],[-57.2761,-23.8431],[-57.2535,-23.8752],[-57.3042,-23.9078],[-57.2863,-23.9338],[-57.2298,-23.9518],[-57.2408,-23.984],[-57.2113,-24.0045],[-57.2641,-24.0417],[-57.2075,-24.0856],[-57.2798,-24.1436],[-57.2063,-24.2308],[-57.2044,-24.2848],[-57.164,-24.3559],[-57.1814,-24.3933],[-57.1493,-24.449],[-57.1944,-24.4847],[-57.1615,-24.5283],[-57.1948,-24.5691],[-57.1574,-24.6183],[-57.1696,-24.6896],[-57.2303,-24.6991],[-57.2321,-24.7568],[-57.3001,-24.8373],[-57.2168,-24.9111],[-57.2287,-24.9354],[-57.2691,-24.924],[-57.2636,-24.9524],[-57.219,-24.9549],[-57.211,-24.9738],[-57.192,-24.9505],[-57.1926,-24.9694],[-57.1389,-24.98],[-57.1048,-25.019],[-57.096,-25.0052],[-57.0446,-25.0152],[-57.0526,-24.983],[-57.0118,-24.9788],[-56.9789,-24.9053],[-56.9867,-24.8813],[-56.9493,-24.8433],[-56.8603,-24.8757],[-56.7674,-24.867],[-56.733,-24.8956],[-56.6847,-24.8688],[-56.6168,-24.978],[-56.5195,-25.0039],[-56.3881,-24.912],[-56.3287,-24.9172],[-56.2938,-24.9407],[-56.2496,-24.9256],[-56.1972,-24.9404],[-56.2782,-24.808],[-56.2549,-24.7662],[-56.1443,-24.9385],[-56.1258,-24.9133],[-56.0889,-24.9327],[-56.0274,-24.9103],[-55.982,-24.835],[-55.8461,-24.8615],[-55.7705,-24.8196],[-55.7168,-24.8261],[-55.702,-24.784],[-55.8396,-24.7619],[-55.867,-24.6849],[-55.9428,-24.6219],[-55.9405,-24.5706],[-55.9909,-24.5288],[-56.0258,-24.4409],[-56.0587,-24.4024],[-56.1226,-24.3857],[-56.1265,-24.3012],[-56.1562,-24.2854],[-56.1717,-24.244],[-56.1487,-24.2],[-56.1617,-24.1623],[-56.1454,-24.115],[-56.1058,-24.1069],[-56.0713,-24.056],[-56.0139,-24.0218],[-55.9771,-24.0286],[-56.0272,-23.8223],[-55.9735,-23.7406],[-55.9784,-23.6688],[-56.0216,-23.5991],[-56.049,-23.5755],[-56.0609,-23.6042],[-56.114,-23.6059],[-56.1357,-23.5653],[-56.1353,-23.512],[-56.1665,-23.4702],[-56.1548,-23.4111],[-56.1741,-23.3016],[-56.3497,-23.3527],[-56.353,-23.3796],[-56.418,-23.4216],[-56.4631,-23.4038],[-56.5151,-23.428],[-56.5258,-23.4569],[-56.5562,-23.4434],[-56.6076,-23.4586],[-56.6432,-23.4415],[-56.6886,-23.4514],[-56.7271,-23.4327],[-56.752,-23.4512],[-56.8043,-23.4253],[-56.8166,-23.4398],[-57.0329,-23.4421],[-57.1354,-23.465],[-57.1496,-23.4831],[-57.2408,-23.4726],[-57.2677,-23.499],[-57.362,-23.5095],[-57.447,-23.4776]]]},"properties":{"iso3":"PRY","shapeId":"63826900B6371140935910","regionId":"PRY.18_1","name":"San Pedro"}},{"type":"Feature","geometry":{"type":"Polygon","coordinates":[[[-57.2691,-24.924],[-57.3043,-24.9329],[-57.3294,-25.0013],[-57.3799,-25.0645],[-57.4783,-25.1037],[-57.4264,-25.1331],[-57.4341,-25.1445],[-57.3965,-25.1681],[-57.3959,-25.1925],[-57.3335,-25.2373],[-57.3397,-25.3038],[-57.2903,-25.3574],[-57.2337,-25.3669],[-57.2056,-25.3527],[-57.18,-25.4305],[-57.1318,-25.4557],[-57.1302,-25.5268],[-57.0892,-25.5825],[-57.0199,-25.591],[-56.9566,-25.5623],[-56.9086,-25.5637],[-56.921,-25.5755],[-56.9098,-25.6027],[-56.9476,-25.6415],[-56.9386,-25.6553],[-56.8775,-25.6667],[-56.8055,-25.6238],[-56.7209,-25.6609],[-56.8341,-25.5335],[-56.853,-25.5354],[-56.8551,-25.5143],[-56.667,-25.4103],[-56.5614,-25.3061],[-56.6197,-25.3218],[-56.6641,-25.2675],[-56.619,-25.1668],[-56.5617,-25.1661],[-56.5645,-24.9973],[-56.6168,-24.978],[-56.6847,-24.8688],[-56.733,-24.8956],[-56.7674,-24.867],[-56.8603,-24.8757],[-56.9493,-24.8433],[-56.9867,-24.8813],[-56.9789,-24.9053],[-57.0118,-24.9788],[-57.0526,-24.983],[-57.0446,-25.0152],[-57.096,-25.0052],[-57.1048,-25.019],[-57.1389,-24.98],[-57.1926,-24.9694],[-57.192,-24.9505],[-57.211,-24.9738],[-57.219,-24.9549],[-57.2636,-24.9524],[-57.2691,-24.924]]]},"properties":{"iso3":"PRY","shapeId":"63826900B75072183549736","regionId":"PRY.11_1","name":"Cordillera"}},{"type":"Feature","geometry":{"type":"Polygon","coordinates":[[[-55.6336,-25.6503],[-55.6665,-25.6458],[-55.6939,-25.6785],[-55.7927,-25.6947],[-55.8471,-25.6856],[-55.8601,-25.6567],[-55.9332,-25.6272],[-56.06,-25.6224],[-56.207,-25.5754],[-56.2844,-25.5864],[-56.317,-25.5648],[-56.4056,-25.5727],[-56.4287,-25.6148],[-56.4784,-25.6366],[-56.5338,-25.6253],[-56.6698,-25.7002],[-56.6895,-25.7622],[-56.6658,-25.8504],[-56.6088,-25.9151],[-56.6076,-25.9791],[-56.7477,-25.952],[-56.7017,-26.0296],[-56.722,-26.0913],[-56.7111,-26.1341],[-56.6268,-26.1971],[-56.6033,-26.1729],[-56.5512,-26.1867],[-56.5347,-26.1196],[-56.4397,-26.1179],[-56.4027,-26.1381],[-56.4109,-26.0239],[-56.3523,-26.0263],[-56.281,-25.9762],[-56.1721,-26.0607],[-56.0994,-26.0192],[-56.0485,-25.8909],[-55.9742,-25.8531],[-55.9358,-25.8543],[-55.9124,-25.876],[-55.8477,-25.8016],[-55.7566,-25.775],[-55.7622,-25.718],[-55.7278,-25.7094],[-55.679,-25.7422],[-55.6336,-25.6503]]]},"properties":{"iso3":"PRY","shapeId":"63826900B69896036469417","regionId":"PRY.12_1","name":"Guairá"}},{"type":"Feature","geometry":{"type":"Polygon","coordinates":[[[-56.5645,-24.9973],[-56.5617,-25.1661],[-56.619,-25.1668],[-56.6641,-25.2675],[-56.6197,-25.3218],[-56.5614,-25.3061],[-56.667,-25.4103],[-56.8551,-25.5143],[-56.853,-25.5354],[-56.8341,-25.5335],[-56.7037,-25.6726],[-56.6969,-25.7004],[-56.6632,-25.7083],[-56.5338,-25.6253],[-56.4784,-25.6366],[-56.4388,-25.6206],[-56.3879,-25.5657],[-56.2922,-25.569],[-56.2844,-25.5864],[-56.207,-25.5754],[-56.06,-25.6224],[-55.9332,-25.6272],[-55.8601,-25.6567],[-55.8471,-25.6856],[-55.7927,-25.6947],[-55.6939,-25.6785],[-55.6665,-25.6458],[-55.594,-25.6581],[-55.5366,-25.6208],[-55.5384,-25.5869],[-55.4927,-25.5581],[-55.4779,-25.5237],[-55.4261,-25.5575],[-55.3784,-25.3619],[-55.3285,-25.3353],[-55.2807,-25.2492],[-55.218,-25.2667],[-55.145,-25.3253],[-55.0507,-25.3146],[-55.0084,-25.3863],[-54.9607,-25.3612],[-54.9334,-25.3775],[-54.9232,-25.3665],[-54.9505,-25.3466],[-54.9416,-25.3229],[-54.9644,-25.3167],[-54.9548,-25.3044],[-54.9772,-25.2785],[-54.9651,-25.2497],[-54.9802,-25.2637],[-55.0284,-25.2257],[-55.0098,-25.1941],[-55.1565,-25.1006],[-55.1933,-25.043],[-55.2213,-25.0516],[-55.2312,-25.029],[-55.2812,-25.0386],[-55.273,-25.0233],[-55.3111,-25.011],[-55.3074,-24.9835],[-55.3328,-24.9682],[-55.3289,-24.9262],[-55.3453,-24.9182],[-55.3251,-24.8836],[-55.3501,-24.8468],[-55.301,-24.716],[-55.3178,-24.6928],[-55.2922,-24.6449],[-55.302,-24.5669],[-55.2512,-24.5152],[-55.1576,-24.5285],[-55.1388,-24.4968],[-55.1803,-24.4655],[-55.2525,-24.4675],[-55.3127,-24.5149],[-55.3427,-24.4936],[-55.3698,-24.54],[-55.4605,-24.5414],[-55.484,-24.5716],[-55.5135,-24.5153],[-55.5525,-24.5186],[-55.5642,-24.5815],[-55.5978,-24.6024],[-55.6012,-24.6365],[-55.6685,-24.6532],[-55.6623,-24.6749],[-55.7002,-24.6716],[-55.7292,-24.7231],[-55.7361,-24.7432],[-55.702,-24.784],[-55.7229,-24.8296],[-55.7705,-24.8196],[-55.8461,-24.8615],[-55.982,-24.835],[-56.0274,-24.9103],[-56.0889,-24.9327],[-56.1258,-24.9133],[-56.1443,-24.9385],[-56.2549,-24.7662],[-56.2782,-24.808],[-56.1972,-24.9404],[-56.2496,-24.9256],[-56.2938,-24.9407],[-56.3287,-24.9172],[-56.3881,-24.912],[-56.5195,-25.0039],[-56.5645,-24.9973]]]},"properties":{"iso3":"PRY","shapeId":"63826900B47245134487422","regionId":"PRY.6_1","name":"Caaguazú"}},{"type":"Feature","geometry":{"type":"Polygon","coordinates":[[[-56.6292,-26.1946],[-56.6391,-26.2275],[-56.6512,-26.2164],[-56.687,-26.2396],[-56.6991,-26.3008],[-56.725,-26.3122],[-56.738,-26.3706],[-56.7632,-26.3783],[-56.7605,-26.4209],[-56.7899,-26.4308],[-56.7918,-26.4762],[-56.8421,-26.5106],[-56.8483,-26.5416],[-56.821,-26.5436],[-56.8071,-26.5682],[-56.8219,-26.5849],[-56.8055,-26.6228],[-56.7716,-26.6169],[-56.7696,-26.6384],[-56.7394,-26.6222],[-56.6976,-26.6584],[-56.6364,-26.6663],[-56.662,-26.7188],[-56.6401,-26.7441],[-56.5396,-26.7575],[-56.491,-26.7944],[-56.4685,-26.7724],[-56.408,-26.7661],[-56.3564,-26.7248],[-56.3075,-26.729],[-56.2603,-26.6978],[-56.1757,-26.7077],[-56.1813,-26.667],[-56.1169,-26.6267],[-56.1225,-26.5964],[-56.1005,-26.5547],[-56.0561,-26.5235],[-56.0303,-26.5471],[-56.0137,-26.5136],[-55.9111,-26.5134],[-55.8805,-26.4529],[-55.8374,-26.4454],[-55.8053,-26.3874],[-55.766,-26.3938],[-55.6834,-26.3582],[-55.5959,-26.4174],[-55.563,-26.3672],[-55.4982,-26.3501],[-55.5072,-26.3079],[-55.4551,-26.325],[-55.3916,-26.31],[-55.3598,-26.269],[-55.3682,-26.2117],[-55.3484,-26.1854],[-55.3419,-26.105],[-55.2966,-26.1027],[-55.2884,-26.0836],[-55.2815,-26.0962],[-55.2506,-26.0784],[-55.2491,-26.0581],[-55.2575,-26.0369],[-55.2831,-26.0526],[-55.3052,-26.0424],[-55.3472,-25.9898],[-55.3816,-25.9998],[-55.3925,-26.0353],[-55.4097,-25.9985],[-55.5506,-25.9969],[-55.5158,-25.9018],[-55.5219,-25.8041],[-55.4658,-25.7173],[-55.4771,-25.6804],[-55.4529,-25.6541],[-55.4273,-25.6598],[-55.4,-25.6229],[-55.4285,-25.5471],[-55.4779,-25.5237],[-55.4927,-25.5581],[-55.5384,-25.5869],[-55.5366,-25.6208],[-55.594,-25.6581],[-55.6359,-25.6508],[-55.679,-25.7422],[-55.7278,-25.7094],[-55.7622,-25.718],[-55.7566,-25.775],[-55.8477,-25.8016],[-55.9124,-25.876],[-55.9358,-25.8543],[-55.9742,-25.8531],[-56.0485,-25.8909],[-56.0994,-26.0192],[-56.1804,-26.0634],[-56.281,-25.9762],[-56.3523,-26.0263],[-56.4109,-26.0239],[-56.4027,-26.1381],[-56.4397,-26.1179],[-56.5347,-26.1196],[-56.5512,-26.1867],[-56.6033,-26.1729],[-56.6292,-26.1946]]]},"properties":{"iso3":"PRY","shapeId":"63826900B61362972321879","regionId":"PRY.7_1","name":"Caazapá"}},{"type":"Feature","geometry":{"type":"Polygon","coordinates":[[[-56.6588,-26.7262],[-56.644,-26.9783],[-56.6261,-27.0061],[-56.6408,-27.0355],[-56.6348,-27.1463],[-56.7096,-27.2358],[-56.6664,-27.2998],[-56.678,-27.3223],[-56.6649,-27.3384],[-56.695,-27.3691],[-56.8848,-27.4126],[-56.7505,-27.4977],[-56.6941,-27.4519],[-56.5893,-27.4382],[-56.5488,-27.4584],[-56.4817,-27.5558],[-56.3924,-27.5912],[-56.3675,-27.5811],[-56.3536,-27.5351],[-56.2958,-27.4789],[-56.2925,-27.4111],[-56.2091,-27.3851],[-56.1756,-27.3402],[-56.0981,-27.3083],[-56.0465,-27.3066],[-55.9595,-27.3483],[-55.8886,-27.3412],[-55.8266,-27.425],[-55.7315,-27.4432],[-55.6884,-27.3827],[-55.5908,-27.3263],[-55.6012,-27.2861],[-55.5769,-27.2444],[-55.6169,-27.2103],[-55.62,-27.1824],[-55.6064,-27.1628],[-55.5623,-27.1595],[-55.5552,-27.106],[-55.4586,-27.1072],[-55.4442,-27.0228],[-55.3759,-26.9652],[-55.3041,-26.9628],[-55.2621,-26.9372],[-55.2067,-26.9689],[-55.1398,-26.9523],[-55.1396,-26.8641],[-55.0539,-26.7983],[-54.9597,-26.7854],[-54.941,-26.6814],[-54.8765,-26.6564],[-54.8127,-26.6693],[-54.7838,-26.6143],[-54.8073,-26.5624],[-54.7996,-26.5336],[-54.7046,-26.4461],[-54.6965,-26.3776],[-54.6482,-26.3098],[-54.6932,-26.2281],[-54.6991,-26.256],[-54.7135,-26.2361],[-54.7241,-26.2568],[-54.7405,-26.2348],[-54.7627,-26.2494],[-54.8033,-26.1933],[-54.8242,-26.212],[-54.8369,-26.1806],[-54.8744,-26.1742],[-54.8707,-26.1906],[-54.8983,-26.1997],[-54.9118,-26.1819],[-54.9157,-26.2292],[-54.9511,-26.2096],[-54.9501,-26.2389],[-55.0369,-26.2223],[-55.0354,-26.2379],[-55.0681,-26.2432],[-55.1396,-26.2063],[-55.2304,-26.2448],[-55.2615,-26.2357],[-55.2966,-26.1488],[-55.3226,-26.1339],[-55.2996,-26.1032],[-55.3167,-26.0926],[-55.3474,-26.1184],[-55.3484,-26.1854],[-55.3682,-26.2117],[-55.3598,-26.269],[-55.3916,-26.31],[-55.4551,-26.325],[-55.5072,-26.3079],[-55.4982,-26.3501],[-55.563,-26.3672],[-55.5959,-26.4174],[-55.6834,-26.3582],[-55.766,-26.3938],[-55.8053,-26.3874],[-55.8374,-26.4454],[-55.8805,-26.4529],[-55.9111,-26.5134],[-56.0137,-26.5136],[-56.0303,-26.5471],[-56.0561,-26.5235],[-56.1005,-26.5547],[-56.1225,-26.5964],[-56.1169,-26.6267],[-56.1813,-26.667],[-56.1818,-26.7112],[-56.2603,-26.6978],[-56.3075,-26.729],[-56.3564,-26.7248],[-56.408,-26.7661],[-56.4685,-26.7724],[-56.491,-26.7944],[-56.5396,-26.7575],[-56.6401,-26.7441],[-56.6588,-26.7262]]]},"properties":{"iso3":"PRY","shapeId":"63826900B60028824512427","regionId":"PRY.13_1","name":"Itapúa"}},{"type":"Feature","geometry":{"type":"Polygon","coordinates":[[[-56.8483,-26.5416],[-56.8796,-26.5231],[-56.8736,-26.5023],[-56.8991,-26.4983],[-56.8783,-26.4894],[-56.909,-26.462],[-56.9599,-26.4824],[-56.9553,-26.4493],[-56.9987,-26.412],[-57.0423,-26.4132],[-57.0942,-26.3769],[-57.1706,-26.4123],[-57.1865,-26.4675],[-57.2083,-26.4689],[-57.2088,-26.4886],[-57.2273,-26.4784],[-57.2181,-26.4978],[-57.2504,-26.4889],[-57.232,-26.5389],[-57.2542,-26.5455],[-57.2651,-26.5879],[-57.3209,-26.5846],[-57.3315,-26.6095],[-57.3613,-26.5944],[-57.3739,-26.6183],[-57.3803,-26.605],[-57.4108,-26.6196],[-57.4161,-26.6058],[-57.4356,-26.6137],[-57.4283,-26.5916],[-57.4482,-26.5711],[-57.5068,-26.5667],[-57.499,-26.5537],[-57.5205,-26.5511],[-57.5096,-26.5382],[-57.5451,-26.5426],[-57.562,-26.5217],[-57.597,-26.5325],[-57.6201,-26.4913],[-57.6402,-26.5003],[-57.6402,-26.4789],[-57.6579,-26.4891],[-57.6556,-26.4671],[-57.6749,-26.4683],[-57.6634,-26.4323],[-57.7083,-26.4242],[-57.7155,-26.3885],[-57.7431,-26.4006],[-57.6401,-26.7904],[-57.4287,-27.0601],[-57.1821,-27.109],[-57.342,-27.4163],[-57.2333,-27.467],[-57.0611,-27.484],[-56.9317,-27.4113],[-56.7916,-27.3999],[-56.695,-27.3691],[-56.6649,-27.3384],[-56.678,-27.3223],[-56.6664,-27.2998],[-56.7096,-27.2358],[-56.6348,-27.1463],[-56.6408,-27.0355],[-56.6261,-27.0061],[-56.644,-26.9783],[-56.6621,-26.723],[-56.6357,-26.6686],[-56.6976,-26.6584],[-56.7394,-26.6222],[-56.7696,-26.6384],[-56.7716,-26.6169],[-56.8055,-26.6228],[-56.8219,-26.5849],[-56.8071,-26.5682],[-56.821,-26.5436],[-56.8483,-26.5416]]]},"properties":{"iso3":"PRY","shapeId":"63826900B67002830619694","regionId":"PRY.14_1","name":"Misiones"}},{"type":"Feature","geometry":{"type":"Polygon","coordinates":[[[-57.195,-25.4018],[-57.291,-25.4514],[-57.3187,-25.4472],[-57.343,-25.6096],[-57.3776,-25.6356],[-57.4133,-25.635],[-57.4166,-25.6945],[-57.4682,-25.7561],[-57.4526,-25.8296],[-57.4152,-25.8812],[-57.4996,-26.0251],[-57.4681,-26.1134],[-57.4901,-26.1166],[-57.4757,-26.1241],[-57.4777,-26.1655],[-57.4971,-26.1488],[-57.5312,-26.1793],[-57.5811,-26.1855],[-57.6293,-26.2687],[-57.6443,-26.2648],[-57.6802,-26.3066],[-57.6965,-26.3752],[-57.7236,-26.3543],[-57.7494,-26.382],[-57.7378,-26.4017],[-57.7155,-26.3885],[-57.7083,-26.4242],[-57.6634,-26.4323],[-57.6749,-26.4683],[-57.6556,-26.4671],[-57.6579,-26.4891],[-57.6402,-26.4789],[-57.6402,-26.5003],[-57.6201,-26.4913],[-57.597,-26.5325],[-57.562,-26.5217],[-57.5451,-26.5426],[-57.5096,-26.5382],[-57.5205,-26.5511],[-57.499,-26.5537],[-57.5068,-26.5667],[-57.4482,-26.5711],[-57.4283,-26.5916],[-57.4356,-26.6137],[-57.4161,-26.6058],[-57.4108,-26.6196],[-57.3803,-26.605],[-57.3739,-26.6183],[-57.3613,-26.5944],[-57.3315,-26.6095],[-57.3209,-26.5846],[-57.2651,-26.5879],[-57.2542,-26.5455],[-57.232,-26.5389],[-57.2504,-26.4889],[-57.2181,-26.4978],[-57.2273,-26.4784],[-57.2088,-26.4886],[-57.2083,-26.4689],[-57.1865,-26.4675],[-57.1706,-26.4123],[-57.0942,-26.3769],[-57.0423,-26.4132],[-56.9987,-26.412],[-56.9553,-26.4493],[-56.9599,-26.4824],[-56.909,-26.462],[-56.8783,-26.4894],[-56.8991,-26.4983],[-56.8736,-26.5023],[-56.8796,-26.5231],[-56.8483,-26.5416],[-56.8421,-26.5106],[-56.7918,-26.4762],[-56.7899,-26.4308],[-56.7605,-26.4209],[-56.7632,-26.3783],[-56.738,-26.3706],[-56.725,-26.3122],[-56.6991,-26.3008],[-56.687,-26.2396],[-56.6512,-26.2164],[-56.6391,-26.2275],[-56.6289,-26.1993],[-56.7111,-26.1341],[-56.722,-26.0913],[-56.7017,-26.0296],[-56.7477,-25.952],[-56.6076,-25.9791],[-56.6088,-25.9151],[-56.6658,-25.8504],[-56.6895,-25.7622],[-56.6698,-25.7002],[-56.6969,-25.7004],[-56.7197,-25.6587],[-56.8055,-25.6238],[-56.8775,-25.6667],[-56.9453,-25.6516],[-56.9098,-25.6027],[-56.921,-25.5755],[-56.9086,-25.5637],[-56.9566,-25.5623],[-57.0199,-25.591],[-57.0892,-25.5825],[-57.1302,-25.5268],[-57.1318,-25.4557],[-57.18,-25.4305],[-57.195,-25.4018]]]},"properties":{"iso3":"PRY","shapeId":"63826900B9584917578086","regionId":"PRY.16_1","name":"Paraguarí"}},{"type":"Feature","geometry":{"type":"Polygon","coordinates":[[[-55.4261,-25.5575],[-55.4,-25.6229],[-55.4273,-25.6598],[-55.4529,-25.6541],[-55.4771,-25.6804],[-55.4658,-25.7173],[-55.5219,-25.8041],[-55.5158,-25.9018],[-55.5506,-25.9969],[-55.4097,-25.9985],[-55.3925,-26.0353],[-55.3816,-25.9998],[-55.3472,-25.9898],[-55.3052,-26.0424],[-55.2831,-26.0526],[-55.2575,-26.0369],[-55.2506,-26.0784],[-55.2994,-26.0879],[-55.3226,-26.1339],[-55.2966,-26.1488],[-55.2615,-26.2357],[-55.2304,-26.2448],[-55.1396,-26.2063],[-55.0681,-26.2432],[-55.0354,-26.2379],[-55.0369,-26.2223],[-54.9501,-26.2389],[-54.9511,-26.2096],[-54.9157,-26.2292],[-54.9118,-26.1819],[-54.8983,-26.1997],[-54.8707,-26.1906],[-54.8744,-26.1742],[-54.8369,-26.1806],[-54.8242,-26.212],[-54.8033,-26.1933],[-54.7785,-26.2364],[-54.7437,-26.2504],[-54.7405,-26.2348],[-54.7262,-26.2569],[-54.7135,-26.2361],[-54.6991,-26.256],[-54.7056,-26.2296],[-54.6724,-26.254],[-54.6233,-26.2233],[-54.6237,-26.1997],[-54.6726,-26.1563],[-54.6432,-26.0923],[-54.6793,-26.0064],[-54.6647,-25.9804],[-54.6107,-25.9774],[-54.6225,-25.9155],[-54.5871,-25.832],[-54.6576,-25.6851],[-54.6447,-25.661],[-54.5813,-25.6613],[-54.5969,-25.6231],[-54.5969,-25.4915],[-54.6192,-25.4529],[-54.5116,-25.3284],[-54.4695,-25.2143],[-54.417,-25.161],[-54.4567,-25.0634],[-54.3989,-24.8051],[-54.3458,-24.7077],[-54.415,-24.6795],[-54.4516,-24.7218],[-54.56,-24.6894],[-54.6557,-24.7142],[-54.6425,-24.6858],[-54.6553,-24.6671],[-54.6998,-24.6904],[-54.7284,-24.6521],[-54.772,-24.6485],[-54.7977,-24.6754],[-54.8405,-24.6734],[-54.8334,-24.6564],[-54.8989,-24.6292],[-54.8887,-24.6166],[-54.9142,-24.5739],[-55.103,-24.5437],[-55.134,-24.4799],[-55.1545,-24.4762],[-55.1388,-24.4968],[-55.1576,-24.5285],[-55.2456,-24.5146],[-55.2755,-24.5277],[-55.3067,-24.5899],[-55.2922,-24.6449],[-55.3178,-24.6928],[-55.301,-24.716],[-55.3501,-24.8468],[-55.3251,-24.8836],[-55.3453,-24.9182],[-55.3289,-24.9262],[-55.3328,-24.9682],[-55.3074,-24.9835],[-55.3111,-25.011],[-55.273,-25.0233],[-55.2812,-25.0386],[-55.2312,-25.029],[-55.2213,-25.0516],[-55.1933,-25.043],[-55.1565,-25.1006],[-55.0098,-25.1941],[-55.0284,-25.2257],[-54.9802,-25.2637],[-54.9651,-25.2497],[-54.9772,-25.2785],[-54.9548,-25.3044],[-54.9644,-25.3167],[-54.9416,-25.3229],[-54.9505,-25.3466],[-54.9232,-25.3665],[-54.9334,-25.3775],[-54.9607,-25.3612],[-55.0084,-25.3863],[-55.0507,-25.3146],[-55.145,-25.3253],[-55.2251,-25.2628],[-55.2899,-25.2517],[-55.3285,-25.3353],[-55.3784,-25.3619],[-55.4261,-25.5575]]]},"properties":{"iso3":"PRY","shapeId":"63826900B70318852287741","regionId":"PRY.2_1","name":"Alto Paraná"}},{"type":"Feature","geometry":{"type":"Polygon","coordinates":[[[-57.6421,-25.3804],[-57.5583,-25.4461],[-57.5769,-25.5651],[-57.6047,-25.5685],[-57.619,-25.6165],[-57.6745,-25.5985],[-57.6744,-25.6593],[-57.7368,-25.6479],[-57.7661,-25.6903],[-57.7317,-25.7221],[-57.7794,-25.7603],[-57.8267,-25.761],[-57.7962,-25.8147],[-57.8083,-25.84],[-57.7872,-25.8298],[-57.7935,-25.797],[-57.7604,-25.7965],[-57.7532,-25.7672],[-57.7404,-25.8378],[-57.6667,-25.8698],[-57.6424,-25.854],[-57.6171,-25.8796],[-57.6007,-25.8665],[-57.6148,-25.8954],[-57.5866,-25.8949],[-57.5168,-25.9542],[-57.5344,-25.9855],[-57.4984,-25.9767],[-57.4996,-26.0251],[-57.4161,-25.8893],[-57.423,-25.8541],[-57.4526,-25.8296],[-57.4682,-25.7561],[-57.4166,-25.6945],[-57.4215,-25.6471],[-57.343,-25.6096],[-57.3187,-25.4472],[-57.2386,-25.4294],[-57.195,-25.4018],[-57.1949,-25.3698],[-57.2056,-25.3527],[-57.2337,-25.3669],[-57.2963,-25.3535],[-57.3433,-25.294],[-57.3377,-25.2321],[-57.3959,-25.1925],[-57.3965,-25.1681],[-57.4341,-25.1445],[-57.4264,-25.1331],[-57.5051,-25.0967],[-57.5336,-25.1202],[-57.539,-25.1742],[-57.5746,-25.2239],[-57.5278,-25.2431],[-57.5432,-25.2963],[-57.5861,-25.3414],[-57.6154,-25.3131],[-57.6421,-25.3804]]]},"properties":{"iso3":"PRY","shapeId":"63826900B88193761383216","regionId":"PRY.9_1","name":"Central"}},{"type":"Feature","geometry":{"type":"Polygon","coordinates":[[[-57.7431,-26.4006],[-57.7343,-26.3574],[-57.7032,-26.3769],[-57.6795,-26.3539],[-57.6938,-26.3416],[-57.6802,-26.3066],[-57.6443,-26.2648],[-57.6293,-26.2687],[-57.5811,-26.1855],[-57.5312,-26.1793],[-57.4971,-26.1488],[-57.4816,-26.1697],[-57.4724,-26.1383],[-57.4901,-26.1166],[-57.4681,-26.1134],[-57.4984,-25.9767],[-57.5344,-25.9855],[-57.5168,-25.9542],[-57.5866,-25.8949],[-57.606,-25.905],[-57.6007,-25.8665],[-57.6171,-25.8796],[-57.6424,-25.854],[-57.6667,-25.8698],[-57.7468,-25.8331],[-57.7532,-25.7672],[-57.7604,-25.7965],[-57.7935,-25.797],[-57.7897,-25.8338],[-57.8646,-25.8672],[-57.8407,-25.9116],[-57.8945,-25.9594],[-57.8549,-26.0052],[-58.0171,-26.1039],[-58.0895,-26.1151],[-58.1151,-26.1482],[-58.1157,-26.1843],[-58.1592,-26.1816],[-58.1047,-26.2295],[-58.1638,-26.265],[-58.1594,-26.3451],[-58.2217,-26.3979],[-58.1804,-26.4542],[-58.231,-26.4701],[-58.2078,-26.4957],[-58.2251,-26.5331],[-58.1982,-26.567],[-58.2092,-26.618],[-58.1907,-26.6436],[-58.2579,-26.6442],[-58.2486,-26.7525],[-58.2929,-26.7582],[-58.2811,-26.7927],[-58.3042,-26.8072],[-58.3558,-26.8106],[-58.3198,-26.8644],[-58.3694,-26.8634],[-58.3859,-26.893],[-58.4636,-26.9303],[-58.4984,-26.9249],[-58.4687,-26.9906],[-58.5181,-27.003],[-58.509,-27.0625],[-58.5553,-27.0365],[-58.5547,-27.1055],[-58.6517,-27.1337],[-58.6596,-27.187],[-58.5969,-27.2243],[-58.6102,-27.3062],[-58.4809,-27.2741],[-58.4157,-27.2902],[-58.2925,-27.2793],[-58.2644,-27.2558],[-58.1722,-27.2771],[-58.0258,-27.2581],[-57.909,-27.2988],[-57.8713,-27.2773],[-57.8218,-27.331],[-57.6816,-27.3412],[-57.4974,-27.4435],[-57.342,-27.4163],[-57.1821,-27.109],[-57.4287,-27.0601],[-57.6401,-26.7904],[-57.7431,-26.4006]]]},"properties":{"iso3":"PRY","shapeId":"63826900B28816426657500","regionId":"PRY.15_1","name":"Ñeembucú"}},{"type":"Feature","geometry":{"type":"Polygon","coordinates":[[[-56.3142,-23.3454],[-56.2411,-23.3136],[-56.2315,-23.3293],[-56.2142,-23.3031],[-56.1639,-23.3096],[-56.1543,-23.4235],[-56.1684,-23.4564],[-56.1353,-23.512],[-56.1357,-23.5653],[-56.114,-23.6059],[-56.0609,-23.6042],[-56.049,-23.5755],[-55.9784,-23.6688],[-55.9736,-23.7424],[-55.9881,-23.7841],[-56.0207,-23.8003],[-56.0174,-23.8297],[-55.9512,-23.8124],[-55.9311,-23.8309],[-55.8962,-23.8207],[-55.8405,-23.7641],[-55.7699,-23.7361],[-55.7612,-23.6985],[-55.7166,-23.6632],[-55.6613,-23.677],[-55.5997,-23.6526],[-55.5452,-23.5415],[-55.5618,-23.4765],[-55.5428,-23.4743],[-55.5043,-23.3782],[-55.5555,-23.3164],[-55.5532,-23.28],[-55.5219,-23.26],[-55.5402,-23.2439],[-55.5231,-23.1977],[-55.5421,-23.1551],[-55.5961,-23.1499],[-55.6112,-23.0474],[-55.639,-23.0256],[-55.6242,-22.9885],[-55.6659,-22.8529],[-55.6524,-22.7925],[-55.618,-22.7676],[-55.6145,-22.6551],[-55.7384,-22.5254],[-55.7466,-22.3841],[-55.7889,-22.3828],[-55.8524,-22.2805],[-55.9495,-22.2931],[-55.9835,-22.2787],[-56.0101,-22.2946],[-56.1177,-22.2704],[-56.1657,-22.2884],[-56.21,-22.278],[-56.2382,-22.2365],[-56.3169,-22.2182],[-56.3647,-22.1696],[-56.3939,-22.0745],[-56.448,-22.0765],[-56.5076,-22.0962],[-56.5196,-22.1408],[-56.5571,-22.1691],[-56.5567,-22.1965],[-56.6424,-22.2444],[-56.6368,-22.2633],[-56.7035,-22.217],[-56.6953,-22.2309],[-56.7205,-22.2649],[-56.7471,-22.2358],[-56.7767,-22.2605],[-56.7933,-22.2424],[-56.8016,-22.2816],[-56.8261,-22.2959],[-56.6094,-22.3653],[-56.6449,-22.3845],[-56.6487,-22.4221],[-56.7168,-22.4587],[-56.7387,-22.5437],[-56.7153,-22.6221],[-56.7268,-22.6515],[-56.6942,-22.6822],[-56.696,-22.7093],[-56.6656,-22.7228],[-56.6698,-22.7665],[-56.6491,-22.802],[-56.6773,-22.8436],[-56.7132,-22.8434],[-56.7087,-22.9059],[-56.6646,-22.8811],[-56.5968,-22.9135],[-56.5595,-22.8995],[-56.5048,-22.783],[-56.4427,-22.7779],[-56.4118,-22.7437],[-56.3981,-22.7492],[-56.3852,-22.7135],[-56.3639,-22.7201],[-56.328,-22.6876],[-56.2944,-22.6876],[-56.1258,-23.0693],[-56.152,-23.0981],[-56.1417,-23.1212],[-56.1796,-23.1185],[-56.1824,-23.1605],[-56.2076,-23.1618],[-56.2187,-23.1913],[-56.2011,-23.2266],[-56.2388,-23.2266],[-56.2756,-23.2581],[-56.2995,-23.2965],[-56.2876,-23.3178],[-56.3142,-23.3454]]]},"properties":{"iso3":"PRY","shapeId":"63826900B22649219267943","regionId":"PRY.3_1","name":"Amambay"}},{"type":"Feature","geometry":{"type":"Polygon","coordinates":[[[-55.702,-24.784],[-55.7361,-24.7432],[-55.7027,-24.676],[-55.6623,-24.6749],[-55.6685,-24.6532],[-55.6047,-24.6402],[-55.5978,-24.6024],[-55.5642,-24.5815],[-55.5525,-24.5186],[-55.5135,-24.5153],[-55.484,-24.5716],[-55.4605,-24.5414],[-55.3698,-24.54],[-55.3427,-24.4936],[-55.3127,-24.5149],[-55.2968,-24.4876],[-55.281,-24.5008],[-55.2525,-24.4675],[-55.134,-24.4799],[-55.103,-24.5437],[-54.9142,-24.5739],[-54.8887,-24.6166],[-54.8989,-24.6292],[-54.8334,-24.6564],[-54.8405,-24.6734],[-54.7977,-24.6754],[-54.772,-24.6485],[-54.7284,-24.6521],[-54.6998,-24.6904],[-54.6553,-24.6671],[-54.6425,-24.6858],[-54.6557,-24.7142],[-54.56,-24.6894],[-54.4516,-24.7218],[-54.415,-24.6795],[-54.3458,-24.7077],[-54.3165,-24.6125],[-54.335,-24.4992],[-54.2589,-24.3546],[-54.2788,-24.2937],[-54.328,-24.2373],[-54.3461,-24.1525],[-54.3352,-24.1144],[-54.2615,-24.0549],[-54.3178,-24.0026],[-54.3518,-24.0076],[-54.3836,-23.9866],[-54.4396,-23.9045],[-54.5683,-23.874],[-54.5839,-23.8368],[-54.6091,-23.8513],[-54.6696,-23.8122],[-54.7053,-23.8643],[-54.7587,-23.8572],[-54.8147,-23.8901],[-54.8371,-23.8838],[-54.8504,-23.9076],[-54.8909,-23.8998],[-54.9272,-23.9247],[-54.9258,-23.9591],[-54.9411,-23.9668],[-54.9988,-23.9574],[-55.0624,-23.9929],[-55.1074,-23.9618],[-55.1383,-23.9867],[-55.1984,-23.9865],[-55.229,-24.0134],[-55.304,-23.9649],[-55.3412,-23.9943],[-55.4021,-23.9739],[-55.446,-23.9166],[-55.4358,-23.8729],[-55.4537,-23.8192],[-55.4301,-23.7901],[-55.4426,-23.7228],[-55.4123,-23.7028],[-55.4668,-23.6805],[-55.4684,-23.6435],[-55.5371,-23.6276],[-55.5201,-23.5724],[-55.5434,-23.5233],[-55.5997,-23.6526],[-55.6613,-23.677],[-55.7166,-23.6632],[-55.7612,-23.6985],[-55.7699,-23.7361],[-55.8405,-23.7641],[-55.8962,-23.8207],[-56.0272,-23.8223],[-55.9771,-24.0286],[-56.0139,-24.0218],[-56.0713,-24.056],[-56.1058,-24.1069],[-56.1454,-24.115],[-56.1617,-24.1623],[-56.1487,-24.2],[-56.1725,-24.231],[-56.1562,-24.2854],[-56.1265,-24.3012],[-56.1226,-24.3857],[-56.0587,-24.4024],[-56.0258,-24.4409],[-55.9909,-24.5288],[-55.9405,-24.5706],[-55.9428,-24.6219],[-55.867,-24.6849],[-55.8396,-24.7619],[-55.702,-24.784]]]},"properties":{"iso3":"PRY","shapeId":"63826900B71996717464066","regionId":"PRY.8_1","name":"Canindeyú"}},{"type":"Feature","geometry":{"type":"Polygon","coordinates":[[[-57.5746,-25.2239],[-57.5153,-25.1004],[-57.4605,-25.1053],[-57.3799,-25.0645],[-57.2873,-24.9195],[-57.2193,-24.9267],[-57.2197,-24.9047],[-57.2598,-24.8856],[-57.254,-24.8633],[-57.3001,-24.8373],[-57.2321,-24.7568],[-57.2303,-24.6991],[-57.1696,-24.6896],[-57.1574,-24.6183],[-57.1948,-24.5691],[-57.1615,-24.5283],[-57.1944,-24.4847],[-57.1493,-24.449],[-57.1814,-24.3933],[-57.164,-24.3559],[-57.2044,-24.2848],[-57.2063,-24.2308],[-57.2798,-24.1436],[-57.2075,-24.0856],[-57.2635,-24.0453],[-57.2113,-24.0045],[-57.2408,-23.984],[-57.2298,-23.9518],[-57.2863,-23.9338],[-57.3042,-23.9078],[-57.2535,-23.8752],[-57.2761,-23.8431],[-57.2527,-23.7871],[-57.278,-23.7716],[-57.2557,-23.7614],[-57.2567,-23.736],[-57.4191,-23.6537],[-57.4735,-23.5362],[-57.4508,-23.4468],[-57.5224,-23.3472],[-57.4891,-23.3179],[-57.4932,-23.2797],[-57.549,-23.212],[-57.6231,-23.1784],[-57.6427,-23.1372],[-57.6319,-23.0945],[-57.7109,-23.0939],[-57.7341,-23.0577],[-57.7884,-23.0301],[-57.766,-22.9712],[-57.8214,-22.915],[-57.7895,-22.8775],[-57.8102,-22.819],[-57.8753,-22.803],[-57.8876,-22.7586],[-57.9319,-22.7332],[-57.9389,-22.6926],[-57.9094,-22.6591],[-57.7723,-22.6541],[-57.8277,-22.5707],[-57.8396,-22.4471],[-57.8654,-22.4173],[-57.8557,-22.3977],[-58.1856,-22.3494],[-58.2027,-22.2825],[-58.2455,-22.2405],[-58.2374,-22.1984],[-58.2669,-22.1795],[-58.3967,-22.179],[-58.4736,-22.1562],[-59.2016,-22.1479],[-59.3677,-22.0762],[-59.3366,-22.1704],[-59.6144,-22.3359],[-59.6393,-22.3689],[-59.6262,-22.428],[-59.7118,-22.428],[-59.7122,-22.467],[-59.7472,-22.467],[-59.7518,-22.5254],[-59.9751,-22.8186],[-59.9584,-23.0673],[-59.9923,-23.1575],[-59.979,-23.173],[-60.0927,-23.4928],[-60.2027,-23.5329],[-60.5713,-23.5723],[-60.6017,-23.611],[-60.6752,-23.5922],[-60.6716,-23.6978],[-60.6929,-23.7334],[-60.7854,-23.7891],[-60.7733,-23.8502],[-60.7533,-23.8787],[-60.6926,-23.9032],[-60.6279,-23.9245],[-60.5892,-23.9156],[-60.586,-23.9564],[-60.4416,-23.9756],[-60.3688,-24.0336],[-60.2614,-24.0493],[-60.153,-24.0393],[-60.0675,-24.009],[-59.9984,-24.0316],[-59.4752,-24.3331],[-59.4209,-24.4092],[-59.3731,-24.423],[-59.3507,-24.483],[-59.2574,-24.5197],[-59.1281,-24.618],[-58.9727,-24.6623],[-58.8077,-24.7725],[-58.7268,-24.7743],[-58.6733,-24.8315],[-58.5737,-24.8212],[-58.4739,-24.8609],[-58.4301,-24.8932],[-58.4287,-24.9236],[-58.4087,-24.9228],[-58.3336,-25.0001],[-58.2555,-24.9318],[-58.225,-24.9269],[-58.1938,-24.968],[-58.1499,-24.975],[-58.1373,-25.0116],[-58.0856,-25.0123],[-58.0688,-25.0454],[-58.0059,-25.0349],[-57.9909,-25.0818],[-57.8614,-25.0814],[-57.8368,-25.1315],[-57.7532,-25.1768],[-57.7592,-25.22],[-57.7356,-25.2347],[-57.7409,-25.2534],[-57.7228,-25.2528],[-57.7225,-25.2775],[-57.6944,-25.286],[-57.7029,-25.3221],[-57.6703,-25.3533],[-57.6687,-25.28],[-57.5746,-25.2239]]]},"properties":{"iso3":"PRY","shapeId":"63826900B99929286362746","regionId":null,"name":"PRESIDENTE HAYES"}},{"type":"Feature","geometry":{"type":"Polygon","coordinates":[[[-59.3677,-22.0762],[-59.4164,-22.0565],[-59.9531,-22.0545],[-59.8724,-21.4472],[-59.715,-21.3459],[-59.767,-21.2013],[-59.7509,-21.1829],[-59.7683,-21.0375],[-59.8098,-20.9875],[-59.8383,-20.8807],[-59.8869,-20.792],[-59.8795,-20.6304],[-59.9273,-20.6329],[-61.5144,-20.1826],[-61.6201,-20.1701],[-61.7186,-20.0966],[-61.7687,-20.1096],[-61.9224,-20.0892],[-62.2668,-20.563],[-62.2621,-21.0582],[-62.6446,-22.2515],[-62.6294,-22.2662],[-62.6403,-22.2996],[-62.6214,-22.2913],[-62.5624,-22.3244],[-62.5401,-22.3739],[-62.4744,-22.3759],[-62.4612,-22.4129],[-62.4185,-22.4238],[-62.4055,-22.4497],[-62.394,-22.4409],[-62.378,-22.4799],[-62.3513,-22.4513],[-62.3387,-22.481],[-62.2862,-22.4782],[-62.2964,-22.5191],[-62.2659,-22.5141],[-62.2236,-22.5492],[-62.2619,-22.6023],[-62.2345,-22.6124],[-62.236,-22.6468],[-62.2028,-22.6506],[-62.218,-22.6563],[-62.1982,-22.6668],[-62.2072,-22.7041],[-62.1739,-22.7107],[-62.1481,-22.7471],[-62.1669,-22.7459],[-62.1571,-22.7603],[-62.132,-22.7595],[-62.1354,-22.7913],[-62.1127,-22.7954],[-62.1067,-22.8213],[-62.0829,-22.8133],[-62.0713,-22.8531],[-62.059,-22.8394],[-62.0375,-22.914],[-62.0218,-22.9057],[-62.0297,-22.9267],[-61.9997,-22.9287],[-62.0079,-22.9938],[-61.9264,-23.068],[-61.8563,-23.0888],[-61.813,-23.1502],[-61.7663,-23.1589],[-61.7348,-23.2404],[-61.7105,-23.2424],[-61.6711,-23.2851],[-61.5918,-23.2918],[-61.5479,-23.3471],[-61.51,-23.3479],[-61.5251,-23.3703],[-61.491,-23.4231],[-61.4456,-23.4211],[-61.3914,-23.4574],[-61.3531,-23.4472],[-61.3454,-23.4683],[-61.2831,-23.4874],[-61.2783,-23.517],[-61.2235,-23.5536],[-61.1833,-23.539],[-61.1508,-23.5807],[-61.0877,-23.6139],[-61.1006,-23.6573],[-60.992,-23.8086],[-60.9346,-23.8089],[-60.8484,-23.8706],[-60.7931,-23.8626],[-60.8045,-23.8854],[-60.7891,-23.8682],[-60.7599,-23.8736],[-60.7854,-23.7891],[-60.6929,-23.7334],[-60.6716,-23.6978],[-60.6752,-23.5922],[-60.6017,-23.611],[-60.5713,-23.5723],[-60.2027,-23.5329],[-60.0927,-23.4928],[-59.979,-23.173],[-59.9923,-23.1575],[-59.9584,-23.0673],[-59.9751,-22.8186],[-59.7518,-22.5254],[-59.7472,-22.467],[-59.7122,-22.467],[-59.7118,-22.428],[-59.6262,-22.428],[-59.6393,-22.3689],[-59.6144,-22.3359],[-59.3366,-22.1704],[-59.3677,-22.0762]]]},"properties":{"iso3":"PRY","shapeId":"63826900B91663486125533","regionId":"PRY.5_1","name":"Boquerón"}},{"type":"Feature","geometry":{"type":"Polygon","coordinates":[[[-57.993,-22.0869],[-57.984,-22.0653],[-58.009,-22.0378],[-57.9661,-22.0051],[-57.9366,-21.9248],[-57.9492,-21.902],[-57.9136,-21.884],[-57.9657,-21.8517],[-57.9089,-21.7735],[-57.9469,-21.7425],[-57.8836,-21.6893],[-57.9333,-21.6535],[-57.9416,-21.6196],[-57.915,-21.5887],[-57.9596,-21.562],[-57.968,-21.5255],[-57.8543,-21.3352],[-57.8553,-21.3162],[-57.9216,-21.2806],[-57.8536,-21.2272],[-57.8642,-21.1378],[-57.8463,-21.0963],[-57.8686,-21.0467],[-57.8175,-20.9809],[-57.8189,-20.9418],[-57.8648,-20.948],[-57.8882,-20.9073],[-57.9274,-20.9016],[-57.8547,-20.8351],[-57.8971,-20.7893],[-57.9617,-20.7929],[-57.9358,-20.7472],[-57.8671,-20.7492],[-57.87,-20.726],[-57.9217,-20.6646],[-57.9556,-20.7041],[-57.9867,-20.7021],[-57.9701,-20.6447],[-58.0122,-20.6144],[-57.9952,-20.5635],[-58.0194,-20.5154],[-57.999,-20.4358],[-58.0217,-20.4024],[-58.0711,-20.3891],[-58.0869,-20.3666],[-58.1029,-20.321],[-58.0934,-20.2575],[-58.1175,-20.249],[-58.1444,-20.272],[-58.1613,-20.2603],[-58.1651,-20.2299],[-58.1219,-20.1923],[-58.1681,-20.1729],[-58.1382,-20.1521],[-58.1388,-20.1201],[-58.1865,-19.9704],[-58.2143,-19.9534],[-58.1966,-19.9262],[-58.2021,-19.8634],[-58.1647,-19.8278],[-58.2357,-19.7751],[-59.0679,-19.2896],[-59.9775,-19.2948],[-60.6046,-19.4561],[-61.736,-19.6336],[-61.9224,-20.0892],[-61.7687,-20.1096],[-61.7186,-20.0966],[-61.6201,-20.1701],[-61.5144,-20.1826],[-59.9273,-20.6329],[-59.8795,-20.6304],[-59.8869,-20.792],[-59.8383,-20.8807],[-59.8098,-20.9875],[-59.7683,-21.0375],[-59.7509,-21.1829],[-59.767,-21.2013],[-59.715,-21.3459],[-59.8724,-21.4472],[-59.9531,-22.0545],[-59.4164,-22.0565],[-59.2016,-22.1479],[-58.4736,-22.1562],[-58.3967,-22.179],[-58.2669,-22.1795],[-58.2374,-22.1984],[-58.2455,-22.2405],[-58.2027,-22.2825],[-58.1856,-22.3494],[-57.8296,-22.397],[-57.8175,-22.3783],[-57.8777,-22.3293],[-57.8913,-22.2672],[-57.9538,-22.2738],[-57.9726,-22.1943],[-57.9562,-22.1336],[-57.993,-22.0869]]]},"properties":{"iso3":"PRY","shapeId":"63826900B74384941565078","regionId":"PRY.1_1","name":"Alto Paraguay"}}]}