{"type":"FeatureCollection","features":[{"type":"Feature","geometry":{"type":"Polygon","coordinates":[[[22.812,46.569],[22.6769,46.5232],[22.6882,46.4418],[22.7195,46.431],[22.6747,46.4087],[22.6821,46.3859],[22.8118,46.3256],[22.9332,46.3266],[22.9818,46.2178],[23.0505,46.2138],[23.0957,46.1822],[23.0986,46.1396],[23.055,46.1402],[23.0644,46.1091],[23.0978,46.0929],[23.0839,46.0708],[23.1018,46.0461],[23.1844,46.0271],[23.2425,46.0383],[23.235,45.9892],[23.2651,45.9336],[23.3377,45.9181],[23.3032,45.8939],[23.3316,45.8763],[23.3238,45.8363],[23.381,45.7593],[23.366,45.7072],[23.4194,45.6758],[23.3702,45.6273],[23.412,45.6332],[23.4303,45.5872],[23.4995,45.5797],[23.5689,45.5245],[23.613,45.4561],[23.6646,45.4621],[23.7035,45.4968],[23.6651,45.4934],[23.6179,45.5601],[23.6526,45.6012],[23.6322,45.6216],[23.6448,45.6399],[23.5928,45.6736],[23.6109,45.6876],[23.5888,45.7026],[23.6221,45.7503],[23.6643,45.7591],[23.6166,45.802],[23.6875,45.8026],[23.6994,45.8287],[23.7345,45.8307],[23.7269,45.8482],[23.7734,45.8807],[23.7304,45.8972],[23.7332,45.9144],[23.8164,45.9232],[23.85,45.959],[23.8701,45.9487],[23.8457,46.0078],[23.8913,46.0447],[23.9796,46.0382],[24.0062,46.0002],[24.0419,46.0962],[24.0583,46.0845],[24.1189,46.1348],[24.2133,46.1542],[24.1881,46.183],[24.1897,46.2239],[24.2517,46.2404],[24.1942,46.283],[24.1637,46.2724],[24.1432,46.3317],[24.058,46.3392],[24.0189,46.3607],[24.0279,46.3728],[23.9973,46.3706],[23.9895,46.381],[24.0353,46.4066],[24.0357,46.4334],[24.0171,46.4338],[24.0395,46.4575],[23.9922,46.4268],[23.9096,46.4635],[23.8679,46.447],[23.8332,46.4689],[23.7015,46.4575],[23.6509,46.4276],[23.6811,46.4085],[23.6609,46.3967],[23.6042,46.4145],[23.5919,46.4362],[23.6119,46.4845],[23.5481,46.5039],[23.5231,46.4859],[23.4623,46.5043],[23.4539,46.5284],[23.3793,46.541],[23.2369,46.4909],[23.1519,46.5062],[23.1041,46.4905],[23.0936,46.4684],[23.0519,46.466],[23.0556,46.4925],[23.0113,46.5036],[22.989,46.5377],[22.9999,46.5526],[22.8795,46.5364],[22.812,46.569]]]},"properties":{"iso3":"ROU","shapeId":"36066543B89779678405362","regionId":"ROU.1_1","name":"Alba"}},{"type":"Feature","geometry":{"type":"Polygon","coordinates":[[[22.6766,46.4058],[22.6363,46.3899],[22.4243,46.3932],[22.3445,46.4477],[22.3252,46.5145],[22.2724,46.5008],[22.198,46.5139],[22.1646,46.5709],[22.171,46.6023],[22.1162,46.6028],[22.0863,46.635],[22.0258,46.6544],[22.0005,46.6247],[21.9523,46.6171],[21.881,46.6311],[21.911,46.6629],[21.8693,46.6808],[21.8055,46.6553],[21.6472,46.6648],[21.6202,46.6454],[21.5711,46.6491],[21.5672,46.6003],[21.5462,46.6014],[21.5095,46.6502],[21.5001,46.6405],[21.4557,46.667],[21.4101,46.6218],[21.3656,46.6379],[21.3142,46.6175],[21.3012,46.5907],[21.3209,46.5828],[21.2745,46.5408],[21.2606,46.502],[21.3175,46.4506],[21.2963,46.4067],[21.2063,46.4032],[21.1995,46.3479],[21.1762,46.3356],[21.1805,46.3041],[21.1155,46.3016],[21.1032,46.2626],[21.066,46.2427],[21.025,46.2665],[20.9525,46.2648],[20.9467,46.2792],[20.9222,46.2618],[20.8734,46.2874],[20.7756,46.2759],[20.7488,46.2506],[20.7619,46.2044],[20.7274,46.2074],[20.7053,46.1609],[20.7695,46.1449],[20.8318,46.091],[20.9176,46.0743],[20.9409,46.0372],[21.069,46.0396],[21.1102,45.9771],[21.1714,45.9992],[21.2422,45.9714],[21.2377,45.9872],[21.2846,46.0201],[21.3656,45.9818],[21.4496,46.0294],[21.4354,46.0594],[21.4494,46.0459],[21.5158,46.0678],[21.5366,46.0329],[21.5246,46.0101],[21.642,45.974],[21.6301,45.9428],[21.6619,45.9354],[21.6677,45.9062],[21.6924,45.9163],[21.7365,45.9899],[21.7755,45.9483],[21.7698,45.9169],[21.8053,45.9211],[21.8198,45.968],[21.8515,45.9472],[21.894,45.9526],[21.9254,45.9847],[21.9677,45.9943],[21.9984,45.968],[22.2433,45.9025],[22.26,45.9344],[22.3021,45.9319],[22.3116,45.9663],[22.3523,45.9727],[22.336,45.9936],[22.4379,46.012],[22.4293,46.0779],[22.405,46.0952],[22.4674,46.1463],[22.4368,46.2079],[22.4466,46.2172],[22.4948,46.2434],[22.5125,46.2248],[22.5838,46.2335],[22.6077,46.2187],[22.6571,46.2353],[22.678,46.3214],[22.7487,46.3512],[22.6996,46.3656],[22.6766,46.4058]]]},"properties":{"iso3":"ROU","shapeId":"36066543B54316219236217","regionId":"ROU.2_1","name":"Arad"}},{"type":"Feature","geometry":{"type":"Polygon","coordinates":[[[25.3212,45.3814],[25.3009,45.4231],[25.2726,45.4074],[25.2554,45.4225],[25.2759,45.4427],[25.2383,45.4756],[25.2368,45.5178],[25.189,45.5227],[25.1032,45.5852],[24.9415,45.5821],[24.7721,45.6112],[24.6262,45.6039],[24.5659,45.5791],[24.5128,45.5868],[24.5405,45.5357],[24.5119,45.5175],[24.5246,45.4747],[24.481,45.4555],[24.5056,45.3827],[24.4725,45.3311],[24.4927,45.3232],[24.4802,45.2962],[24.4922,45.2821],[24.4668,45.2317],[24.5219,45.1799],[24.4979,45.1656],[24.5197,45.1347],[24.5124,45.1083],[24.4875,45.1053],[24.5072,45.0851],[24.4813,45.0609],[24.5203,45.049],[24.4827,45.0139],[24.509,44.9978],[24.4687,44.9482],[24.4995,44.9441],[24.4636,44.9134],[24.4801,44.8991],[24.4723,44.8743],[24.4215,44.8271],[24.4453,44.8108],[24.4802,44.8217],[24.5095,44.8456],[24.5241,44.8945],[24.5407,44.891],[24.5565,44.8311],[24.5886,44.7976],[24.5899,44.7498],[24.6296,44.7288],[24.6834,44.7378],[24.7255,44.7207],[24.6856,44.7],[24.7167,44.6261],[24.7105,44.5823],[24.7425,44.5382],[24.734,44.4652],[24.7591,44.4645],[24.7446,44.3953],[24.9616,44.3769],[25.0105,44.4108],[25.0651,44.3973],[25.2029,44.4564],[25.2348,44.4242],[25.2773,44.453],[25.2581,44.5115],[25.2974,44.5563],[25.2512,44.5631],[25.1684,44.6618],[25.2375,44.695],[25.1749,44.7147],[25.2129,44.7821],[25.1869,44.8267],[25.2046,44.856],[25.1976,44.9032],[25.1611,44.921],[25.1968,45.0187],[25.1449,45.0386],[25.1246,45.0704],[25.1796,45.0931],[25.1619,45.1171],[25.1441,45.1124],[25.1627,45.1245],[25.1466,45.129],[25.155,45.2012],[25.139,45.2115],[25.1824,45.2026],[25.2114,45.1563],[25.2548,45.1828],[25.2479,45.2111],[25.2916,45.2248],[25.2778,45.2688],[25.3054,45.2927],[25.3212,45.3814]]]},"properties":{"iso3":"ROU","shapeId":"36066543B53231297119391","regionId":"ROU.3_1","name":"Argeș"}},{"type":"Feature","geometry":{"type":"Polygon","coordinates":[[[27.2062,46.7699],[27.1507,46.7312],[27.1463,46.7535],[27.1153,46.7486],[27.0985,46.7695],[26.9393,46.7519],[26.9355,46.7847],[26.9224,46.7752],[26.8932,46.7977],[26.9148,46.811],[26.9094,46.8272],[26.8854,46.8286],[26.8495,46.8047],[26.8495,46.78],[26.8215,46.7731],[26.8419,46.7513],[26.7869,46.7171],[26.7513,46.7379],[26.7548,46.7563],[26.7312,46.7492],[26.7429,46.7683],[26.6759,46.7677],[26.676,46.736],[26.6082,46.7129],[26.5703,46.6786],[26.5147,46.6947],[26.4722,46.6765],[26.4356,46.6878],[26.3815,46.6496],[26.2936,46.6553],[26.2659,46.7031],[26.2176,46.6807],[26.2162,46.656],[26.1593,46.6417],[26.1402,46.6607],[26.0814,46.6562],[26.0717,46.7079],[26.054,46.7165],[25.9752,46.6973],[25.9727,46.6776],[26.0201,46.6345],[25.9907,46.6228],[25.9984,46.6017],[26.0334,46.5708],[26.0349,46.5445],[26.0829,46.5125],[26.0745,46.4847],[26.007,46.4825],[26.0172,46.4613],[25.987,46.4388],[26.0031,46.4252],[25.9952,46.4068],[26.0469,46.4166],[26.1649,46.3849],[26.1567,46.3148],[26.2916,46.3357],[26.2533,46.2767],[26.2591,46.2502],[26.3267,46.23],[26.3432,46.1371],[26.3866,46.145],[26.3925,46.1229],[26.3693,46.1124],[26.4079,46.1036],[26.4564,46.034],[26.4922,46.0455],[26.5727,46.0168],[26.6568,46.0859],[26.7044,46.0947],[26.78,46.0938],[26.807,46.0657],[26.8718,46.0846],[26.934,46.0651],[26.9476,46.1006],[26.9836,46.1133],[27.1058,46.0889],[27.0863,46.1114],[27.1208,46.1003],[27.1397,46.1342],[27.1236,46.1476],[27.1733,46.1813],[27.2217,46.1913],[27.2456,46.1778],[27.2699,46.1832],[27.2627,46.2004],[27.3065,46.206],[27.35,46.1528],[27.3745,46.1573],[27.3937,46.1943],[27.4481,46.1841],[27.4592,46.1574],[27.5062,46.1554],[27.5101,46.21],[27.4789,46.2207],[27.4686,46.2737],[27.4838,46.2828],[27.4563,46.3212],[27.4772,46.323],[27.4643,46.3715],[27.3798,46.5241],[27.2762,46.6252],[27.3222,46.6568],[27.2929,46.6769],[27.3266,46.698],[27.2393,46.7353],[27.2062,46.7699]]]},"properties":{"iso3":"ROU","shapeId":"36066543B58663638147212","regionId":"ROU.4_1","name":"Bacău"}},{"type":"Feature","geometry":{"type":"Polygon","coordinates":[[[22.812,46.569],[22.8016,46.6182],[22.8191,46.6386],[22.788,46.627],[22.7396,46.7159],[22.7081,46.7387],[22.7139,46.7625],[22.6373,46.7994],[22.7263,46.8157],[22.779,46.897],[22.671,46.9503],[22.7288,47.0072],[22.7013,47.0178],[22.6865,47.0512],[22.5928,47.0639],[22.5147,47.1092],[22.5666,47.1251],[22.4929,47.1869],[22.528,47.2198],[22.5167,47.2327],[22.566,47.2514],[22.5467,47.269],[22.5528,47.3028],[22.5805,47.3012],[22.6121,47.3399],[22.57,47.3569],[22.566,47.3922],[22.5304,47.3993],[22.5294,47.4186],[22.3582,47.4293],[22.341,47.4908],[22.2883,47.5065],[22.2896,47.5405],[22.2561,47.5389],[22.2613,47.5644],[22.2003,47.5991],[22.1281,47.5981],[22.0936,47.5581],[22.0553,47.5485],[22.0713,47.538],[22.0614,47.529],[22.0454,47.5398],[22.0241,47.5199],[22.0071,47.4833],[22.0327,47.451],[22.0234,47.3915],[22.012,47.3758],[21.9385,47.373],[21.8788,47.2873],[21.8879,47.2721],[21.8516,47.2391],[21.8581,47.187],[21.8174,47.1727],[21.7926,47.1066],[21.7261,47.0985],[21.6826,47.0457],[21.6489,47.0405],[21.689,47.0018],[21.6679,46.9702],[21.6816,46.9649],[21.5987,46.9274],[21.6142,46.8865],[21.6012,46.8657],[21.5202,46.8373],[21.5187,46.7997],[21.4832,46.7647],[21.5293,46.7208],[21.4922,46.686],[21.4277,46.6891],[21.4429,46.6664],[21.5389,46.6295],[21.5462,46.6014],[21.5672,46.6003],[21.5711,46.6491],[21.6202,46.6454],[21.6472,46.6648],[21.8055,46.6553],[21.8693,46.6808],[21.911,46.6629],[21.881,46.6311],[21.9523,46.6171],[22.0005,46.6247],[22.0258,46.6544],[22.0863,46.635],[22.1162,46.6028],[22.171,46.6023],[22.1646,46.5709],[22.198,46.5139],[22.2724,46.5008],[22.3252,46.5145],[22.3445,46.4477],[22.4528,46.385],[22.649,46.3915],[22.7195,46.431],[22.6882,46.4418],[22.6769,46.5232],[22.812,46.569]]]},"properties":{"iso3":"ROU","shapeId":"36066543B26260700062336","regionId":"ROU.5_1","name":"Bihor"}},{"type":"Feature","geometry":{"type":"Polygon","coordinates":[[[24.9608,47.5969],[24.8279,47.5966],[24.8072,47.5667],[24.726,47.5762],[24.6596,47.554],[24.6319,47.5758],[24.5656,47.5627],[24.3866,47.6083],[24.3431,47.5659],[24.3031,47.5791],[24.2404,47.5001],[24.1669,47.5057],[24.1414,47.4874],[24.1267,47.4993],[24.1242,47.4378],[24.0227,47.3619],[24.0212,47.3141],[23.9819,47.3213],[23.9283,47.3007],[23.9186,47.2548],[23.9589,47.1615],[24.0172,47.1777],[24.0171,47.1432],[24.0702,47.1182],[24.1078,47.1241],[24.1195,47.0979],[24.1472,47.0896],[24.1311,47.0878],[24.1036,47.0272],[24.1216,47.0201],[24.0978,46.9891],[24.1139,46.9605],[24.1755,46.9632],[24.1615,46.9336],[24.2262,46.8898],[24.1795,46.8048],[24.301,46.7532],[24.3842,46.7472],[24.4155,46.774],[24.4521,46.7657],[24.4722,46.7827],[24.4494,46.7891],[24.4582,46.8201],[24.527,46.8543],[24.5378,46.8675],[24.5213,46.8986],[24.5846,46.9151],[24.5947,46.9455],[24.6247,46.9544],[24.6585,46.9095],[24.7467,46.9066],[24.7218,46.9324],[24.7404,46.9815],[24.8542,47.0959],[24.8971,47.1092],[24.932,47.096],[24.9533,47.1205],[25.0135,47.1112],[25.0634,47.1365],[25.0445,47.2155],[25.0797,47.2583],[25.028,47.2867],[25.0794,47.3147],[25.0694,47.3702],[24.9829,47.4239],[25.0264,47.436],[25.0583,47.4165],[25.0526,47.4313],[25.0908,47.4491],[25.0661,47.4504],[25.04,47.4829],[25.0935,47.5123],[25.0519,47.5604],[24.9608,47.5969]]]},"properties":{"iso3":"ROU","shapeId":"36066543B74561209637266","regionId":"ROU.6_1","name":"Bistrița-Năsăud"}},{"type":"Feature","geometry":{"type":"Polygon","coordinates":[[[27.3911,47.5895],[27.315,47.6428],[27.2734,47.6897],[27.2826,47.7008],[27.2501,47.7192],[27.2655,47.7328],[27.2921,47.7232],[27.2808,47.737],[27.2973,47.7521],[27.2316,47.7988],[27.2412,47.8159],[27.2157,47.8186],[27.2482,47.834],[27.209,47.8494],[27.2,47.9018],[27.1508,47.9213],[27.1781,47.9468],[27.1414,47.9669],[27.1661,47.9949],[27.1223,47.9936],[27.1238,48.0161],[27.091,48.0075],[27.1075,48.0327],[27.025,48.0899],[27.0392,48.1297],[26.9589,48.1335],[26.9549,48.1518],[26.9918,48.1496],[26.9355,48.1637],[26.945,48.1943],[26.9151,48.199],[26.9207,48.1825],[26.9034,48.1808],[26.8926,48.192],[26.9089,48.2012],[26.8523,48.2339],[26.8318,48.2266],[26.8081,48.2545],[26.7372,48.2448],[26.7282,48.2581],[26.7254,48.2456],[26.7001,48.2654],[26.6669,48.2467],[26.6637,48.2633],[26.6338,48.262],[26.6203,48.2392],[26.5775,48.2437],[26.5718,48.2192],[26.4714,48.2201],[26.4359,48.1932],[26.3328,48.1857],[26.3343,48.1592],[26.298,48.1337],[26.267,48.0766],[26.2122,48.0508],[26.188,47.9955],[26.0988,47.9789],[26.1311,47.9533],[26.126,47.9326],[26.1843,47.9195],[26.1837,47.893],[26.2289,47.9001],[26.2935,47.8631],[26.311,47.8493],[26.3009,47.8354],[26.325,47.8309],[26.3181,47.815],[26.3697,47.774],[26.4064,47.784],[26.3961,47.7343],[26.4398,47.743],[26.4323,47.7263],[26.4676,47.7159],[26.4967,47.6587],[26.5456,47.6434],[26.5417,47.5826],[26.6049,47.5206],[26.551,47.5042],[26.5891,47.4906],[26.599,47.4557],[26.7268,47.4729],[26.6975,47.4928],[26.7169,47.5153],[26.9774,47.4962],[27.0419,47.4382],[27.0491,47.4662],[27.0822,47.4643],[27.0723,47.5127],[27.1,47.5479],[27.223,47.5128],[27.2591,47.5291],[27.2466,47.5565],[27.2636,47.5712],[27.3911,47.5895]]]},"properties":{"iso3":"ROU","shapeId":"36066543B44844051198398","regionId":"ROU.7_1","name":"Botoșani"}},{"type":"Feature","geometry":{"type":"Polygon","coordinates":[[[28.0305,45.4043],[27.9826,45.3902],[27.8831,45.4202],[27.8647,45.397],[27.8144,45.3945],[27.782,45.4223],[27.7416,45.4154],[27.7506,45.4485],[27.7168,45.4335],[27.6733,45.4461],[27.6915,45.4815],[27.6608,45.4726],[27.6544,45.4907],[27.6286,45.4547],[27.5646,45.4923],[27.4324,45.4098],[27.4417,45.3757],[27.3982,45.3614],[27.4104,45.342],[27.3797,45.3298],[27.3902,45.2867],[27.3656,45.2725],[27.3127,45.2924],[27.35,45.2124],[27.2836,45.2001],[27.175,45.2494],[27.1225,45.2179],[27.0678,45.1557],[27.0965,45.1299],[27.1499,45.1706],[27.167,45.1098],[27.1822,45.11],[27.1673,45.0843],[27.2064,45.1009],[27.1976,45.0279],[27.2477,45.0272],[27.2493,44.9949],[27.2816,44.9977],[27.2348,44.8691],[27.2106,44.8727],[27.2316,44.8593],[27.2112,44.807],[27.1887,44.8064],[27.2574,44.7497],[27.2881,44.7853],[27.3096,44.7747],[27.3417,44.8023],[27.3821,44.7744],[27.4366,44.7989],[27.4781,44.7752],[27.5268,44.774],[27.5286,44.7887],[27.7218,44.765],[27.7442,44.7792],[27.7254,44.7939],[27.7417,44.8162],[27.7735,44.8029],[27.8184,44.8204],[27.8267,44.7824],[27.881,44.7631],[27.9479,44.7806],[28.0353,44.76],[28.065,44.7838],[28.1005,44.8618],[28.1423,44.8899],[28.1248,44.9221],[28.1511,44.9729],[28.1284,45.0132],[28.1526,45.0371],[28.1356,45.1017],[28.1755,45.1015],[28.1699,45.1227],[28.1977,45.1374],[28.0914,45.1902],[28.1306,45.2338],[28.1152,45.2588],[28.0595,45.2542],[27.9948,45.2867],[28.0305,45.4043]]]},"properties":{"iso3":"ROU","shapeId":"36066543B36343129004237","regionId":"ROU.9_1","name":"Brăila"}},{"type":"Feature","geometry":{"type":"Polygon","coordinates":[[[25.3212,45.3814],[25.4032,45.3865],[25.4128,45.4296],[25.4981,45.4674],[25.5996,45.4625],[25.6299,45.4961],[25.681,45.5006],[25.7264,45.4654],[25.7863,45.4843],[25.8236,45.4314],[25.8654,45.4217],[25.9219,45.5221],[25.9957,45.5135],[26.0431,45.4772],[26.0655,45.4853],[26.1045,45.5508],[26.0548,45.5938],[26.0563,45.6166],[26.0187,45.6155],[26.0023,45.6492],[25.9513,45.6524],[25.972,45.6874],[25.8604,45.7078],[25.8418,45.7303],[25.8216,45.7258],[25.8332,45.7476],[25.7904,45.7645],[25.7027,45.7736],[25.6629,45.7484],[25.6774,45.7584],[25.6676,45.7866],[25.5573,45.8526],[25.5717,45.8647],[25.5582,45.8782],[25.5875,45.8721],[25.6396,45.901],[25.5411,45.8921],[25.563,45.9144],[25.5357,45.9415],[25.5533,45.9558],[25.5394,45.9561],[25.5449,45.9959],[25.5855,46.0201],[25.5619,46.0532],[25.4746,46.0587],[25.4508,46.0739],[25.45,46.1245],[25.3735,46.1356],[25.3327,46.1778],[25.2732,46.17],[25.2586,46.1904],[25.2496,46.1414],[25.1897,46.1707],[25.1258,46.1423],[25.0148,46.1463],[24.9489,46.1023],[24.9651,46.0618],[24.8895,46.0397],[24.8655,46.0097],[24.8212,46.0101],[24.8355,45.9778],[24.7688,45.9757],[24.7487,45.935],[24.7028,45.9402],[24.7161,45.8945],[24.7761,45.8613],[24.7735,45.8396],[24.7183,45.8409],[24.7135,45.8161],[24.688,45.8364],[24.6393,45.7951],[24.6816,45.7095],[24.6693,45.6398],[24.6849,45.6041],[24.8106,45.6107],[24.8364,45.592],[24.9415,45.5821],[25.1032,45.5852],[25.189,45.5227],[25.2368,45.5178],[25.2383,45.4756],[25.2759,45.4427],[25.2554,45.4225],[25.2726,45.4074],[25.3009,45.4231],[25.3212,45.3814]]]},"properties":{"iso3":"ROU","shapeId":"36066543B7969361625805","regionId":"ROU.8_1","name":"Brașov"}},{"type":"Feature","geometry":{"type":"Polygon","coordinates":[[[27.4338,45.3943],[27.3553,45.3712],[27.27,45.3901],[27.2796,45.4544],[27.2234,45.4275],[27.1944,45.4534],[27.1434,45.4104],[27.1146,45.4093],[27.1065,45.4386],[27.1584,45.4652],[27.1092,45.4749],[27.0899,45.4459],[27.045,45.4527],[27.0019,45.4849],[26.975,45.5319],[26.9858,45.5377],[26.8339,45.5178],[26.8054,45.5479],[26.7484,45.5484],[26.6816,45.6088],[26.5298,45.641],[26.4362,45.7396],[26.4408,45.7764],[26.3919,45.8024],[26.3846,45.7365],[26.3325,45.686],[26.3108,45.6028],[26.2796,45.586],[26.2457,45.6261],[26.2136,45.6219],[26.1855,45.6083],[26.1715,45.563],[26.1484,45.5868],[26.0722,45.5064],[26.1493,45.457],[26.1602,45.363],[26.2336,45.3147],[26.1852,45.2787],[26.2234,45.2738],[26.2496,45.1992],[26.3568,45.2142],[26.3526,45.1645],[26.3757,45.1583],[26.4604,45.1981],[26.4695,45.1382],[26.4495,45.1261],[26.4561,45.0817],[26.4431,45.0759],[26.4688,45.0633],[26.492,45.0053],[26.5295,45.0149],[26.5999,44.9557],[26.5328,44.9397],[26.5361,44.9102],[26.5536,44.9152],[26.6084,44.8721],[26.6309,44.8136],[26.7764,44.8151],[26.8104,44.7952],[26.8784,44.8203],[26.9734,44.7884],[27.0079,44.8244],[27.111,44.782],[27.0979,44.7448],[27.134,44.7356],[27.1838,44.7343],[27.1937,44.7523],[27.1458,44.7613],[27.1546,44.7857],[27.203,44.786],[27.1887,44.8064],[27.2112,44.807],[27.2316,44.8593],[27.2106,44.8727],[27.2348,44.8691],[27.2816,44.9977],[27.2493,44.9949],[27.2477,45.0272],[27.1976,45.0279],[27.2064,45.1009],[27.1673,45.0843],[27.1822,45.11],[27.167,45.1098],[27.1499,45.1706],[27.0965,45.1299],[27.0664,45.1588],[27.175,45.2494],[27.2836,45.2001],[27.35,45.2124],[27.3127,45.2924],[27.3656,45.2725],[27.3902,45.2867],[27.3797,45.3298],[27.4104,45.342],[27.3982,45.3614],[27.4417,45.3757],[27.4338,45.3943]]]},"properties":{"iso3":"ROU","shapeId":"36066543B78402216072727","regionId":"ROU.11_1","name":"Buzău"}},{"type":"Feature","geometry":{"type":"Polygon","coordinates":[[[28.0186,44.34],[27.855,44.3801],[27.8133,44.3341],[27.7893,44.3551],[27.7625,44.3478],[27.7456,44.3819],[27.77,44.3947],[27.7312,44.4192],[27.6543,44.4209],[27.639,44.4707],[27.5701,44.4678],[27.5719,44.5591],[27.5252,44.5438],[27.5184,44.4971],[27.5023,44.4936],[27.3884,44.4962],[27.3522,44.5172],[27.3457,44.486],[27.2678,44.5063],[27.263,44.4891],[27.2058,44.5157],[27.2062,44.4837],[27.1396,44.5011],[27.1355,44.4829],[27.0915,44.4851],[27.0914,44.5085],[27.0034,44.5087],[27.0034,44.529],[26.8443,44.5156],[26.8299,44.5278],[26.7962,44.5112],[26.7702,44.5179],[26.7869,44.5418],[26.7226,44.5377],[26.7261,44.559],[26.6787,44.5628],[26.6839,44.5911],[26.665,44.5955],[26.6449,44.5361],[26.6211,44.543],[26.5945,44.511],[26.5991,44.523],[26.5628,44.5265],[26.4766,44.5799],[26.4562,44.567],[26.4363,44.5493],[26.4715,44.5452],[26.3606,44.4861],[26.3953,44.4572],[26.4635,44.4537],[26.3478,44.4109],[26.3264,44.3847],[26.3019,44.4133],[26.2601,44.4092],[26.3311,44.3718],[26.2525,44.33],[26.2759,44.3172],[26.2541,44.2982],[26.2961,44.261],[26.4157,44.2038],[26.4002,44.1838],[26.4219,44.1826],[26.4195,44.1256],[26.3582,44.108],[26.3799,44.043],[26.4346,44.0331],[26.7628,44.0778],[26.9067,44.1333],[27.1387,44.1402],[27.2287,44.1162],[27.3255,44.1402],[27.4519,44.1245],[27.5638,44.1896],[27.6297,44.2059],[27.7209,44.1975],[27.8131,44.2453],[27.9339,44.2498],[28.0186,44.34]]]},"properties":{"iso3":"ROU","shapeId":"36066543B5722188715477","regionId":"ROU.12_1","name":"Călărași"}},{"type":"Feature","geometry":{"type":"Polygon","coordinates":[[[22.4265,45.6689],[22.3166,45.6602],[22.269,45.5854],[22.1879,45.6182],[22.1497,45.5989],[22.1479,45.6161],[22.1345,45.5941],[22.0738,45.5721],[22.0453,45.5915],[22.0472,45.5497],[22.0724,45.5657],[22.0893,45.5461],[22.0778,45.539],[22.1039,45.5492],[22.1078,45.536],[22.0613,45.5281],[22.0341,45.5016],[21.9454,45.5055],[21.9304,45.5396],[21.889,45.5501],[21.88,45.5329],[21.7871,45.533],[21.6745,45.5857],[21.5998,45.5711],[21.5669,45.4964],[21.5032,45.4713],[21.5001,45.4878],[21.4334,45.4712],[21.432,45.4552],[21.4888,45.4187],[21.4405,45.4071],[21.4641,45.3585],[21.4525,45.3522],[21.5604,45.3163],[21.5712,45.2928],[21.5215,45.2451],[21.5047,45.2173],[21.5154,45.2019],[21.4775,45.1936],[21.5289,45.1473],[21.4784,45.1212],[21.4834,45.0913],[21.4476,45.0575],[21.4561,45.0404],[21.3602,45.0204],[21.4383,44.9605],[21.5467,44.9306],[21.5601,44.8891],[21.3729,44.8668],[21.3582,44.8217],[21.4039,44.7763],[21.5861,44.7593],[21.638,44.6595],[21.9165,44.6477],[21.9937,44.6322],[22.0161,44.5992],[22.0795,44.6217],[22.1471,44.5854],[22.1773,44.6251],[22.1715,44.6487],[22.1385,44.66],[22.1561,44.7366],[22.2042,44.7614],[22.2068,44.8175],[22.2681,44.7825],[22.3416,44.7741],[22.3632,44.7451],[22.4187,44.7563],[22.4237,44.8005],[22.4868,44.8833],[22.4854,44.9363],[22.5161,44.9553],[22.4918,44.974],[22.6564,45.1077],[22.6492,45.1278],[22.5805,45.1382],[22.5604,45.1622],[22.6863,45.253],[22.6769,45.2816],[22.6992,45.3286],[22.6566,45.3713],[22.7129,45.4158],[22.6779,45.5158],[22.6482,45.5416],[22.6275,45.5357],[22.6364,45.5712],[22.593,45.5606],[22.5827,45.5845],[22.5124,45.5953],[22.4265,45.6689]]]},"properties":{"iso3":"ROU","shapeId":"36066543B64946384360033","regionId":"ROU.13_1","name":"Caraș-Severin"}},{"type":"Feature","geometry":{"type":"Polygon","coordinates":[[[23.9853,46.4309],[24.0047,46.4422],[23.9711,46.4591],[23.9751,46.5046],[23.9591,46.5155],[23.9869,46.5423],[24.0192,46.5313],[24.0453,46.545],[24.0691,46.606],[24.0202,46.6279],[24.1025,46.6617],[24.1244,46.7001],[24.0665,46.7334],[24.0879,46.7536],[24.1261,46.7465],[24.1175,46.7738],[24.1881,46.7933],[24.1776,46.8072],[24.1943,46.8086],[24.1887,46.8311],[24.2095,46.8374],[24.212,46.8852],[24.2262,46.8898],[24.1615,46.9336],[24.1755,46.9632],[24.1139,46.9605],[24.0978,46.9891],[24.1216,47.0201],[24.1036,47.0272],[24.1311,47.0878],[24.1472,47.0896],[24.1195,47.0979],[24.1078,47.1241],[24.0702,47.1182],[24.0171,47.1432],[24.0172,47.1777],[23.9589,47.1615],[23.936,47.1993],[23.9186,47.2548],[23.9268,47.2985],[23.9819,47.3213],[24.0212,47.3141],[24.0227,47.3619],[23.9252,47.3523],[23.8699,47.3802],[23.8468,47.3723],[23.8416,47.3274],[23.7988,47.2815],[23.8146,47.2513],[23.7622,47.2836],[23.7527,47.2419],[23.7206,47.2548],[23.6529,47.2347],[23.6158,47.1699],[23.5615,47.1789],[23.5439,47.1585],[23.4978,47.155],[23.5041,47.1174],[23.4789,47.1077],[23.4852,47.0905],[23.4272,47.0898],[23.4856,47.0292],[23.4436,46.992],[23.3984,46.9935],[23.4117,46.9817],[23.385,46.9773],[23.3709,46.9603],[23.3816,46.9463],[23.3386,46.9084],[23.2821,46.8979],[23.2283,46.9637],[23.2161,46.9395],[23.2296,46.9348],[23.2027,46.9226],[23.2226,46.8926],[23.1987,46.8695],[23.1628,46.8793],[23.1753,46.8751],[23.1045,46.8534],[23.0834,46.8673],[23.0922,46.8903],[23.0655,46.9046],[23.036,46.8818],[23.0335,46.9015],[23.0119,46.8878],[23.0069,46.9076],[22.9315,46.9185],[22.8967,46.9437],[22.879,46.9889],[22.8348,46.9952],[22.795,46.9771],[22.735,47.008],[22.6752,46.9711],[22.6805,46.9422],[22.779,46.897],[22.7263,46.8157],[22.6373,46.7994],[22.7139,46.7625],[22.7081,46.7387],[22.7396,46.7159],[22.788,46.627],[22.8191,46.6386],[22.8016,46.6182],[22.8106,46.5636],[22.836,46.5464],[22.8844,46.5362],[22.9303,46.5551],[22.9999,46.5526],[22.989,46.5377],[23.0113,46.5036],[23.0556,46.4925],[23.0519,46.466],[23.0936,46.4684],[23.1041,46.4905],[23.1519,46.5062],[23.2369,46.4909],[23.3793,46.541],[23.4539,46.5284],[23.4623,46.5043],[23.5231,46.4859],[23.5481,46.5039],[23.6119,46.4845],[23.5919,46.4362],[23.6042,46.4145],[23.6609,46.3967],[23.6811,46.4085],[23.6509,46.4276],[23.7015,46.4575],[23.8332,46.4689],[23.8679,46.447],[23.9096,46.4635],[23.9853,46.4309]]]},"properties":{"iso3":"ROU","shapeId":"36066543B42198475713558","regionId":"ROU.14_1","name":"Cluj"}},{"type":"Feature","geometry":{"type":"Polygon","coordinates":[[[27.881,44.7631],[27.8805,44.7089],[27.9583,44.6802],[28.0302,44.6269],[28.0165,44.5649],[28.053,44.5089],[28.0882,44.4904],[28.1087,44.4417],[28.0281,44.368],[27.9993,44.3053],[27.9339,44.2498],[27.8131,44.2453],[27.7209,44.1975],[27.6297,44.2059],[27.5638,44.1896],[27.4519,44.1245],[27.2995,44.1383],[27.2713,44.1263],[27.2912,44.0752],[27.3561,44.0587],[27.3994,44.0123],[27.6116,44.0122],[27.6435,44.0479],[27.6736,44.0298],[27.71,43.9593],[27.7378,43.9535],[27.8431,43.9662],[27.9168,44.0083],[27.9442,43.9848],[27.9942,43.8429],[28.2364,43.7585],[28.4462,43.7337],[28.5786,43.7387],[28.5918,43.8397],[28.6675,43.9868],[28.6382,44.0743],[28.633,44.1574],[28.6657,44.1719],[28.6218,44.2496],[28.6318,44.3159],[28.6584,44.3233],[28.6426,44.3242],[28.6572,44.3424],[28.689,44.3451],[28.8538,44.5024],[28.995,44.679],[28.9145,44.6966],[28.8094,44.6318],[28.7785,44.655],[28.675,44.6497],[28.6831,44.6689],[28.5359,44.6628],[28.528,44.6328],[28.4697,44.6483],[28.4314,44.6808],[28.4267,44.6558],[28.4477,44.6392],[28.4134,44.6128],[28.4025,44.6179],[28.4216,44.6321],[28.3947,44.6337],[28.4083,44.6489],[28.3867,44.6395],[28.3773,44.6554],[28.3854,44.6805],[28.3146,44.6961],[28.3272,44.7074],[28.3128,44.7114],[28.2737,44.6973],[28.2329,44.7088],[28.2518,44.7435],[28.2398,44.7647],[28.1944,44.7542],[28.1531,44.8004],[28.0734,44.8041],[28.0353,44.76],[27.9479,44.7806],[27.881,44.7631]]]},"properties":{"iso3":"ROU","shapeId":"36066543B20641671386087","regionId":"ROU.15_1","name":"Constanța"}},{"type":"Feature","geometry":{"type":"Polygon","coordinates":[[[26.2634,46.2463],[26.2503,46.2355],[26.2616,46.2156],[26.2193,46.206],[26.1718,46.16],[26.1309,46.1723],[26.0572,46.1597],[26.0195,46.128],[25.8584,46.1191],[25.7271,46.2503],[25.726,46.2746],[25.7,46.2767],[25.5082,46.1882],[25.509,46.1616],[25.4513,46.1039],[25.4508,46.0739],[25.5046,46.0453],[25.5619,46.0532],[25.5855,46.0201],[25.5449,45.9959],[25.5394,45.9561],[25.5533,45.9558],[25.5357,45.9415],[25.563,45.9144],[25.5411,45.8921],[25.6396,45.901],[25.5875,45.8721],[25.5582,45.8782],[25.5717,45.8647],[25.5573,45.8526],[25.6676,45.7866],[25.6774,45.7584],[25.6629,45.7484],[25.7027,45.7736],[25.7904,45.7645],[25.8332,45.7476],[25.8216,45.7258],[25.8418,45.7303],[25.8604,45.7078],[25.972,45.6874],[25.9513,45.6524],[26.0023,45.6492],[26.0187,45.6155],[26.0563,45.6166],[26.0548,45.5938],[26.1045,45.5508],[26.0934,45.5165],[26.1484,45.5868],[26.1715,45.563],[26.1855,45.6083],[26.2136,45.6219],[26.2457,45.6261],[26.2796,45.586],[26.3108,45.6028],[26.3325,45.686],[26.3846,45.7365],[26.3756,45.9073],[26.3945,45.9208],[26.3913,45.9579],[26.4374,45.9887],[26.4419,46.0511],[26.4079,46.1036],[26.3693,46.1124],[26.3925,46.1229],[26.3866,46.145],[26.3432,46.1371],[26.3267,46.23],[26.2634,46.2463]]]},"properties":{"iso3":"ROU","shapeId":"36066543B24619858626166","regionId":"ROU.16_1","name":"Covasna"}},{"type":"Feature","geometry":{"type":"Polygon","coordinates":[[[25.2348,44.4242],[25.2507,44.4034],[25.3017,44.4233],[25.3412,44.4646],[25.3558,44.4593],[25.395,44.5181],[25.4427,44.501],[25.4284,44.4737],[25.4807,44.4521],[25.513,44.4884],[25.4811,44.4989],[25.495,44.5191],[25.5421,44.5401],[25.5897,44.5256],[25.6483,44.5539],[25.6824,44.5232],[25.708,44.5446],[25.7783,44.5293],[25.8102,44.5488],[25.8445,44.5239],[25.8907,44.5413],[25.8741,44.5534],[25.887,44.5806],[25.905,44.5633],[25.9919,44.6122],[25.9392,44.6459],[25.9718,44.6602],[25.9649,44.671],[25.9825,44.6653],[25.9581,44.6839],[25.9881,44.6911],[25.9736,44.7311],[25.9248,44.7627],[25.8743,44.8313],[25.8316,44.8251],[25.8418,44.8099],[25.7768,44.825],[25.8231,44.9032],[25.7876,44.9528],[25.7095,44.9414],[25.6833,44.9543],[25.6755,45.0096],[25.7017,45.0452],[25.605,45.1242],[25.5578,45.1927],[25.5311,45.1908],[25.5342,45.2158],[25.5124,45.2232],[25.5544,45.2702],[25.5225,45.3086],[25.4729,45.3277],[25.4843,45.3949],[25.4514,45.4408],[25.4128,45.4296],[25.4032,45.3865],[25.3212,45.3814],[25.3054,45.2927],[25.2778,45.2688],[25.2916,45.2248],[25.2479,45.2111],[25.2548,45.1828],[25.2114,45.1563],[25.1824,45.2026],[25.139,45.2115],[25.155,45.2012],[25.1466,45.129],[25.1627,45.1245],[25.1441,45.1124],[25.1619,45.1171],[25.1796,45.0931],[25.125,45.0656],[25.1449,45.0386],[25.1874,45.0331],[25.2002,45.002],[25.1724,44.984],[25.1611,44.921],[25.1976,44.9032],[25.2046,44.856],[25.1869,44.8267],[25.2129,44.7821],[25.1749,44.7147],[25.2375,44.695],[25.1684,44.6618],[25.2512,44.5631],[25.2974,44.5563],[25.2581,44.5115],[25.2773,44.453],[25.2348,44.4242]]]},"properties":{"iso3":"ROU","shapeId":"36066543B36508208096212","regionId":"ROU.17_1","name":"Dâmbovița"}},{"type":"Feature","geometry":{"type":"Polygon","coordinates":[[[23.7809,44.7134],[23.7169,44.7265],[23.7077,44.5851],[23.697,44.6021],[23.6147,44.59],[23.5883,44.6151],[23.5145,44.6014],[23.497,44.5713],[23.4582,44.5746],[23.4156,44.527],[23.3785,44.5427],[23.3368,44.5237],[23.3174,44.5397],[23.2539,44.5299],[23.2838,44.516],[23.2795,44.5015],[23.196,44.4586],[23.2232,44.4392],[23.1972,44.4138],[23.2484,44.3849],[23.189,44.3671],[23.1763,44.3245],[23.1309,44.316],[23.0936,44.2621],[23.0942,44.2227],[23.1121,44.2174],[23.0951,44.1992],[23.1179,44.1895],[23.1099,44.1502],[23.0053,44.1581],[22.9664,44.0985],[23.0243,44.0894],[23.0457,44.0579],[23.01,44.0134],[22.8787,43.9816],[22.8383,43.8867],[22.853,43.8505],[23.0538,43.7956],[23.2678,43.8468],[23.4152,43.8528],[23.6123,43.7915],[23.7554,43.8001],[23.8634,43.755],[23.9668,43.7446],[24.1125,43.6996],[24.1555,43.8139],[24.1921,43.8104],[24.1993,43.8581],[24.2268,43.8515],[24.2483,43.9302],[24.2233,43.9413],[24.2601,43.9739],[24.2647,43.9987],[24.1737,44.0064],[24.1796,44.0685],[24.2228,44.0695],[24.2275,44.1096],[24.2124,44.11],[24.2346,44.1711],[24.2,44.1688],[24.2296,44.2147],[24.1119,44.2668],[24.1087,44.3007],[24.0508,44.3401],[24.0288,44.385],[23.9845,44.3731],[23.9581,44.3817],[23.9685,44.4104],[23.901,44.4251],[23.8906,44.4127],[23.8859,44.4613],[23.9089,44.4688],[23.8834,44.4808],[23.9041,44.499],[23.8853,44.5121],[23.9282,44.5303],[23.8809,44.6109],[23.8997,44.6255],[23.8166,44.6476],[23.7882,44.6373],[23.7809,44.7134]]]},"properties":{"iso3":"ROU","shapeId":"36066543B77825502227768","regionId":"ROU.18_1","name":"Dolj"}},{"type":"Feature","geometry":{"type":"Polygon","coordinates":[[[28.0305,45.4043],[28.0978,45.4406],[28.1895,45.4143],[28.1966,45.4522],[28.2329,45.4633],[28.186,45.4745],[28.1544,45.5098],[28.1565,45.5752],[28.1211,45.5722],[28.0884,45.6053],[28.1741,45.6447],[28.1578,45.6511],[28.1708,45.7095],[28.1434,45.7603],[28.1538,45.7825],[28.1139,45.7905],[28.1077,45.8163],[28.1061,45.8599],[28.1326,45.8769],[28.1126,45.8843],[28.1257,45.9224],[28.0854,46.0083],[28.105,46.0529],[28.0891,46.0697],[28.109,46.0783],[28.114,46.1137],[28.009,46.105],[27.9646,46.1413],[27.8718,46.1456],[27.857,46.1632],[27.8453,46.1263],[27.7864,46.0907],[27.7625,46.1281],[27.6073,46.1307],[27.5911,46.1502],[27.6013,46.1224],[27.5881,46.1114],[27.611,46.0768],[27.5871,46.072],[27.6275,46.0613],[27.5999,46.056],[27.6044,46.0193],[27.5627,46.0033],[27.516,46.0535],[27.532,46.0671],[27.5172,46.0854],[27.5354,46.0946],[27.5031,46.1395],[27.481,46.1258],[27.4265,46.1395],[27.4244,46.0893],[27.292,46.0833],[27.2688,46.0416],[27.2331,46.0419],[27.2373,45.9558],[27.2845,45.8867],[27.2486,45.8726],[27.2795,45.8703],[27.3045,45.8423],[27.396,45.6901],[27.4225,45.6694],[27.4477,45.6773],[27.4653,45.6372],[27.5121,45.6216],[27.4968,45.6084],[27.5353,45.5815],[27.5042,45.5632],[27.5283,45.5485],[27.5244,45.5197],[27.5415,45.5093],[27.5269,45.5003],[27.6,45.4839],[27.6286,45.4547],[27.6544,45.4907],[27.6608,45.4726],[27.6915,45.4815],[27.6733,45.4461],[27.7168,45.4335],[27.7506,45.4485],[27.7416,45.4154],[27.782,45.4223],[27.8144,45.3945],[27.8647,45.397],[27.8831,45.4202],[27.9826,45.3902],[28.0305,45.4043]]]},"properties":{"iso3":"ROU","shapeId":"36066543B93424276500239","regionId":"ROU.19_1","name":"Galați"}},{"type":"Feature","geometry":{"type":"Polygon","coordinates":[[[26.2598,44.2949],[26.2051,44.2689],[26.19,44.2415],[26.1731,44.2506],[26.1651,44.2155],[26.01,44.3011],[25.9747,44.2694],[25.9937,44.3171],[25.9087,44.333],[25.8895,44.3579],[25.8614,44.3599],[25.857,44.3902],[25.8253,44.3927],[25.8691,44.419],[25.847,44.4314],[25.8652,44.4434],[25.8493,44.4681],[25.8612,44.4797],[25.8999,44.4526],[25.9153,44.4768],[25.8957,44.4854],[25.9207,44.5165],[25.8907,44.5413],[25.8445,44.5239],[25.8102,44.5488],[25.7783,44.5293],[25.708,44.5446],[25.6824,44.5232],[25.6483,44.5539],[25.5897,44.5256],[25.5421,44.5401],[25.495,44.5191],[25.4811,44.4989],[25.513,44.4884],[25.4255,44.3969],[25.4844,44.3774],[25.4681,44.3252],[25.6167,44.3174],[25.6315,44.3069],[25.6186,44.2882],[25.6505,44.2743],[25.6555,44.2965],[25.6698,44.2925],[25.6677,44.2687],[25.7031,44.252],[25.6553,44.1688],[25.703,44.1605],[25.6768,44.1574],[25.679,44.1266],[25.7094,44.1348],[25.7088,44.1021],[25.686,44.1224],[25.678,44.0896],[25.6571,44.1151],[25.625,44.0859],[25.6145,44.0631],[25.6298,44.0525],[25.5995,44.0376],[25.5912,43.9847],[25.6222,43.9414],[25.5848,43.9376],[25.5844,43.9067],[25.6146,43.9038],[25.6069,43.8445],[25.6297,43.8447],[25.6298,43.8205],[25.6599,43.8205],[25.6679,43.7732],[25.651,43.75],[25.6637,43.7178],[25.6882,43.7257],[25.6719,43.6913],[25.7831,43.7122],[25.8843,43.7835],[25.9399,43.8518],[26.0476,43.9045],[26.1149,43.9741],[26.3799,44.043],[26.3582,44.108],[26.4195,44.1256],[26.4219,44.1826],[26.4002,44.1838],[26.4157,44.2038],[26.2598,44.2949]]]},"properties":{"iso3":"ROU","shapeId":"36066543B2949768471564","regionId":"ROU.20_1","name":"Giurgiu"}},{"type":"Feature","geometry":{"type":"Polygon","coordinates":[[[22.6564,45.1077],[22.6835,45.1069],[22.7045,45.0687],[22.7459,45.0826],[22.7668,45.0503],[22.8265,45.0321],[22.8559,44.9897],[22.9,44.9918],[22.8977,44.9651],[22.8699,44.9615],[22.9087,44.8216],[22.9438,44.8122],[22.9318,44.7982],[22.947,44.7803],[22.9605,44.795],[22.9892,44.7832],[23.0047,44.745],[23.0624,44.7293],[23.0896,44.6953],[23.133,44.6791],[23.1351,44.6953],[23.1893,44.6957],[23.1855,44.6788],[23.288,44.6767],[23.3429,44.6337],[23.3938,44.6295],[23.3848,44.6202],[23.4124,44.6107],[23.4071,44.5847],[23.455,44.5696],[23.5883,44.6151],[23.6147,44.59],[23.697,44.6021],[23.7077,44.5851],[23.7169,44.7265],[23.7809,44.7134],[23.7707,44.7816],[23.796,44.8177],[23.78,44.8624],[23.7535,44.8708],[23.7724,44.9494],[23.755,44.9954],[23.7953,45.0234],[23.7825,45.0633],[23.8285,45.0747],[23.8119,45.1254],[23.8556,45.1505],[23.7963,45.261],[23.8464,45.3275],[23.796,45.35],[23.6874,45.327],[23.6519,45.3494],[23.6238,45.3338],[23.5906,45.3531],[23.4883,45.3146],[23.3501,45.3375],[23.3123,45.2999],[23.2466,45.3072],[23.2071,45.277],[23.1575,45.2749],[23.0933,45.2912],[23.0858,45.273],[23.015,45.2543],[22.9168,45.2796],[22.8642,45.2612],[22.8295,45.2849],[22.7765,45.2604],[22.6862,45.2588],[22.5604,45.1622],[22.5805,45.1382],[22.6492,45.1278],[22.6564,45.1077]]]},"properties":{"iso3":"ROU","shapeId":"36066543B9731027217688","regionId":"ROU.21_1","name":"Gorj"}},{"type":"Feature","geometry":{"type":"Polygon","coordinates":[[[25.9752,46.6973],[25.8914,46.6991],[25.9083,46.6541],[25.8673,46.6496],[25.795,46.7193],[25.8072,46.805],[25.7798,46.8251],[25.8052,46.8406],[25.7626,46.8419],[25.7813,46.8628],[25.7641,46.8845],[25.8033,46.9278],[25.8621,46.9235],[25.827,46.9738],[25.8014,46.9667],[25.7343,47.0739],[25.6238,47.095],[25.6016,47.0773],[25.5385,47.0828],[25.5303,47.1105],[25.4576,47.1446],[25.4255,47.184],[25.3054,47.1651],[25.2959,47.1152],[25.2306,47.0757],[25.2891,46.9929],[25.2513,46.8412],[25.2836,46.8347],[25.2856,46.7973],[25.3169,46.7803],[25.2611,46.7498],[25.259,46.7276],[25.2949,46.688],[25.2369,46.6694],[25.2323,46.634],[25.2184,46.6193],[25.1946,46.6275],[25.1511,46.5772],[25.1042,46.5823],[25.0224,46.5411],[24.9832,46.4956],[25.0092,46.495],[25.0222,46.4698],[24.9469,46.4433],[24.9357,46.4209],[24.9796,46.3849],[24.8761,46.3821],[24.8853,46.364],[24.8537,46.3479],[24.8781,46.3252],[24.8619,46.3085],[24.9297,46.2709],[24.9328,46.2464],[25.0697,46.2449],[25.1064,46.2305],[25.1351,46.1831],[25.243,46.1414],[25.2606,46.1511],[25.2586,46.1904],[25.2732,46.17],[25.3327,46.1778],[25.3735,46.1356],[25.45,46.1245],[25.4612,46.1022],[25.4789,46.1456],[25.509,46.1616],[25.5082,46.1882],[25.7,46.2767],[25.726,46.2746],[25.7271,46.2503],[25.8584,46.1191],[26.0195,46.128],[26.0572,46.1597],[26.1309,46.1723],[26.1718,46.16],[26.2193,46.206],[26.2616,46.2156],[26.2533,46.2767],[26.2916,46.3357],[26.1567,46.3148],[26.1649,46.3849],[26.0469,46.4166],[25.9952,46.4068],[26.0031,46.4252],[25.987,46.4388],[26.0172,46.4613],[26.007,46.4825],[26.0745,46.4847],[26.0829,46.5125],[26.0349,46.5445],[26.0334,46.5708],[25.9984,46.6017],[25.9907,46.6228],[26.0201,46.6345],[25.9727,46.6776],[25.9752,46.6973]]]},"properties":{"iso3":"ROU","shapeId":"36066543B14518908529982","regionId":"ROU.22_1","name":"Harghita"}},{"type":"Feature","geometry":{"type":"Polygon","coordinates":[[[22.7487,46.3512],[22.678,46.3214],[22.6493,46.2288],[22.5177,46.2242],[22.4948,46.2434],[22.4386,46.2105],[22.4674,46.1463],[22.405,46.0952],[22.4293,46.0779],[22.4379,46.012],[22.336,45.9936],[22.419,45.9377],[22.4099,45.9065],[22.3685,45.8837],[22.4765,45.8381],[22.4805,45.7868],[22.5341,45.8015],[22.5517,45.7786],[22.4698,45.7315],[22.4672,45.6931],[22.4265,45.6689],[22.5124,45.5953],[22.5827,45.5845],[22.593,45.5606],[22.6364,45.5712],[22.6275,45.5357],[22.6482,45.5416],[22.6924,45.4895],[22.7129,45.4158],[22.6566,45.3713],[22.6992,45.3286],[22.6769,45.2816],[22.6862,45.2588],[22.7765,45.2604],[22.8295,45.2849],[22.8642,45.2612],[22.9168,45.2796],[23.015,45.2543],[23.0858,45.273],[23.0933,45.2912],[23.1575,45.2749],[23.2071,45.277],[23.2466,45.3072],[23.3123,45.2999],[23.3501,45.3375],[23.4883,45.3146],[23.5906,45.3531],[23.6016,45.3827],[23.5761,45.4278],[23.5954,45.4923],[23.4995,45.5797],[23.4303,45.5872],[23.412,45.6332],[23.3702,45.6273],[23.4194,45.6758],[23.366,45.7072],[23.381,45.7593],[23.3238,45.8363],[23.3316,45.8763],[23.3032,45.8939],[23.3377,45.9181],[23.2651,45.9336],[23.235,45.9892],[23.2425,46.0383],[23.1844,46.0271],[23.1018,46.0461],[23.0839,46.0708],[23.0978,46.0929],[23.0644,46.1091],[23.055,46.1402],[23.0986,46.1396],[23.0957,46.1822],[23.0505,46.2138],[22.9818,46.2178],[22.9332,46.3266],[22.8118,46.3256],[22.7487,46.3512]]]},"properties":{"iso3":"ROU","shapeId":"36066543B15225072959052","regionId":"ROU.23_1","name":"Hunedoara"}},{"type":"Feature","geometry":{"type":"Polygon","coordinates":[[[27.2035,44.7871],[27.1546,44.7857],[27.1458,44.7613],[27.1937,44.7523],[27.1838,44.7343],[27.134,44.7356],[27.0979,44.7448],[27.111,44.782],[27.0079,44.8244],[26.9734,44.7884],[26.8784,44.8203],[26.8104,44.7952],[26.7764,44.8151],[26.6309,44.8136],[26.6056,44.857],[26.5253,44.8269],[26.4936,44.7909],[26.4527,44.8109],[26.3852,44.7617],[26.3375,44.7933],[26.3019,44.7689],[26.3741,44.7204],[26.36,44.6879],[26.3297,44.6787],[26.3653,44.6452],[26.3548,44.6356],[26.4013,44.6107],[26.3372,44.5474],[26.3634,44.5274],[26.4007,44.5334],[26.4016,44.5145],[26.4715,44.5452],[26.4363,44.5493],[26.4766,44.5799],[26.5628,44.5265],[26.5991,44.523],[26.5945,44.511],[26.6211,44.543],[26.6449,44.5361],[26.665,44.5955],[26.6839,44.5911],[26.6787,44.5628],[26.7261,44.559],[26.7226,44.5377],[26.7869,44.5418],[26.7702,44.5179],[26.7962,44.5112],[26.8299,44.5278],[26.8443,44.5156],[27.0034,44.529],[27.0034,44.5087],[27.0914,44.5085],[27.0915,44.4851],[27.1355,44.4829],[27.1396,44.5011],[27.2062,44.4837],[27.2058,44.5157],[27.263,44.4891],[27.2678,44.5063],[27.3457,44.486],[27.3522,44.5172],[27.3884,44.4962],[27.5023,44.4936],[27.5184,44.4971],[27.5252,44.5438],[27.5588,44.561],[27.5719,44.5591],[27.5701,44.4678],[27.639,44.4707],[27.6543,44.4209],[27.7312,44.4192],[27.77,44.3947],[27.7456,44.3819],[27.7486,44.3618],[27.8133,44.3341],[27.855,44.3801],[28.0186,44.34],[28.0426,44.384],[28.1073,44.4364],[28.0882,44.4904],[28.053,44.5089],[28.0165,44.5649],[28.0302,44.6269],[27.9583,44.6802],[27.8805,44.7089],[27.8792,44.7693],[27.8267,44.7824],[27.8265,44.82],[27.7861,44.8199],[27.7735,44.8029],[27.7417,44.8162],[27.7254,44.7939],[27.7442,44.7792],[27.7218,44.765],[27.5286,44.7887],[27.5268,44.774],[27.4781,44.7752],[27.4366,44.7989],[27.3821,44.7744],[27.3417,44.8023],[27.3096,44.7747],[27.2881,44.7853],[27.2574,44.7497],[27.2035,44.7871]]]},"properties":{"iso3":"ROU","shapeId":"36066543B9514402375092","regionId":"ROU.25_1","name":"Ialomița"}},{"type":"Feature","geometry":{"type":"Polygon","coordinates":[[[26.701,47.4716],[26.6804,47.4398],[26.7033,47.4088],[26.6442,47.399],[26.679,47.3753],[26.661,47.3699],[26.6832,47.3665],[26.6735,47.3586],[26.6094,47.3554],[26.5274,47.4046],[26.4934,47.3924],[26.5088,47.3631],[26.4971,47.3499],[26.5745,47.3065],[26.5078,47.2717],[26.6137,47.1913],[26.6002,47.1545],[26.6366,47.0925],[26.6828,47.1125],[26.7254,47.0851],[26.7595,47.0979],[26.8125,47.0675],[26.8201,47.0419],[26.8781,47.0576],[26.9025,47.028],[26.9617,47.0458],[26.9711,47.0772],[27.0227,47.0335],[27.0604,47.0849],[27.1561,47.0826],[27.183,47.0615],[27.1864,47.03],[27.2406,47.0118],[27.2434,46.9926],[27.2163,46.9742],[27.1803,46.9889],[27.122,46.9506],[27.2264,46.8681],[27.3219,46.8642],[27.3981,46.8936],[27.4245,46.8625],[27.4598,46.8624],[27.5332,46.8822],[27.5199,46.9145],[27.5319,46.9159],[27.5682,46.8775],[27.5912,46.8789],[27.644,46.8968],[27.6075,46.9462],[27.621,46.9917],[27.7329,46.9222],[27.7697,46.8727],[27.7917,46.8743],[27.7696,46.9551],[27.8113,46.953],[27.8149,46.8819],[27.797,46.8602],[27.8702,46.8594],[27.8902,46.8207],[27.9438,46.8225],[27.9283,46.8664],[28.0147,46.8338],[28.0536,46.8516],[28.1145,46.8379],[28.1266,46.8529],[28.0983,46.8703],[28.1186,46.8778],[28.111,46.8954],[28.0828,46.903],[28.1127,46.9216],[28.0814,46.9373],[28.0969,46.9422],[28.0784,46.9629],[28.096,46.9789],[28.0326,47.0111],[28.0481,47.0249],[27.9588,47.0419],[27.9448,47.0502],[27.9584,47.0576],[27.8979,47.0735],[27.8747,47.1079],[27.8283,47.119],[27.8504,47.1248],[27.8425,47.1355],[27.7821,47.1419],[27.8109,47.1633],[27.7962,47.171],[27.8034,47.1897],[27.7455,47.2425],[27.758,47.2577],[27.7322,47.2929],[27.6859,47.2847],[27.6783,47.3098],[27.646,47.2996],[27.6219,47.326],[27.5816,47.3276],[27.6153,47.3397],[27.5948,47.3477],[27.6006,47.3682],[27.5683,47.3755],[27.5841,47.4087],[27.553,47.4331],[27.5725,47.464],[27.5378,47.4889],[27.5153,47.4739],[27.5156,47.4903],[27.4744,47.4855],[27.4542,47.508],[27.4672,47.5268],[27.4512,47.5221],[27.4567,47.5362],[27.4181,47.5657],[27.4282,47.5827],[27.2636,47.5712],[27.2466,47.5565],[27.2591,47.5291],[27.223,47.5128],[27.1,47.5479],[27.0723,47.5127],[27.0822,47.4643],[27.0491,47.4662],[27.0419,47.4382],[26.9774,47.4962],[26.7169,47.5153],[26.6975,47.4928],[26.7268,47.4729],[26.701,47.4716]]]},"properties":{"iso3":"ROU","shapeId":"36066543B68152190067022","regionId":"ROU.24_1","name":"Iași"}},{"type":"Feature","geometry":{"type":"Polygon","coordinates":[[[26.4156,44.5214],[26.3372,44.5474],[26.4011,44.6122],[26.3548,44.6356],[26.3653,44.6452],[26.3297,44.6787],[26.36,44.6879],[26.3741,44.7204],[26.3019,44.7689],[26.2738,44.7689],[26.248,44.7379],[26.1019,44.767],[26.0888,44.7603],[26.1008,44.7374],[25.9611,44.7485],[25.9887,44.6943],[25.9581,44.6839],[25.9852,44.6733],[25.9392,44.6459],[25.9919,44.6122],[25.905,44.5633],[25.8767,44.5728],[25.8874,44.559],[25.8741,44.5534],[25.9207,44.5165],[25.8957,44.4854],[25.9153,44.4768],[25.8999,44.4526],[25.8612,44.4797],[25.8493,44.4681],[25.8652,44.4434],[25.847,44.4314],[25.8691,44.419],[25.8237,44.3984],[25.857,44.3902],[25.8614,44.3599],[25.8895,44.3579],[25.9087,44.333],[25.9937,44.3171],[25.9747,44.2694],[26.01,44.3011],[26.1651,44.2155],[26.1731,44.2506],[26.19,44.2415],[26.2051,44.2689],[26.2598,44.2949],[26.2759,44.3172],[26.2525,44.33],[26.3311,44.3718],[26.2601,44.4092],[26.3019,44.4133],[26.3264,44.3847],[26.3478,44.4109],[26.4635,44.4537],[26.3953,44.4572],[26.3606,44.4861],[26.4156,44.5214]],[[26.0583,44.5321],[26.1044,44.5394],[26.1148,44.4872],[26.1835,44.4792],[26.1564,44.4561],[26.2259,44.4323],[26.2124,44.3951],[26.1619,44.3982],[26.1425,44.3697],[26.1522,44.3569],[26.1337,44.3494],[25.976,44.4063],[25.9667,44.4407],[26.0198,44.4484],[25.9761,44.4658],[25.9833,44.498],[26.0053,44.4928],[26.0239,44.5257],[26.0583,44.5321]]]},"properties":{"iso3":"ROU","shapeId":"36066543B58098055223766","regionId":"ROU.26_1","name":"Ilfov"}},{"type":"Feature","geometry":{"type":"Polygon","coordinates":[[[24.9608,47.5969],[24.9586,47.6152],[25.0555,47.6544],[24.9523,47.7055],[24.9471,47.7291],[24.8831,47.7244],[24.8782,47.7526],[24.8363,47.7797],[24.8277,47.8205],[24.7058,47.8401],[24.6707,47.8659],[24.6739,47.8964],[24.6284,47.9486],[24.5974,47.946],[24.5755,47.9674],[24.5077,47.9516],[24.4359,47.9704],[24.394,47.9543],[24.3813,47.9264],[24.2282,47.8964],[24.1964,47.9161],[24.1114,47.915],[24.0986,47.9365],[24.009,47.9672],[23.8641,47.9317],[23.8196,47.9805],[23.7718,47.9949],[23.6647,47.9837],[23.5291,48.0198],[23.4938,47.9677],[23.5647,47.9433],[23.6387,47.8623],[23.5743,47.8364],[23.5601,47.8042],[23.4512,47.7618],[23.3903,47.7797],[23.3115,47.7748],[23.2618,47.7973],[23.2248,47.7664],[23.2432,47.7248],[23.3419,47.7137],[23.3878,47.6843],[23.3532,47.6721],[23.34,47.6438],[23.2876,47.6302],[23.2865,47.5812],[23.2602,47.5808],[23.2576,47.5504],[23.2126,47.5634],[23.1434,47.6239],[23.1232,47.6158],[23.0529,47.5551],[23.0464,47.4877],[22.9632,47.4865],[22.9835,47.4606],[22.9641,47.4394],[23.0438,47.4121],[23.061,47.4412],[23.1593,47.4379],[23.1837,47.4591],[23.2206,47.4332],[23.3568,47.4172],[23.3775,47.3881],[23.5114,47.362],[23.5789,47.3622],[23.6453,47.3929],[23.6808,47.355],[23.7122,47.3524],[23.7105,47.3309],[23.7453,47.3206],[23.7645,47.3369],[23.8414,47.34],[23.8468,47.3723],[23.8699,47.3802],[23.898,47.3543],[24.0328,47.3622],[24.1242,47.4378],[24.1267,47.4993],[24.1414,47.4874],[24.1669,47.5057],[24.2404,47.5001],[24.3031,47.5791],[24.3431,47.5659],[24.3866,47.6083],[24.5656,47.5627],[24.6319,47.5758],[24.6596,47.554],[24.726,47.5762],[24.8072,47.5667],[24.8279,47.5966],[24.9608,47.5969]]]},"properties":{"iso3":"ROU","shapeId":"36066543B51562338382257","regionId":"ROU.27_1","name":"Maramureș"}},{"type":"Feature","geometry":{"type":"Polygon","coordinates":[[[22.0161,44.5992],[22.0379,44.5412],[22.1405,44.4704],[22.1816,44.4811],[22.3085,44.6587],[22.3808,44.6757],[22.4308,44.7102],[22.4834,44.7082],[22.6174,44.6159],[22.7084,44.6024],[22.7631,44.54],[22.6961,44.5165],[22.6208,44.5517],[22.5823,44.5494],[22.5482,44.4817],[22.4657,44.4797],[22.4627,44.4478],[22.5017,44.4172],[22.5236,44.3396],[22.5579,44.3091],[22.6788,44.2781],[22.6757,44.2147],[22.9664,44.0985],[23.0053,44.1581],[23.1099,44.1502],[23.1179,44.1895],[23.0951,44.1992],[23.1121,44.2174],[23.0942,44.2227],[23.0936,44.2621],[23.1309,44.316],[23.1763,44.3245],[23.189,44.3671],[23.2484,44.3849],[23.1972,44.4138],[23.2232,44.4392],[23.196,44.4586],[23.2795,44.5015],[23.2838,44.516],[23.2539,44.5299],[23.3174,44.5397],[23.3368,44.5237],[23.3785,44.5427],[23.4156,44.527],[23.455,44.5696],[23.4071,44.5847],[23.4124,44.6107],[23.3848,44.6202],[23.3938,44.6295],[23.3429,44.6337],[23.288,44.6767],[23.1855,44.6788],[23.1893,44.6957],[23.117,44.6826],[23.0626,44.7116],[23.0624,44.7293],[23.0047,44.745],[22.9892,44.7832],[22.9416,44.7831],[22.9438,44.8122],[22.9087,44.8216],[22.8896,44.8527],[22.8699,44.9615],[22.8977,44.9651],[22.9,44.9918],[22.8559,44.9897],[22.8265,45.0321],[22.7668,45.0503],[22.7459,45.0826],[22.7045,45.0687],[22.6835,45.1069],[22.6564,45.1077],[22.4918,44.974],[22.5161,44.9553],[22.4854,44.9363],[22.4868,44.8833],[22.4237,44.8005],[22.4187,44.7563],[22.3632,44.7451],[22.3416,44.7741],[22.2681,44.7825],[22.2068,44.8175],[22.2042,44.7614],[22.1561,44.7366],[22.1469,44.7008],[22.1385,44.66],[22.1773,44.6398],[22.156,44.5923],[22.1173,44.5919],[22.0795,44.6217],[22.0161,44.5992]]]},"properties":{"iso3":"ROU","shapeId":"36066543B11233778748537","regionId":"ROU.28_1","name":"Mehedinți"}},{"type":"Feature","geometry":{"type":"Polygon","coordinates":[[[26.0583,44.5321],[26.0239,44.5257],[26.0053,44.4928],[25.9833,44.498],[25.9761,44.4658],[26.0198,44.4484],[25.9667,44.4407],[25.976,44.4063],[26.1337,44.3494],[26.1522,44.3569],[26.1425,44.3697],[26.1619,44.3982],[26.2124,44.3951],[26.2259,44.4323],[26.1564,44.4561],[26.1835,44.4792],[26.1148,44.4872],[26.1044,44.5394],[26.0583,44.5321]]]},"properties":{"iso3":"ROU","shapeId":"36066543B11747992440272","regionId":null,"name":"BUCURESTI"}},{"type":"Feature","geometry":{"type":"Polygon","coordinates":[[[24.2314,46.2596],[24.2643,46.2534],[24.2876,46.2841],[24.3122,46.2522],[24.379,46.2437],[24.42,46.2653],[24.489,46.2588],[24.4975,46.2425],[24.5627,46.2577],[24.5697,46.2746],[24.6237,46.2514],[24.6657,46.2811],[24.6765,46.25],[24.6693,46.2284],[24.6505,46.232],[24.6837,46.1973],[24.6727,46.1035],[24.7163,46.0763],[24.863,46.1109],[24.9465,46.0791],[24.9581,46.1122],[25.0148,46.1463],[25.1258,46.1423],[25.173,46.1672],[25.0697,46.2449],[24.9328,46.2464],[24.9297,46.2709],[24.8681,46.299],[24.8781,46.3252],[24.8537,46.3479],[24.8853,46.364],[24.8787,46.3837],[24.9796,46.3849],[24.9357,46.4209],[24.9469,46.4433],[25.0222,46.4698],[25.0092,46.495],[24.9832,46.4956],[25.0224,46.5411],[25.1042,46.5823],[25.1511,46.5772],[25.1946,46.6275],[25.2184,46.6193],[25.2323,46.634],[25.2369,46.6694],[25.2949,46.688],[25.259,46.7276],[25.2611,46.7498],[25.3185,46.7729],[25.2856,46.7973],[25.2836,46.8347],[25.2513,46.8412],[25.2896,46.9828],[25.2696,47.0312],[25.2311,47.0615],[25.2467,47.0979],[25.1731,47.1306],[25.144,47.1132],[25.0634,47.1365],[25.0135,47.1112],[24.9533,47.1205],[24.932,47.096],[24.8699,47.105],[24.7926,47.0491],[24.7404,46.9815],[24.7218,46.9324],[24.7545,46.9099],[24.6585,46.9095],[24.6247,46.9544],[24.5947,46.9455],[24.5846,46.9151],[24.5213,46.8986],[24.5378,46.8675],[24.527,46.8543],[24.4582,46.8201],[24.4494,46.7891],[24.4722,46.7827],[24.4521,46.7657],[24.4155,46.774],[24.3842,46.7472],[24.301,46.7532],[24.1795,46.8048],[24.1806,46.7872],[24.1175,46.7738],[24.1261,46.7465],[24.0745,46.7454],[24.0665,46.7334],[24.0889,46.7111],[24.1244,46.7001],[24.1025,46.6617],[24.0202,46.6279],[24.0691,46.606],[24.0453,46.545],[24.0192,46.5313],[23.9869,46.5423],[23.9591,46.5155],[23.9751,46.5046],[23.9711,46.4591],[24.0047,46.4422],[23.9853,46.4309],[24.0395,46.4575],[24.0171,46.4338],[24.0357,46.4334],[24.0353,46.4066],[23.9895,46.381],[24.0279,46.3728],[24.0189,46.3607],[24.058,46.3392],[24.1432,46.3317],[24.1637,46.2724],[24.1942,46.283],[24.2314,46.2596]]]},"properties":{"iso3":"ROU","shapeId":"36066543B31003852704017","regionId":"ROU.29_1","name":"Mureș"}},{"type":"Feature","geometry":{"type":"Polygon","coordinates":[[[27.2062,46.7699],[27.2339,46.7774],[27.2133,46.7896],[27.2194,46.8486],[27.1883,46.8714],[27.2013,46.8945],[27.122,46.9506],[27.1803,46.9889],[27.2163,46.9742],[27.2434,46.9926],[27.2406,47.0118],[27.1769,47.0402],[27.1731,47.072],[27.0604,47.0849],[27.0227,47.0335],[26.9711,47.0772],[26.9617,47.0458],[26.9025,47.028],[26.8781,47.0576],[26.8201,47.0419],[26.8125,47.0675],[26.7595,47.0979],[26.7254,47.0851],[26.6828,47.1125],[26.6366,47.0925],[26.6002,47.1545],[26.6137,47.1913],[26.4055,47.3403],[26.2672,47.2819],[26.1859,47.3073],[26.0563,47.2745],[25.9786,47.2887],[25.9236,47.2591],[25.8348,47.3121],[25.773,47.3209],[25.8128,47.2594],[25.729,47.2171],[25.7203,47.1746],[25.6999,47.1708],[25.6595,47.0955],[25.7381,47.0711],[25.8014,46.9667],[25.827,46.9738],[25.8621,46.9235],[25.8033,46.9278],[25.7641,46.8845],[25.7813,46.8628],[25.7626,46.8419],[25.8052,46.8406],[25.7798,46.8251],[25.8072,46.805],[25.795,46.7193],[25.8673,46.6496],[25.9083,46.6541],[25.8914,46.6991],[26.0142,46.6946],[26.054,46.7165],[26.0717,46.7079],[26.0814,46.6562],[26.1402,46.6607],[26.1593,46.6417],[26.2162,46.656],[26.2176,46.6807],[26.2659,46.7031],[26.301,46.6535],[26.3903,46.6512],[26.4356,46.6878],[26.4722,46.6765],[26.5147,46.6947],[26.5703,46.6786],[26.6082,46.7129],[26.676,46.736],[26.6759,46.7677],[26.7429,46.7683],[26.7312,46.7492],[26.7548,46.7563],[26.7513,46.7379],[26.7999,46.722],[26.8419,46.7513],[26.8215,46.7731],[26.8495,46.78],[26.8495,46.8047],[26.8854,46.8286],[26.9094,46.8272],[26.9148,46.811],[26.8932,46.7977],[26.9224,46.7752],[26.9355,46.7847],[26.9393,46.7519],[27.0985,46.7695],[27.1153,46.7486],[27.1463,46.7535],[27.1507,46.7312],[27.2062,46.7699]]]},"properties":{"iso3":"ROU","shapeId":"36066543B92634150337313","regionId":"ROU.30_1","name":"Neamț"}},{"type":"Feature","geometry":{"type":"Polygon","coordinates":[[[24.4382,44.8456],[24.4163,44.8554],[24.4232,44.8913],[24.3889,44.9015],[24.368,44.8716],[24.333,44.8696],[24.3268,44.7902],[24.2746,44.7688],[24.3252,44.561],[24.2878,44.5662],[24.281,44.602],[24.2645,44.6018],[24.2587,44.549],[24.1413,44.5576],[24.0778,44.4902],[23.9893,44.5383],[23.8853,44.5121],[23.9041,44.499],[23.8834,44.4808],[23.9089,44.4688],[23.8859,44.4613],[23.8906,44.4127],[23.901,44.4251],[23.9685,44.4104],[23.9581,44.3817],[23.9845,44.3731],[24.0288,44.385],[24.0508,44.3401],[24.1087,44.3007],[24.1119,44.2668],[24.2296,44.2147],[24.2,44.1688],[24.2346,44.1711],[24.2124,44.11],[24.2275,44.1096],[24.2228,44.0695],[24.1796,44.0685],[24.1737,44.0064],[24.2647,43.9987],[24.2517,43.957],[24.2324,43.9614],[24.2233,43.9413],[24.2483,43.9302],[24.2268,43.8515],[24.1993,43.8581],[24.1921,43.8104],[24.1555,43.8139],[24.129,43.7747],[24.1125,43.6996],[24.1587,43.6856],[24.3486,43.6974],[24.4086,43.7369],[24.5129,43.7649],[24.6571,43.7236],[24.6564,43.7547],[24.7477,43.7922],[24.7365,43.8082],[24.7581,43.8175],[24.6891,43.8211],[24.7236,43.8359],[24.6943,43.8699],[24.6662,43.8692],[24.6755,43.8982],[24.6238,43.9247],[24.6476,43.94],[24.6322,43.9615],[24.5918,43.9581],[24.6132,44.0141],[24.7203,44.0381],[24.7109,44.0591],[24.8595,44.0938],[24.7933,44.1912],[24.8372,44.2263],[24.8178,44.2332],[24.8213,44.2903],[24.8474,44.319],[24.817,44.3611],[24.8865,44.3798],[24.8805,44.3942],[24.7446,44.3953],[24.7591,44.4645],[24.734,44.4652],[24.7425,44.5382],[24.7105,44.5823],[24.7167,44.6261],[24.6856,44.7],[24.7255,44.7207],[24.6834,44.7378],[24.6296,44.7288],[24.5899,44.7498],[24.5886,44.7976],[24.5565,44.8311],[24.5407,44.891],[24.5241,44.8945],[24.5095,44.8456],[24.4802,44.8217],[24.4453,44.8108],[24.4215,44.8271],[24.4382,44.8456]]]},"properties":{"iso3":"ROU","shapeId":"36066543B87560711020488","regionId":"ROU.31_1","name":"Olt"}},{"type":"Feature","geometry":{"type":"Polygon","coordinates":[[[25.4514,45.4408],[25.4843,45.3949],[25.4729,45.3277],[25.5225,45.3086],[25.5544,45.2702],[25.5124,45.2232],[25.5342,45.2158],[25.5311,45.1908],[25.5578,45.1927],[25.605,45.1242],[25.7017,45.0452],[25.6755,45.0096],[25.6879,44.9474],[25.7876,44.9528],[25.8211,44.9129],[25.8019,44.8522],[25.7764,44.8422],[25.7818,44.8216],[25.8418,44.8099],[25.8316,44.8251],[25.8743,44.8313],[25.9248,44.7627],[25.9732,44.7366],[26.0498,44.734],[26.0711,44.7511],[26.1008,44.7374],[26.0888,44.7603],[26.1019,44.767],[26.248,44.7379],[26.3219,44.7909],[26.3739,44.7611],[26.4527,44.8109],[26.4936,44.7909],[26.5253,44.8269],[26.61,44.8591],[26.5536,44.9152],[26.5361,44.9102],[26.5306,44.937],[26.5999,44.9557],[26.5295,45.0149],[26.492,45.0053],[26.4688,45.0633],[26.4431,45.0759],[26.4561,45.0817],[26.4495,45.1261],[26.4695,45.1382],[26.4604,45.1981],[26.3757,45.1583],[26.3526,45.1645],[26.3568,45.2142],[26.2496,45.1992],[26.2234,45.2738],[26.1852,45.2787],[26.2336,45.3147],[26.1602,45.363],[26.1493,45.457],[26.0722,45.5064],[26.0431,45.4772],[25.9957,45.5135],[25.9219,45.5221],[25.8654,45.4217],[25.8236,45.4314],[25.7863,45.4843],[25.7264,45.4654],[25.681,45.5006],[25.6299,45.4961],[25.5996,45.4625],[25.5137,45.4697],[25.4514,45.4408]]]},"properties":{"iso3":"ROU","shapeId":"36066543B96905451171357","regionId":"ROU.32_1","name":"Prahova"}},{"type":"Feature","geometry":{"type":"Polygon","coordinates":[[[22.7288,47.0072],[22.795,46.9771],[22.8348,46.9952],[22.879,46.9889],[22.8967,46.9437],[22.9315,46.9185],[23.0069,46.9076],[23.0119,46.8878],[23.0335,46.9015],[23.036,46.8818],[23.0655,46.9046],[23.0922,46.8903],[23.0834,46.8673],[23.1045,46.8534],[23.1753,46.8751],[23.1628,46.8793],[23.1987,46.8695],[23.2226,46.8926],[23.2027,46.9226],[23.2296,46.9348],[23.2161,46.9395],[23.2283,46.9637],[23.2821,46.8979],[23.3386,46.9084],[23.3816,46.9463],[23.3709,46.9603],[23.385,46.9773],[23.4117,46.9817],[23.3984,46.9935],[23.4436,46.992],[23.4856,47.0292],[23.4272,47.0898],[23.4852,47.0905],[23.4789,47.1077],[23.5041,47.1174],[23.4978,47.155],[23.5439,47.1585],[23.5615,47.1789],[23.6158,47.1699],[23.6529,47.2347],[23.7206,47.2548],[23.7527,47.2419],[23.7622,47.2836],[23.8146,47.2513],[23.7988,47.2815],[23.8414,47.34],[23.7277,47.321],[23.7016,47.3408],[23.7122,47.3524],[23.6808,47.355],[23.6453,47.3929],[23.5789,47.3622],[23.503,47.3629],[23.3775,47.3881],[23.3568,47.4172],[23.2206,47.4332],[23.1837,47.4591],[23.1593,47.4379],[23.1035,47.4411],[23.1205,47.3956],[23.0516,47.3502],[23.006,47.3688],[22.9596,47.3586],[22.9158,47.4137],[22.8478,47.4222],[22.8108,47.3999],[22.768,47.4205],[22.6455,47.3742],[22.635,47.3355],[22.5528,47.3028],[22.5467,47.269],[22.566,47.2514],[22.5167,47.2327],[22.528,47.2198],[22.4929,47.1869],[22.5666,47.1251],[22.5147,47.1092],[22.5928,47.0639],[22.6865,47.0512],[22.7013,47.0178],[22.7288,47.0072]]]},"properties":{"iso3":"ROU","shapeId":"36066543B8882897274660","regionId":"ROU.33_1","name":"Sălaj"}},{"type":"Feature","geometry":{"type":"Polygon","coordinates":[[[22.6128,47.3347],[22.635,47.3355],[22.6455,47.3742],[22.771,47.421],[22.8108,47.3999],[22.8478,47.4222],[22.9158,47.4137],[22.9361,47.3749],[22.9767,47.352],[23.0029,47.3689],[23.0516,47.3502],[23.0872,47.3634],[23.1041,47.3735],[23.096,47.3907],[23.1205,47.3956],[23.1109,47.4401],[23.061,47.4412],[23.0324,47.4144],[23.0169,47.433],[22.9641,47.4394],[22.9835,47.4606],[22.9632,47.4865],[23.0464,47.4877],[23.0529,47.5551],[23.1408,47.6242],[23.2126,47.5634],[23.2576,47.5504],[23.2602,47.5808],[23.2865,47.5812],[23.2876,47.6302],[23.34,47.6438],[23.3532,47.6721],[23.3878,47.6843],[23.3419,47.7137],[23.2432,47.7248],[23.2248,47.7664],[23.2814,47.7973],[23.3115,47.7748],[23.3903,47.7797],[23.4512,47.7618],[23.5601,47.8042],[23.5743,47.8364],[23.6279,47.8534],[23.6359,47.8755],[23.588,47.9006],[23.5647,47.9433],[23.2879,48.0468],[23.2767,48.0602],[23.2921,48.0731],[23.2679,48.1002],[23.1892,48.0977],[23.1666,48.1201],[23.114,48.0862],[23.0912,48.0056],[23.0136,47.9905],[22.9269,48.0191],[22.948,47.9673],[22.8871,47.9516],[22.847,47.9081],[22.7582,47.8935],[22.7769,47.8434],[22.7117,47.8349],[22.6802,47.7876],[22.5495,47.7725],[22.4814,47.8109],[22.4479,47.8031],[22.4303,47.741],[22.3243,47.7668],[22.3175,47.7432],[22.2646,47.7312],[22.2591,47.698],[22.226,47.688],[22.1808,47.6001],[22.2613,47.5644],[22.2561,47.5389],[22.2896,47.5405],[22.2883,47.5065],[22.341,47.4908],[22.3582,47.4293],[22.5294,47.4186],[22.5304,47.3993],[22.566,47.3922],[22.57,47.3569],[22.6128,47.3347]]]},"properties":{"iso3":"ROU","shapeId":"36066543B37248446823778","regionId":"ROU.34_1","name":"Satu Mare"}},{"type":"Feature","geometry":{"type":"Polygon","coordinates":[[[23.7035,45.4968],[23.8578,45.535],[24.0216,45.531],[24.1187,45.5088],[24.205,45.5236],[24.2271,45.5471],[24.2575,45.5431],[24.3343,45.5819],[24.4465,45.5909],[24.4816,45.5725],[24.6262,45.6039],[24.6709,45.5946],[24.6849,45.6041],[24.6693,45.6398],[24.6816,45.7095],[24.6393,45.7951],[24.688,45.8364],[24.7135,45.8161],[24.7183,45.8409],[24.7752,45.8504],[24.7719,45.8681],[24.7161,45.8945],[24.7028,45.9402],[24.7487,45.935],[24.7688,45.9757],[24.8355,45.9778],[24.8212,46.0101],[24.8655,46.0097],[24.8895,46.0397],[24.965,46.064],[24.8854,46.1098],[24.6956,46.0831],[24.6686,46.1377],[24.6837,46.1973],[24.6505,46.232],[24.6693,46.2284],[24.6765,46.25],[24.6657,46.2811],[24.6237,46.2514],[24.5697,46.2746],[24.5627,46.2577],[24.4975,46.2425],[24.489,46.2588],[24.42,46.2653],[24.379,46.2437],[24.3122,46.2522],[24.2782,46.2808],[24.2643,46.2534],[24.2277,46.2552],[24.2517,46.2404],[24.1897,46.2239],[24.1881,46.183],[24.2133,46.1542],[24.1189,46.1348],[24.0583,46.0845],[24.0419,46.0962],[24.0062,46.0002],[23.9796,46.0382],[23.8913,46.0447],[23.8457,46.0078],[23.8701,45.9487],[23.85,45.959],[23.8164,45.9232],[23.7332,45.9144],[23.7304,45.8972],[23.7734,45.8807],[23.7269,45.8482],[23.7345,45.8307],[23.6994,45.8287],[23.6875,45.8026],[23.6166,45.802],[23.6643,45.7591],[23.6221,45.7503],[23.5888,45.7026],[23.6109,45.6876],[23.5928,45.6736],[23.6448,45.6399],[23.6322,45.6216],[23.6526,45.6012],[23.6179,45.5601],[23.6651,45.4934],[23.7035,45.4968]]]},"properties":{"iso3":"ROU","shapeId":"36066543B78296944586190","regionId":"ROU.35_1","name":"Sibiu"}},{"type":"Feature","geometry":{"type":"Polygon","coordinates":[[[25.0634,47.1365],[25.144,47.1132],[25.1731,47.1306],[25.2515,47.0978],[25.2959,47.1152],[25.3054,47.1651],[25.4255,47.184],[25.4576,47.1446],[25.5303,47.1105],[25.5385,47.0828],[25.6521,47.0872],[25.6999,47.1708],[25.7203,47.1746],[25.729,47.2171],[25.8128,47.2594],[25.7639,47.3176],[25.8348,47.3121],[25.9236,47.2591],[25.9786,47.2887],[26.0563,47.2745],[26.1859,47.3073],[26.2672,47.2819],[26.4055,47.3403],[26.5078,47.2717],[26.5745,47.3065],[26.4971,47.3499],[26.5088,47.3631],[26.4934,47.3924],[26.5274,47.4046],[26.6094,47.3554],[26.6735,47.3586],[26.6832,47.3665],[26.661,47.3699],[26.679,47.3753],[26.6442,47.399],[26.7033,47.4088],[26.6804,47.4398],[26.701,47.4716],[26.591,47.4597],[26.5891,47.4906],[26.5504,47.5117],[26.6039,47.5327],[26.578,47.5353],[26.5417,47.5826],[26.5456,47.6434],[26.4967,47.6587],[26.4676,47.7159],[26.4323,47.7263],[26.4398,47.743],[26.3961,47.7343],[26.4064,47.784],[26.3697,47.774],[26.3325,47.7995],[26.2935,47.8631],[26.2289,47.9001],[26.1994,47.8844],[26.1843,47.9195],[26.126,47.9326],[26.1197,47.9723],[26.0612,47.988],[25.8376,47.9671],[25.7748,47.9395],[25.6255,47.9487],[25.3109,47.9143],[25.23,47.8929],[25.1676,47.7922],[25.1156,47.7548],[25.0538,47.7464],[25.0401,47.7254],[24.9471,47.7291],[24.9523,47.7055],[25.0564,47.6475],[24.9586,47.6152],[24.9608,47.5969],[25.0519,47.5604],[25.0935,47.5123],[25.04,47.4829],[25.0661,47.4504],[25.0908,47.4491],[25.0526,47.4313],[25.0583,47.4165],[25.0264,47.436],[24.9829,47.4239],[25.0694,47.3702],[25.0794,47.3147],[25.028,47.2867],[25.0797,47.2583],[25.0445,47.2155],[25.0634,47.1365]]]},"properties":{"iso3":"ROU","shapeId":"36066543B72359943930714","regionId":"ROU.36_1","name":"Suceava"}},{"type":"Feature","geometry":{"type":"Polygon","coordinates":[[[24.884,44.3826],[24.8825,44.3683],[24.817,44.3611],[24.8474,44.319],[24.8213,44.2903],[24.8178,44.2332],[24.8372,44.2263],[24.7933,44.1912],[24.8595,44.0938],[24.7109,44.0591],[24.7203,44.0381],[24.6132,44.0141],[24.6096,43.9743],[24.5912,43.9616],[24.6322,43.9615],[24.6476,43.94],[24.6238,43.9247],[24.6755,43.8982],[24.6662,43.8692],[24.6943,43.8699],[24.7236,43.8359],[24.6891,43.8211],[24.7581,43.8175],[24.7365,43.8082],[24.7477,43.7922],[24.6564,43.7547],[24.6571,43.7236],[24.7343,43.6851],[24.8158,43.7123],[24.9985,43.7273],[25.0583,43.6911],[25.1672,43.6998],[25.2485,43.6838],[25.3901,43.619],[25.5633,43.6449],[25.6813,43.6982],[25.6874,43.7283],[25.6637,43.7178],[25.651,43.75],[25.6679,43.7732],[25.6599,43.8205],[25.6298,43.8205],[25.6297,43.8447],[25.6069,43.8445],[25.6146,43.9038],[25.5844,43.9067],[25.5848,43.9376],[25.6222,43.9414],[25.5912,43.9847],[25.5995,44.0376],[25.6298,44.0525],[25.6145,44.0631],[25.625,44.0859],[25.6571,44.1151],[25.678,44.0896],[25.686,44.1224],[25.7088,44.1021],[25.7094,44.1348],[25.679,44.1266],[25.6768,44.1574],[25.703,44.1605],[25.6553,44.1688],[25.7031,44.252],[25.6677,44.2687],[25.6698,44.2925],[25.6555,44.2965],[25.6505,44.2743],[25.6186,44.2882],[25.6315,44.3069],[25.6167,44.3174],[25.4681,44.3252],[25.4844,44.3774],[25.4255,44.3969],[25.4846,44.4508],[25.4284,44.4737],[25.4427,44.501],[25.395,44.5181],[25.3558,44.4593],[25.2507,44.4034],[25.2029,44.4564],[25.0651,44.3973],[25.0105,44.4108],[24.9616,44.3769],[24.884,44.3826]]]},"properties":{"iso3":"ROU","shapeId":"36066543B97406375074903","regionId":"ROU.37_1","name":"Teleorman"}},{"type":"Feature","geometry":{"type":"Polygon","coordinates":[[[20.7053,46.1609],[20.6344,46.1266],[20.5015,46.1899],[20.4591,46.1428],[20.3685,46.1529],[20.3556,46.1696],[20.262,46.1209],[20.3459,46.0474],[20.3483,45.9996],[20.4054,45.9652],[20.4829,45.9534],[20.5158,45.8921],[20.5693,45.9102],[20.5815,45.8693],[20.6604,45.8291],[20.6506,45.8118],[20.6813,45.7973],[20.7007,45.7505],[20.7741,45.7545],[20.7835,45.7859],[20.8231,45.7751],[20.8027,45.7378],[20.805,45.6572],[20.7657,45.6126],[20.772,45.5828],[20.7953,45.5876],[20.8325,45.5358],[20.7687,45.5002],[20.7711,45.48],[20.8662,45.4652],[20.8809,45.4463],[20.8647,45.4317],[20.9202,45.4172],[20.9313,45.3868],[21.0166,45.3246],[21.0635,45.332],[21.0613,45.316],[21.0965,45.296],[21.1762,45.3252],[21.2028,45.2654],[21.2747,45.2297],[21.3262,45.2396],[21.3601,45.2221],[21.4035,45.2293],[21.4775,45.1936],[21.5154,45.2019],[21.5047,45.2173],[21.5703,45.3015],[21.4525,45.3522],[21.4641,45.3585],[21.4405,45.4071],[21.4888,45.4187],[21.432,45.4552],[21.4334,45.4712],[21.5001,45.4878],[21.5032,45.4713],[21.5713,45.499],[21.5998,45.5711],[21.6745,45.5857],[21.7871,45.533],[21.88,45.5329],[21.889,45.5501],[21.9304,45.5396],[21.9454,45.5055],[22.0341,45.5016],[22.0613,45.5281],[22.1078,45.536],[22.1039,45.5492],[22.0778,45.539],[22.0893,45.5461],[22.0724,45.5657],[22.0472,45.5497],[22.0367,45.587],[22.0738,45.5721],[22.1345,45.5941],[22.1479,45.6161],[22.1497,45.5989],[22.1879,45.6182],[22.269,45.5854],[22.3166,45.6602],[22.4193,45.6638],[22.4672,45.6931],[22.4698,45.7315],[22.5517,45.7786],[22.5341,45.8015],[22.4805,45.7868],[22.4765,45.8381],[22.3685,45.8837],[22.4099,45.9065],[22.419,45.9377],[22.3523,45.9727],[22.3116,45.9663],[22.3109,45.9368],[22.26,45.9344],[22.2484,45.9054],[22.2262,45.9018],[22.2011,45.9224],[22.1353,45.9227],[22.0695,45.9593],[21.9984,45.968],[21.9677,45.9943],[21.9254,45.9847],[21.894,45.9526],[21.8515,45.9472],[21.8198,45.968],[21.8053,45.9211],[21.7698,45.9169],[21.7755,45.9483],[21.7365,45.9899],[21.6924,45.9163],[21.6677,45.9062],[21.6619,45.9354],[21.6301,45.9428],[21.642,45.974],[21.5246,46.0101],[21.5366,46.0329],[21.5158,46.0678],[21.4494,46.0459],[21.4354,46.0594],[21.4496,46.0294],[21.3656,45.9818],[21.2846,46.0201],[21.2377,45.9872],[21.2422,45.9714],[21.1714,45.9992],[21.1102,45.9771],[21.069,46.0396],[20.9409,46.0372],[20.9176,46.0743],[20.8318,46.091],[20.7695,46.1449],[20.7053,46.1609]]]},"properties":{"iso3":"ROU","shapeId":"36066543B49718248736475","regionId":"ROU.38_1","name":"Timiș"}},{"type":"Feature","geometry":{"type":"MultiPolygon","coordinates":[[[[29.5943,44.8202],[29.6106,44.8406],[29.5474,44.7936],[29.4981,44.7896],[29.5324,44.7806],[29.5943,44.8202]]],[[[29.612,44.8408],[29.6182,44.8535],[29.6213,44.8668],[29.6178,44.8776],[29.6113,44.8433],[29.6098,44.8408],[29.612,44.8408]]],[[[28.0734,44.8041],[28.1531,44.8004],[28.1944,44.7542],[28.2398,44.7647],[28.2518,44.7435],[28.2329,44.7088],[28.2737,44.6973],[28.3128,44.7114],[28.3272,44.7074],[28.3146,44.6961],[28.3655,44.6917],[28.3854,44.6805],[28.3867,44.6395],[28.4083,44.6489],[28.3947,44.6337],[28.4216,44.6321],[28.4025,44.6179],[28.4134,44.6128],[28.4477,44.6392],[28.4267,44.6558],[28.4314,44.6808],[28.4697,44.6483],[28.528,44.6328],[28.5359,44.6628],[28.6831,44.6689],[28.675,44.6497],[28.7785,44.655],[28.7893,44.636],[28.8245,44.6322],[28.9145,44.6966],[28.995,44.679],[29.085,44.749],[29.1591,44.78],[29.5535,44.8229],[29.6057,44.8466],[29.6603,45.1075],[29.7153,45.1653],[29.6502,45.1602],[29.6382,45.1765],[29.6377,45.2244],[29.682,45.2058],[29.6511,45.3398],[29.5641,45.4024],[29.4285,45.4429],[29.2425,45.4343],[28.9649,45.332],[28.9426,45.2806],[28.7939,45.3336],[28.7804,45.3232],[28.8014,45.3009],[28.7519,45.2846],[28.7921,45.2428],[28.7066,45.2243],[28.561,45.2496],[28.3499,45.3199],[28.2854,45.3998],[28.2673,45.4535],[28.1966,45.4522],[28.1895,45.4143],[28.081,45.4372],[28.0305,45.4043],[27.9948,45.2867],[28.0595,45.2542],[28.1152,45.2588],[28.1306,45.2338],[28.0914,45.1902],[28.1977,45.1374],[28.1699,45.1227],[28.1755,45.1015],[28.1356,45.1017],[28.1526,45.0371],[28.1284,45.0132],[28.1511,44.9729],[28.1248,44.9221],[28.1423,44.8899],[28.1005,44.8618],[28.0734,44.8041]]]]},"properties":{"iso3":"ROU","shapeId":"36066543B86483735073728","regionId":"ROU.39_1","name":"Tulcea"}},{"type":"Feature","geometry":{"type":"Polygon","coordinates":[[[23.5973,45.4735],[23.5761,45.4278],[23.5923,45.421],[23.6016,45.3827],[23.5858,45.3573],[23.6047,45.3407],[23.6463,45.3503],[23.7229,45.3287],[23.796,45.35],[23.8464,45.3275],[23.7963,45.261],[23.8556,45.1505],[23.8119,45.1254],[23.8285,45.0747],[23.7825,45.0633],[23.7953,45.0234],[23.755,44.9954],[23.7724,44.9494],[23.7535,44.8708],[23.78,44.8624],[23.796,44.8177],[23.7707,44.7816],[23.7882,44.6373],[23.8166,44.6476],[23.8997,44.6255],[23.8809,44.6109],[23.93,44.5283],[24.0263,44.53],[24.0367,44.5052],[24.0778,44.4902],[24.1413,44.5576],[24.2587,44.549],[24.2645,44.6018],[24.281,44.602],[24.2878,44.5662],[24.3252,44.561],[24.2746,44.7688],[24.3268,44.7902],[24.333,44.8696],[24.368,44.8716],[24.3889,44.9015],[24.4232,44.8913],[24.4163,44.8554],[24.4382,44.8456],[24.4627,44.8618],[24.4801,44.8991],[24.4636,44.9134],[24.4995,44.9441],[24.4687,44.9482],[24.509,44.9978],[24.4827,45.0139],[24.5203,45.049],[24.4813,45.0609],[24.5072,45.0851],[24.4875,45.1053],[24.5124,45.1083],[24.5197,45.1347],[24.4979,45.1656],[24.5219,45.1799],[24.4668,45.2317],[24.4922,45.2821],[24.4802,45.2962],[24.4927,45.3232],[24.4725,45.3311],[24.5056,45.3827],[24.481,45.4555],[24.5246,45.4747],[24.5119,45.5175],[24.5405,45.5357],[24.5128,45.5868],[24.4816,45.5725],[24.4465,45.5909],[24.3343,45.5819],[24.2575,45.5431],[24.2271,45.5471],[24.205,45.5236],[24.1187,45.5088],[24.0112,45.5319],[23.805,45.532],[23.7035,45.4968],[23.6535,45.4584],[23.613,45.4561],[23.5973,45.4735]]]},"properties":{"iso3":"ROU","shapeId":"36066543B39156092034573","regionId":"ROU.40_1","name":"Vâlcea"}},{"type":"Feature","geometry":{"type":"Polygon","coordinates":[[[27.4931,46.1592],[27.4847,46.1453],[27.5354,46.0946],[27.5172,46.0854],[27.532,46.0671],[27.516,46.0535],[27.5627,46.0033],[27.6044,46.0193],[27.5999,46.056],[27.6275,46.0613],[27.5871,46.072],[27.611,46.0768],[27.5881,46.1114],[27.6013,46.1224],[27.5911,46.1502],[27.6073,46.1307],[27.7625,46.1281],[27.7864,46.0907],[27.8453,46.1263],[27.857,46.1632],[27.8718,46.1456],[27.9646,46.1413],[28.009,46.105],[28.1245,46.112],[28.1243,46.1516],[28.1428,46.1642],[28.1283,46.1779],[28.1441,46.1793],[28.118,46.1923],[28.1235,46.2108],[28.1096,46.205],[28.1098,46.2428],[28.1464,46.2518],[28.1264,46.2619],[28.1395,46.2847],[28.1695,46.2827],[28.1719,46.2981],[28.1806,46.2856],[28.2037,46.3119],[28.183,46.3526],[28.2083,46.3591],[28.1976,46.3704],[28.2178,46.3959],[28.2427,46.3949],[28.2247,46.3994],[28.23,46.4145],[28.2608,46.4375],[28.24,46.4522],[28.2581,46.4623],[28.2092,46.5057],[28.23,46.5267],[28.2154,46.5376],[28.2357,46.5519],[28.2229,46.5798],[28.2502,46.604],[28.246,46.6456],[28.2364,46.679],[28.2079,46.686],[28.2089,46.7127],[28.1887,46.7191],[28.1664,46.7899],[28.1287,46.8065],[28.1145,46.8379],[28.0703,46.8522],[28.0147,46.8338],[27.9283,46.8664],[27.9438,46.8225],[27.8902,46.8207],[27.8702,46.8594],[27.797,46.8602],[27.8149,46.8819],[27.8113,46.953],[27.7696,46.9551],[27.7917,46.8743],[27.7697,46.8727],[27.7329,46.9222],[27.621,46.9917],[27.6075,46.9462],[27.644,46.8968],[27.5912,46.8789],[27.5682,46.8775],[27.5319,46.9159],[27.5199,46.9145],[27.5332,46.8822],[27.4598,46.8624],[27.4245,46.8625],[27.3981,46.8936],[27.3113,46.863],[27.1888,46.876],[27.2271,46.8209],[27.2133,46.7896],[27.2339,46.7774],[27.2103,46.7606],[27.3266,46.698],[27.2929,46.6769],[27.3222,46.6568],[27.2762,46.6252],[27.3798,46.5241],[27.4643,46.3715],[27.4772,46.323],[27.4563,46.3212],[27.4838,46.2828],[27.4686,46.2737],[27.474,46.2363],[27.5101,46.21],[27.5062,46.1554],[27.4931,46.1592]]]},"properties":{"iso3":"ROU","shapeId":"36066543B98418194735101","regionId":"ROU.41_1","name":"Vaslui"}},{"type":"Feature","geometry":{"type":"Polygon","coordinates":[[[26.44,46.0389],[26.4374,45.9887],[26.3892,45.9547],[26.375,45.8207],[26.4408,45.7764],[26.4422,45.7311],[26.5516,45.6293],[26.6816,45.6088],[26.7432,45.5507],[26.8054,45.5479],[26.8339,45.5178],[26.9858,45.5377],[26.975,45.5319],[27.0019,45.4849],[27.045,45.4527],[27.0899,45.4459],[27.1092,45.4749],[27.1584,45.4652],[27.1065,45.4386],[27.1146,45.4093],[27.1434,45.4104],[27.1944,45.4534],[27.2234,45.4275],[27.2796,45.4544],[27.27,45.3901],[27.3396,45.3835],[27.3367,45.3714],[27.4014,45.377],[27.5585,45.4884],[27.5269,45.5003],[27.5415,45.5093],[27.5244,45.5197],[27.5283,45.5485],[27.5042,45.5632],[27.5353,45.5815],[27.4968,45.6084],[27.5121,45.6216],[27.4653,45.6372],[27.4477,45.6773],[27.4225,45.6694],[27.396,45.6901],[27.3045,45.8423],[27.2795,45.8703],[27.2486,45.8726],[27.2845,45.8867],[27.2261,46.0028],[27.2331,46.0419],[27.2688,46.0416],[27.2904,46.0597],[27.2851,46.0793],[27.4244,46.0893],[27.4265,46.1395],[27.481,46.1258],[27.5031,46.1395],[27.4847,46.1453],[27.493,46.1624],[27.4592,46.1574],[27.4481,46.1841],[27.3937,46.1943],[27.3745,46.1573],[27.35,46.1528],[27.3065,46.206],[27.2627,46.2004],[27.2699,46.1832],[27.2456,46.1778],[27.2217,46.1913],[27.1733,46.1813],[27.1236,46.1476],[27.1397,46.1342],[27.1208,46.1003],[27.0863,46.1114],[27.1058,46.0889],[26.9836,46.1133],[26.9476,46.1006],[26.934,46.0651],[26.8718,46.0846],[26.807,46.0657],[26.78,46.0938],[26.7044,46.0947],[26.6568,46.0859],[26.5727,46.0168],[26.4922,46.0455],[26.44,46.0389]]]},"properties":{"iso3":"ROU","shapeId":"36066543B45061076601041","regionId":"ROU.42_1","name":"Vrancea"}}]}