{"type":"FeatureCollection","features":[{"type":"Feature","geometry":{"type":"Polygon","coordinates":[[[16.9498,48.5358],[16.85,48.4492],[16.8638,48.4193],[16.8504,48.3832],[16.8333,48.3813],[16.8432,48.3514],[16.9085,48.3262],[16.8945,48.3112],[16.9199,48.2739],[16.9571,48.2638],[16.9461,48.2359],[16.9762,48.1721],[17.0269,48.1409],[17.0572,48.1437],[17.0927,48.0996],[17.0682,48.0554],[17.0878,48.0457],[17.0674,48.0314],[17.1608,48.0067],[17.2474,48.012],[17.3064,48.0498],[17.2965,48.0662],[17.3141,48.0599],[17.3537,48.0922],[17.3071,48.0994],[17.3044,48.1232],[17.379,48.1305],[17.391,48.143],[17.3742,48.1604],[17.3997,48.1741],[17.4012,48.1522],[17.4674,48.1523],[17.5292,48.1965],[17.5007,48.2053],[17.5206,48.2255],[17.4733,48.2351],[17.5137,48.2791],[17.4493,48.3195],[17.4775,48.3526],[17.4263,48.375],[17.4172,48.405],[17.3799,48.4292],[17.3931,48.4384],[17.3169,48.4515],[17.3022,48.4659],[17.355,48.5066],[17.2719,48.5386],[17.3332,48.5639],[17.3248,48.5781],[17.3757,48.6075],[17.3536,48.6464],[17.3276,48.654],[17.2962,48.6074],[17.2358,48.5674],[17.1253,48.5467],[17.0523,48.5638],[16.9498,48.5358]]]},"properties":{"iso3":"SVK","shapeId":"25762395B46801803338249","regionId":"SVK.2_1","name":"Bratislava"}},{"type":"Feature","geometry":{"type":"Polygon","coordinates":[[[17.2474,48.012],[17.3347,47.9931],[17.403,47.9478],[17.4539,47.8853],[17.5252,47.8664],[17.5667,47.8156],[17.6084,47.8219],[17.7054,47.759],[17.7301,47.7758],[17.7298,47.8049],[17.7946,47.8219],[17.8077,47.8706],[17.8889,47.9134],[17.8714,47.9279],[17.886,47.9427],[17.8686,48.0225],[17.8845,48.0343],[17.8385,48.0634],[17.8436,48.0768],[17.8056,48.0706],[17.8201,48.1058],[17.7548,48.1483],[17.8163,48.1554],[17.829,48.1672],[17.8072,48.1954],[17.8376,48.1827],[17.8821,48.2086],[17.8463,48.2462],[17.8669,48.2787],[17.833,48.2976],[17.8553,48.3504],[17.9647,48.4648],[17.8455,48.5216],[17.8958,48.5924],[17.9529,48.583],[17.983,48.5964],[17.9791,48.6125],[17.8523,48.6323],[17.8257,48.6531],[17.7882,48.6367],[17.702,48.6825],[17.6528,48.6629],[17.6246,48.6721],[17.6255,48.6445],[17.5613,48.6448],[17.5331,48.6266],[17.4661,48.6999],[17.4927,48.7343],[17.4728,48.7608],[17.4165,48.7872],[17.353,48.7775],[17.3904,48.7937],[17.3894,48.8166],[17.202,48.8781],[17.1116,48.8317],[17.0891,48.786],[17.0437,48.7647],[16.9677,48.6682],[16.9336,48.6011],[16.9498,48.5358],[17.0523,48.5638],[17.1253,48.5467],[17.2358,48.5674],[17.2962,48.6074],[17.3276,48.654],[17.3536,48.6464],[17.3757,48.6075],[17.3248,48.5781],[17.3332,48.5639],[17.2719,48.5386],[17.355,48.5066],[17.3022,48.4659],[17.3169,48.4515],[17.3931,48.4384],[17.3799,48.4292],[17.4172,48.405],[17.4263,48.375],[17.4775,48.3526],[17.4493,48.3195],[17.5137,48.2791],[17.4733,48.2351],[17.5206,48.2255],[17.5007,48.2053],[17.5292,48.1965],[17.4674,48.1523],[17.4012,48.1522],[17.3997,48.1741],[17.3742,48.1604],[17.391,48.143],[17.379,48.1305],[17.3044,48.1232],[17.3071,48.0994],[17.3537,48.0922],[17.3141,48.0599],[17.2965,48.0662],[17.3064,48.0498],[17.2474,48.012]]]},"properties":{"iso3":"SVK","shapeId":"25762395B43018944697777","regionId":"SVK.7_1","name":"Trnava"}},{"type":"Feature","geometry":{"type":"Polygon","coordinates":[[[17.9791,48.6125],[18.0234,48.6382],[17.9914,48.7064],[18.1053,48.6969],[18.1647,48.6429],[18.2561,48.6094],[18.2143,48.5768],[18.2352,48.5674],[18.2268,48.5549],[18.266,48.552],[18.3114,48.4969],[18.366,48.4857],[18.4975,48.5688],[18.5977,48.5753],[18.6565,48.6399],[18.7173,48.6268],[18.7139,48.6478],[18.7545,48.6918],[18.7961,48.7006],[18.8263,48.7441],[18.7767,48.7908],[18.778,48.8127],[18.6981,48.8477],[18.7079,48.8975],[18.6937,48.9256],[18.7203,48.9375],[18.6946,48.9592],[18.5951,48.9568],[18.578,48.9713],[18.5234,48.9371],[18.4659,48.948],[18.5996,49.0242],[18.5989,49.0727],[18.557,49.0876],[18.591,49.1165],[18.5749,49.1432],[18.4676,49.1895],[18.4303,49.255],[18.3559,49.3197],[18.184,49.287],[18.1843,49.2698],[18.147,49.2479],[18.1549,49.2162],[18.1308,49.1888],[18.1367,49.161],[18.1067,49.1342],[18.1222,49.118],[18.0955,49.0592],[18.0571,49.0285],[17.9243,49.02],[17.8853,48.9277],[17.7813,48.9253],[17.7033,48.86],[17.633,48.8549],[17.5285,48.8122],[17.4532,48.8467],[17.353,48.7775],[17.4165,48.7872],[17.4728,48.7608],[17.4927,48.7343],[17.4661,48.6999],[17.5331,48.6266],[17.5613,48.6448],[17.6255,48.6445],[17.6246,48.6721],[17.6528,48.6629],[17.702,48.6825],[17.7882,48.6367],[17.8257,48.6531],[17.8523,48.6323],[17.9791,48.6125]]]},"properties":{"iso3":"SVK","shapeId":"25762395B87770954339991","regionId":"SVK.6_1","name":"Trenčín"}},{"type":"Feature","geometry":{"type":"Polygon","coordinates":[[[17.7054,47.759],[17.7826,47.7392],[18.0381,47.7577],[18.2908,47.7314],[18.4541,47.7651],[18.6461,47.7591],[18.7261,47.789],[18.7412,47.8138],[18.8485,47.8167],[18.8223,47.85],[18.7638,47.8714],[18.7578,47.9197],[18.7767,47.9551],[18.7549,47.9756],[18.816,47.9937],[18.82,48.0397],[18.8456,48.0526],[18.9913,48.0578],[19.0665,48.1349],[19.0495,48.1606],[19.0721,48.1944],[19.0501,48.2046],[18.959,48.1825],[18.9317,48.1587],[18.8786,48.1565],[18.8325,48.1778],[18.8089,48.1648],[18.7984,48.1874],[18.8317,48.2063],[18.8057,48.2453],[18.8406,48.2681],[18.8524,48.3058],[18.8106,48.3705],[18.7463,48.4164],[18.6983,48.3931],[18.6755,48.3551],[18.5735,48.3483],[18.5374,48.3098],[18.5417,48.3271],[18.5244,48.3326],[18.5762,48.3759],[18.5606,48.4182],[18.5388,48.4178],[18.5458,48.436],[18.521,48.451],[18.5466,48.477],[18.5311,48.4741],[18.5378,48.5035],[18.4811,48.4998],[18.518,48.5289],[18.4787,48.5486],[18.366,48.4857],[18.3114,48.4969],[18.2857,48.5409],[18.2314,48.5514],[18.2352,48.5674],[18.215,48.5738],[18.2561,48.6094],[18.1647,48.6429],[18.1053,48.6969],[18.0043,48.7132],[17.9909,48.7034],[18.0158,48.6231],[17.9529,48.583],[17.8958,48.5924],[17.8455,48.5216],[17.9647,48.4648],[17.8553,48.3504],[17.833,48.2976],[17.8669,48.2787],[17.8463,48.2462],[17.8821,48.2086],[17.8376,48.1827],[17.8072,48.1954],[17.829,48.1672],[17.8163,48.1554],[17.7548,48.1483],[17.8201,48.1058],[17.8056,48.0706],[17.8436,48.0768],[17.8385,48.0634],[17.881,48.0457],[17.8686,48.0225],[17.886,47.9427],[17.8714,47.9279],[17.8889,47.9134],[17.8077,47.8706],[17.7946,47.8219],[17.7298,47.8049],[17.7301,47.7758],[17.7054,47.759]]]},"properties":{"iso3":"SVK","shapeId":"25762395B46915118171536","regionId":"SVK.4_1","name":"Nitra"}},{"type":"Feature","geometry":{"type":"Polygon","coordinates":[[[18.8263,48.7441],[18.8814,48.7698],[18.9235,48.7412],[19.0001,48.7501],[19.0166,48.7903],[18.9925,48.8024],[18.9944,48.8472],[19.0471,48.8837],[19.1537,48.8779],[19.2441,48.8952],[19.2654,48.8838],[19.2529,48.8561],[19.2978,48.8596],[19.3846,48.9262],[19.5399,48.9472],[19.6962,48.9233],[19.7446,48.8968],[19.8172,48.9164],[20.0266,48.9114],[20.0604,48.9323],[20.0328,48.9339],[20.0232,48.9666],[19.9636,49.0089],[20.0153,49.016],[20.0378,49.1083],[19.9527,49.1093],[19.9487,49.1275],[20.0001,49.1628],[19.9269,49.1419],[19.9133,49.1212],[19.895,49.1309],[19.9232,49.16],[19.9004,49.2002],[19.7631,49.2076],[19.7925,49.268],[19.8228,49.2768],[19.7925,49.2997],[19.805,49.3228],[19.7906,49.4107],[19.7176,49.3864],[19.6317,49.4088],[19.6411,49.4576],[19.5815,49.4554],[19.5304,49.5358],[19.5293,49.573],[19.4785,49.588],[19.4674,49.6138],[19.3714,49.5674],[19.3623,49.5361],[19.2607,49.5312],[19.2333,49.5105],[19.2253,49.4543],[19.1857,49.4347],[19.1974,49.4146],[19.1507,49.4036],[19.0727,49.418],[19.035,49.3957],[18.9799,49.3952],[18.9688,49.4133],[18.989,49.4313],[18.9608,49.4547],[18.9728,49.5026],[18.9417,49.5189],[18.8124,49.5164],[18.7545,49.4884],[18.6778,49.5076],[18.5457,49.5005],[18.5344,49.4845],[18.548,49.4679],[18.45,49.3935],[18.4037,49.3967],[18.4043,49.3502],[18.3226,49.3151],[18.3734,49.319],[18.4676,49.1895],[18.5749,49.1432],[18.591,49.1165],[18.557,49.0876],[18.5989,49.0727],[18.5996,49.0242],[18.4659,48.948],[18.5234,48.9371],[18.578,48.9713],[18.5951,48.9568],[18.6946,48.9592],[18.7203,48.9375],[18.6937,48.9256],[18.7079,48.8975],[18.6981,48.8477],[18.778,48.8127],[18.7767,48.7908],[18.8263,48.7441]]]},"properties":{"iso3":"SVK","shapeId":"25762395B19733540227871","regionId":"SVK.8_1","name":"Žilina"}},{"type":"Feature","geometry":{"type":"Polygon","coordinates":[[[18.4787,48.5486],[18.518,48.5289],[18.4811,48.4998],[18.5378,48.5035],[18.5311,48.4741],[18.5466,48.477],[18.521,48.451],[18.5707,48.404],[18.567,48.3587],[18.5244,48.3326],[18.5417,48.3271],[18.5362,48.3103],[18.5735,48.3483],[18.6755,48.3551],[18.6983,48.3931],[18.7463,48.4164],[18.8106,48.3705],[18.8524,48.3058],[18.8406,48.2681],[18.8057,48.2453],[18.8317,48.2063],[18.7984,48.1874],[18.8089,48.1648],[18.8325,48.1778],[18.8786,48.1565],[18.9317,48.1587],[18.9382,48.177],[19.0501,48.2046],[19.0721,48.1944],[19.0495,48.1606],[19.0665,48.1349],[19.0122,48.0859],[19.0585,48.0574],[19.1353,48.0741],[19.2414,48.0537],[19.3031,48.0887],[19.4,48.0823],[19.4426,48.1013],[19.4677,48.084],[19.4944,48.1099],[19.526,48.2031],[19.6308,48.2501],[19.6699,48.2392],[19.6912,48.2039],[19.7462,48.2165],[19.7987,48.1948],[19.7824,48.165],[19.7948,48.1535],[19.8552,48.1784],[19.9145,48.1469],[19.8983,48.1249],[19.9374,48.1311],[19.9744,48.166],[20.073,48.1796],[20.1341,48.2252],[20.1332,48.254],[20.2062,48.251],[20.2349,48.2799],[20.2869,48.2616],[20.3257,48.2728],[20.4098,48.3659],[20.4161,48.4182],[20.4698,48.4525],[20.4556,48.4736],[20.3962,48.4565],[20.3064,48.4797],[20.3027,48.5189],[20.3317,48.5373],[20.356,48.5988],[20.2965,48.611],[20.3024,48.658],[20.1823,48.7282],[20.182,48.7571],[20.2076,48.7736],[20.1972,48.8186],[20.2675,48.8741],[20.1757,48.908],[20.1581,48.8892],[19.9769,48.9159],[19.8044,48.9156],[19.7446,48.8968],[19.6962,48.9233],[19.5399,48.9472],[19.3846,48.9262],[19.2978,48.8596],[19.2529,48.8561],[19.2654,48.8838],[19.2441,48.8952],[19.0356,48.881],[18.9944,48.8472],[18.9925,48.8024],[19.0166,48.7903],[19.0001,48.7501],[18.9235,48.7412],[18.8814,48.7698],[18.8545,48.7634],[18.7961,48.7006],[18.7545,48.6918],[18.7139,48.6478],[18.7173,48.6268],[18.6565,48.6399],[18.5977,48.5753],[18.4975,48.5688],[18.4787,48.5486]]]},"properties":{"iso3":"SVK","shapeId":"25762395B36213439185612","regionId":"SVK.1_1","name":"Banská Bystrica"}},{"type":"Feature","geometry":{"type":"Polygon","coordinates":[[[19.9923,48.9075],[20.1581,48.8892],[20.1757,48.908],[20.2769,48.871],[20.3423,48.9237],[20.3007,48.9451],[20.4289,49.0035],[20.4901,48.9678],[20.4833,48.9892],[20.5098,48.9939],[20.4816,49.0029],[20.5315,49.0188],[20.5262,48.9993],[20.5763,48.9708],[20.6179,48.9788],[20.6323,48.9522],[20.7111,48.982],[20.7816,48.9713],[20.7693,49.003],[20.95,48.9474],[20.985,48.9594],[21.0254,48.9039],[21.1354,48.9014],[21.1815,48.8706],[21.197,48.8845],[21.2601,48.8737],[21.2461,48.8289],[21.2798,48.8108],[21.3136,48.8151],[21.3012,48.8282],[21.3168,48.8372],[21.3673,48.8381],[21.3772,48.8819],[21.4143,48.8719],[21.4205,48.8942],[21.4301,48.8729],[21.4839,48.8823],[21.5416,48.7941],[21.7027,48.7632],[21.8023,48.7905],[21.7834,48.8813],[21.7996,48.9014],[21.9129,48.8815],[21.9911,48.8397],[22.1312,48.8446],[22.1261,48.888],[22.2143,48.9298],[22.2576,48.8658],[22.3829,48.8621],[22.4211,48.8846],[22.4249,48.9293],[22.4773,48.9912],[22.5455,49.0068],[22.5657,49.088],[22.4227,49.0995],[22.3673,49.1466],[22.3177,49.1356],[22.2257,49.1525],[22.2225,49.1845],[22.1899,49.174],[22.1438,49.2005],[22.062,49.2116],[22.0304,49.2252],[22.034,49.2785],[21.9832,49.3104],[21.962,49.3485],[21.9038,49.35],[21.8383,49.3917],[21.778,49.356],[21.7218,49.4123],[21.6589,49.4168],[21.6309,49.4473],[21.4341,49.4123],[21.2775,49.4609],[21.1921,49.401],[21.124,49.4366],[21.0475,49.4183],[21.1041,49.3764],[21.0941,49.3651],[21.0425,49.3649],[20.9891,49.3284],[20.9865,49.3066],[20.9241,49.296],[20.9036,49.3235],[20.8727,49.3198],[20.8824,49.3331],[20.8655,49.3475],[20.7974,49.3432],[20.8093,49.3594],[20.7614,49.3716],[20.7369,49.4167],[20.647,49.4007],[20.6149,49.4178],[20.5755,49.3761],[20.4323,49.4176],[20.4333,49.3966],[20.393,49.3906],[20.3757,49.4079],[20.3251,49.403],[20.3165,49.3445],[20.2208,49.3518],[20.1577,49.3028],[20.1455,49.3175],[20.1008,49.2501],[20.0879,49.1795],[19.9816,49.2318],[19.9036,49.2308],[19.8839,49.2042],[19.9232,49.16],[19.895,49.1309],[19.9133,49.1212],[19.9269,49.1419],[20.0001,49.1628],[19.9487,49.1275],[19.9527,49.1093],[20.0378,49.1083],[20.0153,49.016],[19.9636,49.0089],[20.0232,48.9666],[20.0328,48.9339],[20.0604,48.9323],[19.9923,48.9075]]]},"properties":{"iso3":"SVK","shapeId":"25762395B99480342603175","regionId":"SVK.5_1","name":"Prešov"}},{"type":"Feature","geometry":{"type":"Polygon","coordinates":[[[20.4639,48.4639],[20.5078,48.4893],[20.5065,48.5344],[20.5866,48.5358],[20.7131,48.5704],[20.8504,48.5816],[20.8453,48.5665],[20.8682,48.5518],[20.9223,48.5595],[20.9562,48.5217],[21.0663,48.5259],[21.1174,48.4911],[21.2211,48.5375],[21.3055,48.5222],[21.3194,48.5612],[21.4154,48.559],[21.4401,48.5852],[21.5141,48.5511],[21.542,48.5084],[21.6139,48.5094],[21.6646,48.3922],[21.7017,48.3807],[21.7244,48.3497],[21.8223,48.3326],[21.8372,48.3633],[21.9282,48.3616],[22.0213,48.3927],[22.0867,48.3716],[22.1359,48.3805],[22.1553,48.3993],[22.1371,48.4188],[22.161,48.5673],[22.1886,48.6096],[22.3396,48.6839],[22.3618,48.7302],[22.3457,48.7661],[22.3876,48.8],[22.3829,48.8621],[22.2576,48.8658],[22.2143,48.9298],[22.1261,48.888],[22.1312,48.8446],[21.9911,48.8397],[21.9129,48.8815],[21.7996,48.9014],[21.7834,48.8813],[21.8023,48.7905],[21.6852,48.7626],[21.5416,48.7941],[21.4839,48.8823],[21.4301,48.8729],[21.4205,48.8942],[21.4143,48.8719],[21.3772,48.8819],[21.3673,48.8381],[21.3168,48.8372],[21.3012,48.8282],[21.3136,48.8151],[21.2798,48.8108],[21.2461,48.8289],[21.2601,48.8737],[21.197,48.8845],[21.1815,48.8706],[21.1354,48.9014],[21.0254,48.9039],[20.985,48.9594],[20.95,48.9474],[20.7693,49.003],[20.7816,48.9713],[20.7111,48.982],[20.6323,48.9522],[20.6179,48.9788],[20.5763,48.9708],[20.5262,48.9993],[20.5315,49.0188],[20.4816,49.0029],[20.5098,48.9939],[20.4833,48.9892],[20.4901,48.9678],[20.4289,49.0035],[20.3007,48.9451],[20.3393,48.9159],[20.2953,48.8993],[20.2888,48.8757],[20.2483,48.8705],[20.241,48.8445],[20.1972,48.8186],[20.2076,48.7736],[20.1812,48.741],[20.3024,48.658],[20.2965,48.611],[20.356,48.5988],[20.3317,48.5373],[20.3027,48.5189],[20.3064,48.4797],[20.3417,48.4611],[20.4639,48.4639]]]},"properties":{"iso3":"SVK","shapeId":"25762395B28279050649796","regionId":"SVK.3_1","name":"Košice"}}]}