{"type":"FeatureCollection","features":[{"type":"Feature","geometry":{"type":"Polygon","coordinates":[[[37.9732,-4.586],[38.0385,-4.624],[38.1188,-4.5795],[38.4709,-4.1577],[37.8113,-3.6892],[37.7377,-3.5357],[37.6789,-3.5046],[37.6084,-3.52],[37.6268,-3.461],[37.5951,-3.4581],[37.5916,-3.4404],[37.7114,-3.3091],[37.6727,-3.0608],[37.4087,-2.8971],[37.3607,-2.9106],[37.2718,-2.8485],[37.2133,-2.8564],[36.9782,-2.9659],[36.9916,-3.0868],[36.9741,-3.2389],[36.9968,-3.2879],[37.1112,-3.3375],[37.1087,-3.4711],[37.2221,-3.4321],[37.3265,-3.4743],[37.3992,-3.6258],[37.5115,-3.781],[37.5129,-3.9439],[37.5613,-4.1157],[37.5458,-4.1651],[37.5444,-4.3854],[37.5749,-4.4372],[37.792,-4.5717],[37.9506,-4.5618],[37.9732,-4.586]]]},"properties":{"iso3":"TZA","shapeId":"36957248B55328686942733","regionId":"TZA.9_1","name":"Kilimanjaro"}},{"type":"Feature","geometry":{"type":"Polygon","coordinates":[[[35.2245,-2.4975],[35.3007,-2.2134],[35.2504,-2.0984],[35.3199,-1.8281],[35.3145,-1.7186],[34.0803,-1.0219],[34.0375,-1.0452],[34.0189,-1.0],[32.7503,-1.0],[32.7448,-1.4622],[33.4682,-1.4662],[33.4509,-1.7572],[33.3648,-1.7811],[33.2786,-1.8337],[33.2547,-1.938],[33.1943,-2.0203],[33.2097,-2.1648],[33.2719,-2.2624],[33.3587,-2.2966],[33.6353,-2.2549],[33.829,-2.2003],[33.9877,-2.2118],[34.1143,-2.2722],[34.2286,-2.292],[34.4246,-2.3959],[34.5232,-2.5128],[34.6027,-2.5249],[35.2245,-2.4975]]]},"properties":{"iso3":"TZA","shapeId":"36957248B94562559517692","regionId":"TZA.12_1","name":"Mara"}},{"type":"Feature","geometry":{"type":"Polygon","coordinates":[[[37.1087,-3.4711],[37.0161,-3.5062],[36.9281,-3.5757],[36.8732,-3.5502],[36.854,-3.6005],[36.7966,-3.6213],[36.762,-3.6925],[36.6415,-3.8323],[36.5189,-3.8721],[36.4882,-3.9277],[36.4592,-4.0779],[36.4332,-4.0993],[36.4183,-4.0945],[36.401,-3.9824],[36.3449,-3.8702],[36.2371,-3.8055],[36.1207,-3.8098],[36.0473,-3.6632],[35.9108,-3.6215],[35.8975,-3.5911],[35.9295,-3.546],[35.9192,-3.4004],[35.8871,-3.3927],[35.8202,-3.4327],[35.7935,-3.5576],[35.7532,-3.6338],[35.7334,-3.7891],[35.6092,-3.7881],[35.5168,-3.7279],[35.4478,-3.7365],[35.3615,-3.8185],[35.3184,-3.8314],[35.2732,-3.886],[35.1773,-3.8956],[35.1114,-3.8745],[35.0682,-3.8228],[34.9949,-3.8357],[34.9008,-3.8131],[34.7885,-3.8253],[35.0872,-4.0489],[34.9751,-4.1834],[34.8523,-4.4629],[35.0051,-4.4917],[35.1033,-4.6348],[35.178,-4.6596],[35.197,-4.77],[35.3227,-4.8345],[35.4951,-4.8491],[35.6908,-4.6019],[35.6606,-4.5253],[35.6812,-4.4705],[35.8092,-4.3808],[35.8649,-4.287],[35.958,-4.3423],[36.2997,-4.2131],[36.3153,-4.4625],[36.3608,-4.6549],[36.2212,-5.3072],[36.289,-5.298],[36.3041,-5.3377],[36.3057,-5.3831],[36.2575,-5.4968],[36.4748,-5.7084],[36.5858,-5.7709],[36.7254,-5.9466],[36.8595,-5.9391],[36.9997,-5.9808],[37.2883,-5.806],[37.2147,-5.7679],[37.2372,-5.6814],[37.3222,-5.537],[37.3651,-5.2906],[37.4784,-5.1038],[37.5772,-5.0431],[37.6521,-5.0652],[37.7837,-5.0611],[37.8558,-4.9874],[37.9405,-4.9862],[38.0391,-4.9527],[37.9851,-4.8353],[38.0052,-4.7571],[37.9732,-4.586],[37.9506,-4.5618],[37.792,-4.5717],[37.7179,-4.5134],[37.6022,-4.461],[37.5444,-4.3854],[37.5458,-4.1651],[37.5613,-4.1157],[37.5129,-3.9439],[37.5115,-3.781],[37.3992,-3.6258],[37.3265,-3.4743],[37.2221,-3.4321],[37.1087,-3.4711]]]},"properties":{"iso3":"TZA","shapeId":"36957248B99133684808243","regionId":"TZA.11_1","name":"Manyara"}},{"type":"Feature","geometry":{"type":"Polygon","coordinates":[[[37.4045,-2.897],[35.3145,-1.7186],[35.3199,-1.8281],[35.2504,-2.0984],[35.3007,-2.2134],[35.1361,-2.9082],[35.0053,-2.976],[35.0522,-2.9993],[35.0721,-3.0358],[35.0269,-3.0422],[34.8819,-2.9003],[34.8808,-3.6272],[34.8344,-3.6189],[34.824,-3.6536],[34.7824,-3.6871],[34.7723,-3.7591],[34.8,-3.7844],[34.7736,-3.8109],[34.7885,-3.8253],[34.9008,-3.8131],[34.9647,-3.8357],[35.0682,-3.8228],[35.1114,-3.8745],[35.1773,-3.8956],[35.2732,-3.886],[35.3184,-3.8314],[35.3615,-3.8185],[35.4478,-3.7365],[35.5168,-3.7279],[35.6092,-3.7881],[35.7334,-3.7891],[35.7532,-3.6338],[35.7935,-3.5576],[35.8202,-3.4327],[35.8871,-3.3927],[35.9192,-3.4004],[35.9295,-3.546],[35.8975,-3.5911],[35.9108,-3.6215],[36.0473,-3.6632],[36.1207,-3.8098],[36.2371,-3.8055],[36.3449,-3.8702],[36.401,-3.9824],[36.4183,-4.0945],[36.4332,-4.0993],[36.4592,-4.0779],[36.4882,-3.9277],[36.5189,-3.8721],[36.6415,-3.8323],[36.762,-3.6925],[36.7966,-3.6213],[36.854,-3.6005],[36.8732,-3.5502],[36.9281,-3.5757],[37.0161,-3.5062],[37.1087,-3.4711],[37.1112,-3.3375],[36.9968,-3.2879],[36.9741,-3.2389],[36.9916,-3.0868],[36.9782,-2.9659],[37.2276,-2.8539],[37.2718,-2.8485],[37.3607,-2.9106],[37.4045,-2.897]]]},"properties":{"iso3":"TZA","shapeId":"36957248B12876867554617","regionId":"TZA.1_1","name":"Arusha"}},{"type":"Feature","geometry":{"type":"Polygon","coordinates":[[[32.7503,-1.0],[30.7996,-1.0],[30.7653,-0.9855],[30.6976,-1.0158],[30.649,-1.0658],[30.5275,-1.076],[30.468,-1.0606],[30.4513,-1.0889],[30.4765,-1.1218],[30.4702,-1.1555],[30.5093,-1.1718],[30.5515,-1.2516],[30.5687,-1.3371],[30.6126,-1.3498],[30.6295,-1.3851],[30.6794,-1.3948],[30.7381,-1.4456],[30.7451,-1.5234],[30.8399,-1.6509],[30.8214,-1.6928],[30.8318,-1.8144],[30.8078,-1.9381],[30.8991,-2.0775],[30.8436,-2.2056],[30.8569,-2.3138],[30.819,-2.3635],[30.7676,-2.3919],[30.7158,-2.3557],[30.6572,-2.4137],[30.6099,-2.3993],[30.5432,-2.4136],[30.4198,-2.6625],[30.4593,-2.6912],[30.5117,-2.6566],[30.5294,-2.6654],[30.4976,-2.7117],[30.4404,-2.7451],[30.4424,-2.7938],[30.4059,-2.861],[30.4346,-2.875],[30.4374,-2.9035],[30.5063,-2.9542],[30.5757,-2.894],[30.6696,-2.9939],[30.704,-2.9718],[30.7476,-2.9977],[30.8498,-2.9795],[31.0112,-2.8597],[31.0427,-2.9386],[31.1276,-2.8965],[31.1465,-2.9234],[31.1299,-2.9576],[30.9833,-3.1834],[31.0209,-3.1949],[31.124,-3.1641],[31.1554,-3.1902],[31.1784,-3.2823],[31.1683,-3.3441],[31.3606,-3.21],[31.4216,-3.2065],[31.4535,-3.2585],[31.4986,-3.2774],[31.5168,-3.2252],[31.5541,-3.2218],[31.5727,-3.1144],[31.5207,-3.1063],[31.5022,-3.084],[31.4945,-3.003],[31.4662,-2.974],[31.4769,-2.9103],[31.4989,-2.8948],[31.5705,-2.9358],[31.5858,-2.8839],[31.6955,-2.8482],[31.7138,-2.7961],[31.6719,-2.7444],[31.6009,-2.7648],[31.5547,-2.7103],[31.471,-2.7114],[31.4424,-2.6774],[31.4005,-2.6939],[31.4148,-2.5965],[31.4556,-2.5212],[31.5607,-2.5195],[31.5635,-2.4788],[31.5249,-2.4046],[31.6009,-2.4057],[31.6362,-2.3545],[31.71,-2.3033],[31.7523,-2.2079],[31.8635,-2.1598],[32.7448,-1.4622],[32.7503,-1.0]]]},"properties":{"iso3":"TZA","shapeId":"36957248B48065738140082","regionId":"TZA.6_1","name":"Kagera"}},{"type":"Feature","geometry":{"type":"Polygon","coordinates":[[[34.6287,-8.6505],[34.6862,-8.5351],[34.6825,-8.5038],[34.6188,-8.4539],[34.6294,-8.3889],[34.8048,-8.2988],[34.9495,-7.9831],[34.9928,-7.951],[34.9958,-7.8762],[34.89,-7.8675],[34.5491,-7.6658],[34.3209,-7.6854],[34.2603,-7.5809],[34.1863,-7.5134],[34.1747,-7.4573],[34.0837,-7.4469],[34.0303,-7.5069],[33.9958,-7.5078],[33.9549,-7.561],[33.772,-7.5417],[33.7806,-7.148],[33.6297,-6.9877],[33.4748,-6.9389],[33.3241,-6.9507],[33.2046,-6.9093],[33.1079,-6.9058],[32.9983,-6.9388],[32.967,-6.9724],[32.866,-7.0174],[32.6557,-7.0088],[32.6016,-7.0233],[32.5896,-7.0842],[32.5207,-7.1333],[32.3721,-7.1631],[32.2526,-7.2414],[32.2654,-7.2779],[32.2041,-7.4662],[32.0875,-7.5046],[32.0652,-7.5787],[31.9718,-7.745],[32.2705,-7.8856],[32.4885,-8.0591],[32.4931,-8.0844],[32.4696,-8.2122],[32.3665,-8.3018],[32.314,-8.3002],[32.2681,-8.357],[32.2659,-8.4685],[32.2965,-8.5492],[32.2719,-8.5939],[32.1552,-8.6966],[32.0799,-8.7144],[32.0866,-8.8238],[32.0699,-8.891],[32.1202,-8.9463],[32.1027,-9.054],[32.1614,-9.0617],[32.267,-9.1336],[32.4314,-9.1182],[32.4935,-9.1531],[32.4866,-9.1723],[32.5409,-9.2547],[32.5845,-9.2463],[32.6485,-9.2758],[32.7557,-9.2851],[32.7654,-9.3231],[32.7905,-9.3222],[32.8614,-9.372],[32.8924,-9.3658],[32.8959,-9.3893],[32.9111,-9.3788],[32.9315,-9.3997],[32.9974,-9.3683],[33.1443,-9.4933],[33.2124,-9.5098],[33.2448,-9.4881],[33.2782,-9.5008],[33.326,-9.4861],[33.3942,-9.5346],[33.4441,-9.6145],[33.5108,-9.6259],[33.5866,-9.5793],[33.6989,-9.6145],[33.7225,-9.5837],[33.7734,-9.5864],[33.9389,-9.7187],[33.9676,-9.619],[33.9452,-9.5731],[33.9703,-9.5273],[34.04,-9.4935],[34.134,-9.5791],[34.1767,-9.5246],[33.9906,-9.2961],[33.8762,-9.0673],[33.7276,-9.0278],[33.8126,-8.9472],[33.8378,-8.8952],[33.868,-8.879],[34.036,-8.877],[34.1122,-8.805],[34.151,-8.7959],[34.2478,-8.865],[34.2779,-8.8672],[34.3795,-8.8162],[34.461,-8.8108],[34.5666,-8.7424],[34.6287,-8.6505]]]},"properties":{"iso3":"TZA","shapeId":"36957248B75876472342648","regionId":"TZA.13_1","name":"Mbeya"}},{"type":"Feature","geometry":{"type":"Polygon","coordinates":[[[34.7885,-3.8253],[34.7736,-3.8109],[34.6824,-3.873],[34.4724,-3.9378],[34.3998,-4.0115],[34.3093,-4.006],[34.2632,-4.0636],[34.2023,-4.0754],[34.2069,-4.1153],[34.1871,-4.1109],[34.1796,-4.1517],[34.0364,-4.3959],[33.9484,-4.4966],[33.9515,-4.5352],[33.9195,-4.6138],[33.9431,-4.7238],[33.9034,-4.8541],[33.9729,-5.0101],[33.9433,-5.1406],[34.026,-5.2127],[34.0801,-5.2313],[34.1566,-5.3177],[34.2165,-5.3469],[34.2414,-5.4005],[34.14,-5.4744],[34.0923,-5.5532],[34.0054,-5.6054],[34.0685,-5.6948],[34.0672,-6.1212],[34.043,-6.1704],[33.9744,-6.2315],[33.831,-6.3096],[33.6755,-6.4866],[33.5892,-6.53],[33.4512,-6.6412],[33.5176,-6.8844],[33.4393,-6.9449],[33.4748,-6.9389],[33.6297,-6.9877],[33.7806,-7.148],[33.772,-7.5417],[33.9549,-7.561],[33.9958,-7.5078],[34.0303,-7.5069],[34.0837,-7.4469],[34.1982,-7.4576],[34.2942,-7.3509],[34.4466,-7.3487],[34.5497,-7.2293],[34.6007,-7.2034],[34.6772,-7.0574],[34.9228,-6.8752],[34.946,-6.8667],[35.106,-6.9399],[35.1306,-6.9012],[35.1004,-6.8536],[35.1111,-6.7839],[35.0946,-6.7222],[35.2909,-6.4351],[35.25,-6.2395],[35.2146,-6.2377],[35.2888,-5.7401],[35.3711,-5.6246],[35.2589,-5.5282],[35.1558,-5.3676],[35.1195,-5.1821],[35.2711,-5.0812],[35.331,-5.1105],[35.3695,-5.0862],[35.348,-5.051],[35.3227,-4.8345],[35.197,-4.77],[35.178,-4.6596],[35.1033,-4.6348],[35.0051,-4.4917],[34.8523,-4.4629],[34.9751,-4.1834],[35.0872,-4.0489],[34.7885,-3.8253]]]},"properties":{"iso3":"TZA","shapeId":"36957248B4897898165843","regionId":"TZA.25_1","name":"Singida"}},{"type":"Feature","geometry":{"type":"Polygon","coordinates":[[[38.0579,-11.2775],[38.1117,-11.2606],[38.2653,-11.2873],[38.2841,-11.3287],[38.3336,-11.3314],[38.3687,-11.3737],[38.4673,-11.4191],[38.5918,-11.3366],[38.6364,-11.2861],[38.7067,-11.2652],[38.7524,-11.2732],[38.883,-11.1718],[39.0097,-11.1705],[39.1242,-11.1434],[39.246,-11.1754],[39.3483,-11.0872],[39.4379,-11.0484],[39.5231,-10.981],[39.7636,-10.914],[39.8651,-10.8497],[39.9991,-10.8069],[40.1733,-10.6706],[40.2332,-10.5962],[40.2981,-10.5658],[40.3521,-10.5655],[40.4311,-10.4654],[40.4122,-10.3827],[40.4456,-10.3523],[40.402,-10.2955],[40.3815,-10.3262],[40.4131,-10.3273],[40.4055,-10.3585],[40.3301,-10.3571],[40.302,-10.2887],[40.2902,-10.3026],[40.291,-10.2672],[40.2451,-10.245],[40.2354,-10.2079],[40.1926,-10.26],[40.2203,-10.2482],[40.2666,-10.2649],[40.2684,-10.2929],[40.2201,-10.2732],[40.246,-10.2955],[40.2192,-10.2826],[40.2403,-10.3102],[40.2313,-10.3222],[40.2154,-10.2774],[40.184,-10.2536],[40.1561,-10.2624],[40.1539,-10.3019],[40.1324,-10.2611],[40.1374,-10.2804],[40.1093,-10.2724],[40.1153,-10.2461],[40.1296,-10.2558],[40.129,-10.1783],[39.991,-10.1281],[39.9705,-10.146],[39.9949,-10.1699],[39.9897,-10.2083],[40.0106,-10.2395],[39.9785,-10.2026],[39.9739,-10.228],[39.9583,-10.2265],[39.9755,-10.1635],[39.8824,-10.2439],[39.661,-10.3329],[39.6411,-10.3703],[39.6508,-10.4287],[39.6283,-10.5844],[39.5647,-10.5245],[39.4963,-10.5112],[39.5048,-10.3736],[39.429,-10.3616],[39.4264,-10.3175],[39.2693,-10.3876],[39.1315,-10.3643],[39.0667,-10.4194],[38.9446,-10.4574],[38.8227,-10.5435],[38.739,-10.5355],[38.6766,-10.4585],[38.6016,-10.5521],[38.2953,-10.6781],[38.1728,-10.8069],[37.9725,-10.8411],[38.0134,-10.9091],[38.0134,-11.0325],[38.0689,-11.1678],[38.0579,-11.2775]]]},"properties":{"iso3":"TZA","shapeId":"36957248B12364491601158","regionId":"TZA.15_1","name":"Mtwara"}},{"type":"Feature","geometry":{"type":"Polygon","coordinates":[[[34.6287,-8.6505],[34.7009,-8.6895],[34.8628,-8.6971],[34.8164,-8.7515],[34.854,-8.7685],[35.1072,-8.7998],[35.1231,-8.8128],[35.1182,-8.9211],[35.138,-9.0177],[35.2468,-9.0324],[35.3564,-9.0017],[35.3168,-8.8529],[35.3321,-8.8118],[35.3076,-8.7596],[35.3851,-8.6555],[35.6293,-8.7054],[35.6394,-8.7987],[35.6593,-8.8247],[35.6852,-8.7814],[35.7074,-8.594],[35.9618,-8.3002],[36.2204,-8.1222],[36.3752,-7.9613],[36.4431,-7.9167],[36.5764,-7.8991],[36.7494,-7.9417],[36.7909,-7.9027],[36.8744,-7.7436],[36.953,-7.6537],[36.8537,-7.6433],[36.819,-7.6589],[36.7911,-7.648],[36.7651,-7.5958],[36.5855,-7.5118],[36.523,-7.5124],[36.4464,-7.3595],[36.3934,-7.3313],[36.3361,-7.3466],[36.3004,-7.2681],[36.2343,-7.1939],[36.1496,-7.1377],[36.0076,-7.1442],[35.7858,-7.0509],[35.6526,-7.0593],[35.5281,-7.0095],[35.4671,-6.9601],[35.4001,-6.9455],[35.2677,-6.9378],[35.1691,-6.9715],[34.946,-6.8667],[34.9228,-6.8752],[34.6772,-7.0574],[34.6007,-7.2034],[34.5497,-7.2293],[34.4466,-7.3487],[34.2942,-7.3509],[34.1982,-7.4576],[34.1747,-7.4573],[34.1863,-7.5134],[34.2603,-7.5809],[34.3209,-7.6854],[34.5491,-7.6658],[34.89,-7.8675],[34.9958,-7.8762],[34.9928,-7.951],[34.9495,-7.9831],[34.8048,-8.2988],[34.6294,-8.3889],[34.6188,-8.4539],[34.6825,-8.5038],[34.6862,-8.5351],[34.6287,-8.6505]]]},"properties":{"iso3":"TZA","shapeId":"36957248B77241623821364","regionId":"TZA.5_1","name":"Iringa"}},{"type":"Feature","geometry":{"type":"MultiPolygon","coordinates":[[[[39.4045,-6.8205],[39.403,-6.8159],[39.3999,-6.813],[39.398,-6.8131],[39.4001,-6.8175],[39.4045,-6.8205]]],[[[39.3572,-6.821],[39.3529,-6.8165],[39.3488,-6.8223],[39.3486,-6.8246],[39.3532,-6.8245],[39.3565,-6.826],[39.3572,-6.821]]],[[[39.2548,-6.6603],[39.2509,-6.6514],[39.2493,-6.6532],[39.2462,-6.6537],[39.2442,-6.6566],[39.2544,-6.6622],[39.2548,-6.6603]]],[[[39.9302,-6.907],[39.932,-6.9045],[39.9299,-6.8997],[39.9273,-6.8988],[39.9236,-6.9009],[39.9226,-6.9031],[39.9248,-6.907],[39.9302,-6.907]]],[[[39.2765,-6.7106],[39.2647,-6.6939],[39.2626,-6.6922],[39.2613,-6.6928],[39.2619,-6.6913],[39.2603,-6.6909],[39.2582,-6.6937],[39.2568,-6.693],[39.2696,-6.7029],[39.2765,-6.7106]]],[[[39.2391,-6.609],[39.2395,-6.5986],[39.2371,-6.5932],[39.2347,-6.5915],[39.2287,-6.5926],[39.2283,-6.5944],[39.2344,-6.6012],[39.2382,-6.6093],[39.2391,-6.609]]],[[[39.3452,-6.7975],[39.3315,-6.7814],[39.3301,-6.8028],[39.3452,-6.7975]]],[[[39.4054,-7.142],[39.4077,-7.1715],[39.4271,-7.1515],[39.4498,-7.1828],[39.4883,-7.1654],[39.4787,-7.154],[39.502,-7.1847],[39.5433,-7.1225],[39.5472,-6.9896],[39.5199,-6.9686],[39.4908,-6.8876],[39.4412,-6.8498],[39.4308,-6.8634],[39.3666,-6.8532],[39.3141,-6.8152],[39.2947,-6.8251],[39.307,-6.8521],[39.2866,-6.8678],[39.3008,-6.8528],[39.2842,-6.8277],[39.301,-6.8173],[39.2814,-6.7959],[39.2864,-6.7408],[39.2764,-6.7325],[39.2685,-6.7597],[39.2461,-6.7508],[39.1936,-6.628],[39.1375,-6.6176],[39.0962,-6.6368],[39.0669,-6.6575],[39.0604,-6.7211],[39.0079,-6.7791],[39.0541,-6.7901],[39.0566,-6.8466],[39.1112,-6.8761],[39.019,-7.0614],[39.0792,-7.0972],[39.1212,-7.0176],[39.1838,-7.0276],[39.2672,-6.9593],[39.3276,-6.948],[39.3849,-6.968],[39.3849,-6.9968],[39.4012,-6.9986],[39.41,-7.0653],[39.393,-7.0858],[39.4177,-7.1256],[39.4054,-7.142]]]]},"properties":{"iso3":"TZA","shapeId":"36957248B2633782293100","regionId":"TZA.2_1","name":"Dar es salaam"}},{"type":"Feature","geometry":{"type":"Polygon","coordinates":[[[39.9755,-10.1635],[39.9575,-10.1515],[39.9749,-10.1281],[39.8755,-10.0167],[39.8395,-10.0121],[39.8144,-9.9815],[39.7568,-9.9759],[39.7281,-9.9964],[39.7081,-9.9815],[39.7174,-9.9512],[39.7885,-9.927],[39.7823,-9.8957],[39.7526,-9.8924],[39.7947,-9.8918],[39.8091,-9.8534],[39.7972,-9.8022],[39.7625,-9.7842],[39.7609,-9.7473],[39.7183,-9.7355],[39.7579,-9.7108],[39.7324,-9.6916],[39.7476,-9.6528],[39.7173,-9.6366],[39.7304,-9.5974],[39.6881,-9.4974],[39.6486,-9.4792],[39.636,-9.4899],[39.6559,-9.4574],[39.6287,-9.4233],[39.5877,-9.435],[39.5947,-9.4518],[39.5837,-9.4308],[39.5607,-9.4312],[39.5494,-9.453],[39.5611,-9.3995],[39.5082,-9.4099],[39.5229,-9.3763],[39.5372,-9.383],[39.5073,-9.3537],[39.5288,-9.339],[39.5427,-9.3779],[39.599,-9.4093],[39.6506,-9.3713],[39.6484,-9.2702],[39.6125,-9.2527],[39.64,-9.2426],[39.6433,-9.222],[39.6114,-9.1262],[39.6283,-9.0639],[39.5389,-9.0167],[39.5527,-8.9911],[39.5286,-8.9345],[39.5565,-8.9254],[39.5176,-8.8969],[39.499,-8.821],[39.4616,-8.8139],[39.4303,-8.7394],[39.3649,-8.7209],[39.3525,-8.5884],[39.3511,-8.6166],[39.3146,-8.5597],[39.297,-8.5656],[39.3022,-8.5806],[39.2726,-8.5718],[39.2935,-8.5411],[39.2788,-8.5308],[39.2967,-8.4893],[39.275,-8.4545],[39.2929,-8.3797],[39.2445,-8.3213],[39.2497,-8.289],[39.0644,-8.3613],[38.8424,-8.3676],[38.7932,-8.4367],[38.6851,-8.451],[38.4957,-8.338],[37.9858,-8.1116],[37.8345,-7.9357],[37.8319,-7.9936],[37.7204,-8.0927],[37.6821,-8.1899],[37.5957,-8.305],[37.4754,-8.4324],[37.3432,-8.5205],[37.3753,-8.6406],[37.286,-8.8425],[37.31,-8.9564],[37.3579,-8.9896],[37.3349,-9.0144],[37.352,-9.0383],[37.3319,-9.0843],[37.3855,-9.1179],[37.3142,-9.1744],[37.3269,-9.2494],[37.2733,-9.2955],[37.2657,-9.3987],[37.1241,-9.5699],[37.1106,-9.6744],[36.8917,-9.8717],[36.8679,-10.0468],[36.8163,-10.1473],[37.7084,-10.5509],[37.8138,-10.5522],[37.8836,-10.7183],[37.9725,-10.8411],[38.0047,-10.842],[38.1728,-10.8069],[38.2953,-10.6781],[38.6016,-10.5521],[38.6766,-10.4585],[38.739,-10.5355],[38.8227,-10.5435],[38.9446,-10.4574],[39.0667,-10.4194],[39.1315,-10.3643],[39.2693,-10.3876],[39.4264,-10.3175],[39.429,-10.3616],[39.5048,-10.3736],[39.4963,-10.5112],[39.5647,-10.5245],[39.6283,-10.5844],[39.6508,-10.4287],[39.6411,-10.3703],[39.661,-10.3329],[39.8824,-10.2439],[39.9755,-10.1635]]]},"properties":{"iso3":"TZA","shapeId":"36957248B69769580879919","regionId":"TZA.10_1","name":"Lindi"}},{"type":"Feature","geometry":{"type":"Polygon","coordinates":[[[33.4393,-6.9449],[33.5176,-6.8844],[33.4512,-6.6412],[33.5892,-6.53],[33.6755,-6.4866],[33.831,-6.3096],[33.9744,-6.2315],[34.043,-6.1704],[34.0672,-6.1212],[34.0669,-5.6782],[34.0054,-5.6054],[34.0923,-5.5532],[34.14,-5.4744],[34.2414,-5.4005],[34.2165,-5.3469],[34.1566,-5.3177],[34.0801,-5.2313],[34.026,-5.2127],[33.9433,-5.1406],[33.9729,-5.0101],[33.9034,-4.8541],[33.9431,-4.7238],[33.9195,-4.6138],[33.9515,-4.5352],[33.9484,-4.4966],[34.0364,-4.3959],[34.1796,-4.1517],[34.1871,-4.1109],[34.2069,-4.1153],[34.2023,-4.0754],[34.1668,-4.0771],[34.092,-4.0268],[34.0437,-4.0412],[33.9871,-4.0231],[33.9272,-3.9607],[33.7995,-3.9558],[33.7558,-3.9299],[33.6798,-3.9399],[33.6479,-3.9219],[33.6619,-3.8995],[33.6009,-3.8791],[33.4435,-3.9143],[33.4136,-3.8894],[33.3548,-3.8955],[33.1708,-3.9651],[33.071,-3.9659],[33.0134,-3.9086],[32.9223,-3.9281],[32.8498,-3.9183],[32.8132,-3.9526],[32.7042,-3.9474],[32.692,-4.0889],[32.6706,-4.1248],[32.6392,-4.1321],[32.698,-4.1925],[32.7308,-4.1888],[32.7476,-4.2383],[32.5908,-4.2883],[32.5808,-4.2037],[32.5373,-4.176],[32.5079,-4.1879],[32.4876,-4.2296],[32.4077,-4.2135],[32.4201,-4.276],[32.4007,-4.3266],[32.3262,-4.2714],[32.1027,-4.2474],[32.0008,-4.1887],[31.9399,-4.1267],[31.6836,-4.0555],[31.6739,-4.2299],[31.6515,-4.2471],[31.4641,-4.2511],[31.4562,-4.3488],[31.4262,-4.3806],[31.4457,-4.4616],[31.4282,-4.5568],[31.4373,-4.6244],[31.4699,-4.6597],[31.4905,-4.7307],[31.3358,-4.8861],[31.3012,-4.9513],[31.1679,-4.9867],[31.215,-5.0521],[31.1652,-5.2071],[31.2373,-5.4651],[31.0655,-5.5597],[31.0808,-5.587],[31.1654,-5.6216],[31.1635,-5.7235],[31.2078,-5.7722],[31.2468,-5.786],[31.4584,-5.7983],[31.6615,-5.7922],[31.7757,-5.6964],[31.8113,-5.6876],[32.0594,-5.7463],[32.1511,-5.9958],[32.2283,-6.0982],[32.3282,-6.1573],[32.3424,-6.1942],[32.4468,-6.2332],[32.509,-6.3226],[32.6981,-6.3612],[32.7445,-6.6111],[32.7135,-6.9269],[32.6934,-6.9772],[32.6557,-7.0088],[32.866,-7.0174],[32.967,-6.9724],[32.9983,-6.9388],[33.1079,-6.9058],[33.2046,-6.9093],[33.3241,-6.9507],[33.4393,-6.9449]]]},"properties":{"iso3":"TZA","shapeId":"36957248B64143865471040","regionId":"TZA.26_1","name":"Tabora"}},{"type":"Feature","geometry":{"type":"MultiPolygon","coordinates":[[[[39.8069,-7.9375],[39.8056,-7.9364],[39.8055,-7.9393],[39.8069,-7.9375]]],[[[39.7234,-8.073],[39.7223,-8.0712],[39.7208,-8.0725],[39.7234,-8.073]]],[[[39.9004,-7.6429],[39.8991,-7.6416],[39.8982,-7.6445],[39.9004,-7.6429]]],[[[39.8981,-7.6452],[39.8971,-7.6455],[39.8968,-7.6499],[39.8981,-7.6452]]],[[[39.8448,-7.732],[39.8424,-7.7317],[39.8425,-7.7354],[39.8448,-7.732]]],[[[39.7661,-8.0351],[39.7647,-8.033],[39.7631,-8.0335],[39.7618,-8.0371],[39.7661,-8.0351]]],[[[39.8182,-7.939],[39.8183,-7.9377],[39.8155,-7.9382],[39.818,-7.9328],[39.8165,-7.9328],[39.8161,-7.9363],[39.8077,-7.9426],[39.8106,-7.9429],[39.8182,-7.939]]],[[[39.77,-8.0304],[39.7696,-8.0283],[39.7658,-8.0272],[39.7621,-8.0223],[39.7579,-8.0203],[39.7572,-8.0257],[39.7583,-8.0262],[39.7598,-8.0245],[39.7611,-8.0298],[39.7656,-8.0322],[39.77,-8.0304]]],[[[39.7137,-7.8281],[39.7116,-7.8258],[39.7118,-7.824],[39.7087,-7.825],[39.7032,-7.8351],[39.7067,-7.8358],[39.7103,-7.8401],[39.7121,-7.8398],[39.7106,-7.8367],[39.712,-7.836],[39.7124,-7.829],[39.7137,-7.8281]]],[[[39.7659,-7.9747],[39.7615,-7.9708],[39.7579,-7.9716],[39.7587,-7.9876],[39.7637,-7.9843],[39.7659,-7.9747]]],[[[39.7448,-8.0513],[39.7131,-8.0477],[39.7234,-8.0692],[39.7448,-8.0513]]],[[[39.8136,-7.9736],[39.7692,-7.9845],[39.7586,-8.0198],[39.7782,-8.0279],[39.8136,-7.9736]]],[[[39.9096,-7.6439],[39.8718,-7.6793],[39.8408,-7.751],[39.8373,-7.7369],[39.7707,-7.7849],[39.8164,-7.7912],[39.7069,-7.8188],[39.7322,-7.8341],[39.7288,-7.8531],[39.7053,-7.8543],[39.6109,-7.9471],[39.5893,-7.9419],[39.6192,-7.9812],[39.688,-7.995],[39.7462,-7.9772],[39.7312,-7.9608],[39.7414,-7.9247],[39.783,-7.8927],[39.8037,-7.9007],[39.7985,-7.8862],[39.81,-7.9158],[39.8353,-7.9124],[39.8961,-7.762],[39.9096,-7.6439]]],[[[39.171,-6.6155],[39.0855,-6.527],[39.0716,-6.5384],[39.0772,-6.5157],[39.0525,-6.5167],[39.0587,-6.5005],[38.9489,-6.4693],[38.8617,-6.3876],[38.8409,-6.3208],[38.8637,-6.1761],[38.7843,-6.0678],[38.7795,-6.0238],[38.8007,-5.9711],[38.5154,-5.828],[38.3815,-5.8814],[38.2834,-5.9448],[38.2301,-5.9359],[38.1274,-5.8497],[37.8144,-5.904],[37.8698,-6.1126],[38.0109,-6.2489],[37.9989,-6.5898],[38.0368,-6.6137],[38.0654,-6.67],[38.1695,-6.6649],[38.2487,-6.7252],[38.3191,-6.6962],[38.3594,-6.7114],[38.3749,-6.7873],[38.3089,-6.8554],[38.3018,-6.9287],[38.3224,-7.0024],[38.3413,-7.026],[38.5021,-7.0511],[38.5033,-7.0648],[38.4393,-7.1884],[38.3697,-7.1935],[38.3402,-7.2285],[38.347,-7.598],[38.3177,-7.6224],[38.1723,-7.6123],[37.9701,-7.5304],[37.8847,-7.5752],[37.8456,-7.6339],[37.8358,-7.704],[37.8675,-7.8595],[37.8345,-7.9357],[37.9858,-8.1116],[38.4957,-8.338],[38.6851,-8.451],[38.7932,-8.4367],[38.8424,-8.3676],[39.0644,-8.3613],[39.1491,-8.3307],[39.2434,-8.2861],[39.2323,-8.2589],[39.2685,-8.2352],[39.2261,-8.1973],[39.2765,-8.2001],[39.2853,-8.1624],[39.2964,-8.1923],[39.3099,-8.1646],[39.3255,-8.172],[39.3124,-8.1471],[39.3307,-8.1864],[39.3483,-8.1464],[39.3317,-8.1517],[39.3145,-8.1152],[39.3572,-8.1098],[39.3693,-8.1356],[39.3751,-8.0984],[39.3863,-8.1404],[39.3959,-8.0933],[39.3623,-8.0866],[39.3729,-8.0618],[39.3483,-8.0833],[39.3848,-8.047],[39.3734,-8.0348],[39.41,-7.9549],[39.3692,-7.9365],[39.3845,-7.9046],[39.3694,-7.9084],[39.3805,-7.8961],[39.3577,-7.8796],[39.3696,-7.8636],[39.358,-7.8687],[39.3768,-7.8311],[39.329,-7.8842],[39.284,-7.8612],[39.2703,-7.8794],[39.2298,-7.8766],[39.2305,-7.8554],[39.2215,-7.8722],[39.2142,-7.8539],[39.2362,-7.8431],[39.2371,-7.7961],[39.2641,-7.7928],[39.2464,-7.7711],[39.2711,-7.7685],[39.2747,-7.7953],[39.287,-7.7796],[39.2681,-7.6275],[39.2981,-7.5105],[39.2807,-7.503],[39.2994,-7.5105],[39.3394,-7.4109],[39.3086,-7.4357],[39.2747,-7.3978],[39.3452,-7.4148],[39.3397,-7.3496],[39.3227,-7.3547],[39.3346,-7.3215],[39.352,-7.3135],[39.3552,-7.2778],[39.3704,-7.2819],[39.3693,-7.2477],[39.3897,-7.2517],[39.4315,-7.1848],[39.4268,-7.1636],[39.4005,-7.1709],[39.4177,-7.1256],[39.393,-7.0858],[39.41,-7.0653],[39.4061,-7.0114],[39.3849,-6.9968],[39.3849,-6.968],[39.2982,-6.9482],[39.1838,-7.0276],[39.1212,-7.0176],[39.0792,-7.0972],[39.019,-7.0614],[39.1112,-6.8761],[39.0566,-6.8466],[39.0541,-6.7901],[39.0079,-6.7791],[39.0604,-6.7211],[39.0669,-6.6575],[39.171,-6.6155]]]]},"properties":{"iso3":"TZA","shapeId":"36957248B83801093286412","regionId":"TZA.20_1","name":"Pwani"}},{"type":"Feature","geometry":{"type":"Polygon","coordinates":[[[37.9725,-10.8411],[37.8607,-10.679],[37.8138,-10.5522],[37.7084,-10.5509],[36.8163,-10.1473],[36.8679,-10.0468],[36.8917,-9.8717],[37.0652,-9.7243],[37.1273,-9.6383],[36.8174,-9.7634],[36.7589,-9.8223],[36.6237,-9.9041],[36.4834,-9.9593],[36.4306,-9.9476],[36.4018,-9.9054],[36.4783,-9.7453],[36.3934,-9.6396],[36.4014,-9.5607],[36.3869,-9.5495],[36.1453,-9.6038],[36.0794,-9.6397],[35.9404,-9.7857],[35.9225,-9.8461],[35.8089,-9.902],[35.7667,-9.8914],[35.6749,-9.7791],[35.7405,-9.7309],[35.8358,-9.6123],[35.889,-9.4693],[35.9296,-9.4303],[35.934,-9.3537],[35.9037,-9.1864],[35.7249,-9.3598],[35.5937,-9.3581],[35.4386,-9.481],[35.2795,-9.652],[35.2301,-9.6909],[35.1412,-9.7219],[35.127,-9.78],[35.1489,-9.8257],[35.2493,-9.9436],[35.1811,-9.9789],[35.1216,-10.1393],[34.9838,-10.183],[34.9609,-10.2924],[34.798,-10.3849],[34.7048,-10.4888],[34.6381,-10.5104],[34.5911,-10.4955],[34.57,-10.529],[34.5845,-10.5723],[34.6257,-10.597],[34.6172,-10.6173],[34.6608,-10.6888],[34.65,-10.7133],[34.6833,-10.761],[34.6733,-10.9395],[34.6123,-11.0292],[34.6374,-11.0531],[34.636,-11.1155],[34.7596,-11.2112],[34.773,-11.2573],[34.8005,-11.2791],[34.7858,-11.296],[34.7948,-11.3247],[34.927,-11.397],[34.9604,-11.5753],[35.3423,-11.5689],[35.3874,-11.5851],[35.4154,-11.5621],[35.4201,-11.5819],[35.4419,-11.5842],[35.4784,-11.5765],[35.4768,-11.5596],[35.5152,-11.5822],[35.5281,-11.5587],[35.5501,-11.5697],[35.5746,-11.5488],[35.6441,-11.5632],[35.7115,-11.5067],[35.7116,-11.4775],[35.7746,-11.4707],[35.8266,-11.4111],[35.9135,-11.4382],[35.9438,-11.4229],[35.9579,-11.4656],[35.9855,-11.4577],[36.0083,-11.4869],[36.0422,-11.4945],[36.0629,-11.5406],[36.12,-11.5128],[36.1541,-11.5704],[36.1834,-11.548],[36.1754,-11.5668],[36.1998,-11.5821],[36.1832,-11.6709],[36.2175,-11.7085],[36.2702,-11.6904],[36.2855,-11.7196],[36.307,-11.7197],[36.3558,-11.7131],[36.3868,-11.6785],[36.4942,-11.6816],[36.5177,-11.6983],[36.5029,-11.7438],[36.5186,-11.7612],[36.5733,-11.6985],[36.6272,-11.7378],[36.7683,-11.6482],[36.8146,-11.5505],[36.8675,-11.5954],[36.8897,-11.5869],[36.925,-11.605],[36.9855,-11.58],[37.0283,-11.5861],[37.08,-11.6251],[37.2203,-11.6553],[37.2697,-11.6343],[37.3008,-11.6412],[37.3323,-11.678],[37.3814,-11.6917],[37.4152,-11.6851],[37.4453,-11.6363],[37.5019,-11.6141],[37.5824,-11.6261],[37.6569,-11.5755],[37.7528,-11.5468],[37.7866,-11.5064],[37.7773,-11.4573],[37.8275,-11.3723],[37.8337,-11.3077],[37.9371,-11.2589],[38.0579,-11.2775],[38.0689,-11.1678],[38.0134,-11.0325],[38.0134,-10.9091],[37.9725,-10.8411]]]},"properties":{"iso3":"TZA","shapeId":"36957248B86098654739756","regionId":"TZA.22_1","name":"Ruvuma"}},{"type":"Feature","geometry":{"type":"Polygon","coordinates":[[[35.3564,-9.0017],[35.4118,-9.0891],[35.6356,-9.2393],[35.6551,-9.2868],[35.5937,-9.3581],[35.7249,-9.3598],[35.9037,-9.1864],[35.934,-9.3537],[35.9296,-9.4303],[35.889,-9.4693],[35.8358,-9.6123],[35.7405,-9.7309],[35.6749,-9.7791],[35.7667,-9.8914],[35.8089,-9.902],[35.9225,-9.8461],[35.9404,-9.7857],[36.0794,-9.6397],[36.1453,-9.6038],[36.3869,-9.5495],[36.4014,-9.5607],[36.3934,-9.6396],[36.4783,-9.7453],[36.4018,-9.9054],[36.4306,-9.9476],[36.4834,-9.9593],[36.6237,-9.9041],[36.7589,-9.8223],[36.8174,-9.7634],[37.1273,-9.6383],[37.1241,-9.5699],[37.2657,-9.3987],[37.2733,-9.2955],[37.3269,-9.2494],[37.3142,-9.1744],[37.3855,-9.1179],[37.3319,-9.0843],[37.352,-9.0383],[37.3349,-9.0144],[37.3579,-8.9896],[37.31,-8.9564],[37.286,-8.8425],[37.3753,-8.6406],[37.3432,-8.5205],[37.4754,-8.4324],[37.5957,-8.305],[37.6821,-8.1899],[37.7204,-8.0927],[37.8319,-7.9936],[37.8299,-7.9463],[37.8675,-7.8595],[37.8358,-7.704],[37.8456,-7.6339],[37.8847,-7.5752],[37.9701,-7.5304],[38.1723,-7.6123],[38.3177,-7.6224],[38.347,-7.598],[38.3402,-7.2285],[38.3697,-7.1935],[38.4393,-7.1884],[38.5033,-7.0648],[38.5021,-7.0511],[38.3413,-7.026],[38.3224,-7.0024],[38.3018,-6.9287],[38.3089,-6.8554],[38.3749,-6.7873],[38.3594,-6.7114],[38.3191,-6.6962],[38.2487,-6.7252],[38.1695,-6.6649],[38.0654,-6.67],[38.0368,-6.6137],[37.9989,-6.5898],[38.0109,-6.2489],[37.8698,-6.1126],[37.8144,-5.904],[37.7789,-5.9109],[37.7155,-5.8715],[37.6312,-5.875],[37.5394,-5.8248],[37.4626,-5.8183],[37.4455,-5.824],[37.4249,-5.9688],[37.1799,-6.0309],[36.9997,-5.9808],[36.8112,-6.0895],[36.8252,-6.3835],[36.795,-6.4345],[36.7768,-6.4219],[36.7439,-6.4357],[36.6973,-6.6223],[36.6363,-6.701],[36.6232,-6.805],[36.6449,-6.9246],[36.595,-7.0323],[36.5243,-7.1076],[36.5058,-7.2368],[36.5281,-7.3748],[36.4741,-7.4149],[36.4751,-7.4402],[36.523,-7.5124],[36.5855,-7.5118],[36.7651,-7.5958],[36.7911,-7.648],[36.953,-7.6537],[36.8744,-7.7436],[36.7909,-7.9027],[36.7494,-7.9417],[36.5764,-7.8991],[36.4431,-7.9167],[36.3752,-7.9613],[36.2204,-8.1222],[35.9618,-8.3002],[35.7074,-8.594],[35.6852,-8.7814],[35.6593,-8.8247],[35.6394,-8.7987],[35.6293,-8.7054],[35.3851,-8.6555],[35.3076,-8.7596],[35.3321,-8.8118],[35.3168,-8.8529],[35.3564,-9.0017]]]},"properties":{"iso3":"TZA","shapeId":"36957248B51202481578817","regionId":"TZA.14_1","name":"Morogoro"}},{"type":"Feature","geometry":{"type":"Polygon","coordinates":[[[31.9718,-7.745],[31.7876,-7.7312],[31.7086,-7.6265],[31.6368,-7.6233],[31.5258,-7.5672],[31.4763,-7.4863],[31.4397,-7.4753],[31.4171,-7.5076],[31.3398,-7.5043],[31.2559,-7.175],[31.1938,-7.1394],[30.9855,-7.1243],[30.9475,-6.9829],[30.8497,-6.9381],[30.6409,-6.8886],[30.548,-6.8861],[30.2611,-7.0676],[30.3819,-7.2839],[30.4689,-7.6089],[30.7014,-7.98],[30.8074,-8.3107],[31.0105,-8.5765],[31.0779,-8.6218],[31.1365,-8.6328],[31.2111,-8.5835],[31.2445,-8.5916],[31.2742,-8.6322],[31.3124,-8.6068],[31.348,-8.6171],[31.375,-8.5872],[31.3981,-8.6314],[31.4587,-8.6403],[31.4895,-8.6841],[31.5362,-8.6836],[31.5705,-8.7096],[31.5764,-8.8236],[31.6799,-8.9113],[31.7347,-8.9233],[31.7796,-8.8907],[31.8297,-8.8918],[31.9471,-8.9368],[31.9367,-9.018],[31.9961,-9.0761],[32.1027,-9.054],[32.1202,-8.9463],[32.0699,-8.891],[32.0866,-8.8238],[32.0799,-8.7144],[32.1552,-8.6966],[32.2719,-8.5939],[32.2965,-8.5492],[32.2659,-8.4685],[32.2681,-8.357],[32.314,-8.3002],[32.3665,-8.3018],[32.4696,-8.2122],[32.4931,-8.0844],[32.4885,-8.0591],[32.2705,-7.8856],[31.9718,-7.745]]]},"properties":{"iso3":"TZA","shapeId":"36957248B68200678446738","regionId":"TZA.21_1","name":"Rukwa"}},{"type":"Feature","geometry":{"type":"Polygon","coordinates":[[[30.8498,-2.9795],[30.7976,-3.0525],[30.8364,-3.0944],[30.8178,-3.1466],[30.8462,-3.1636],[30.8475,-3.207],[30.8132,-3.2244],[30.8427,-3.2536],[30.7587,-3.2921],[30.7397,-3.2673],[30.719,-3.303],[30.6672,-3.319],[30.6346,-3.3612],[30.6782,-3.398],[30.6615,-3.4318],[30.5148,-3.529],[30.4921,-3.5202],[30.446,-3.5677],[30.4571,-3.6061],[30.4284,-3.6241],[30.3864,-3.7144],[30.4096,-3.7841],[30.3973,-3.797],[30.3804,-3.7758],[30.3291,-3.7846],[30.3081,-3.8453],[30.2563,-3.8837],[30.2311,-3.941],[30.2137,-3.9904],[30.2297,-4.0111],[30.2214,-4.0414],[30.1958,-4.0458],[30.1584,-4.1149],[30.0779,-4.1681],[30.0424,-4.2761],[30.0035,-4.2803],[30.0054,-4.2942],[29.8926,-4.3521],[29.8679,-4.3833],[29.8143,-4.3638],[29.7646,-4.428],[29.756,-4.4687],[29.6745,-4.4466],[29.436,-4.449],[29.3361,-4.6518],[29.3285,-4.7749],[29.3632,-4.9956],[29.4142,-5.1253],[29.4586,-5.1844],[29.6317,-5.7219],[29.6142,-5.7989],[29.5189,-5.9189],[29.4958,-5.9914],[29.5503,-6.2953],[29.6611,-6.4556],[29.7325,-6.6275],[29.8914,-6.7553],[30.0067,-6.805],[30.2233,-6.6116],[30.3238,-6.4536],[30.3855,-6.4218],[30.3968,-6.3421],[30.3817,-6.3079],[30.4223,-6.2414],[30.4087,-6.2242],[30.3342,-6.2187],[30.1999,-5.932],[30.0978,-5.4992],[29.9582,-5.3813],[30.3229,-5.2561],[30.3893,-5.1825],[30.6252,-5.2645],[30.9571,-5.4803],[31.0678,-5.5304],[31.0665,-5.5476],[31.2373,-5.4651],[31.1652,-5.2071],[31.215,-5.0521],[31.1679,-4.9867],[31.3012,-4.9513],[31.3358,-4.8861],[31.4905,-4.7307],[31.4699,-4.6597],[31.4373,-4.6244],[31.4282,-4.5568],[31.4457,-4.4616],[31.4019,-4.3426],[31.4019,-4.126],[31.3798,-3.9751],[31.3403,-3.9081],[31.3086,-3.7824],[31.2389,-3.7012],[31.1677,-3.3799],[31.1673,-3.222],[31.124,-3.1641],[31.0209,-3.1949],[30.9833,-3.1834],[31.1465,-2.9234],[31.1276,-2.8965],[31.0427,-2.9386],[31.0112,-2.8597],[30.8498,-2.9795]]]},"properties":{"iso3":"TZA","shapeId":"36957248B11692782910073","regionId":"TZA.8_1","name":"Kigoma"}},{"type":"Feature","geometry":{"type":"MultiPolygon","coordinates":[[[[39.2146,-4.7596],[39.2019,-4.6838],[39.1862,-4.7434],[39.1993,-4.7722],[39.2146,-4.7596]]],[[[37.9732,-4.586],[38.0052,-4.7571],[37.9851,-4.8353],[38.0391,-4.9527],[37.9405,-4.9862],[37.8558,-4.9874],[37.7837,-5.0611],[37.6521,-5.0652],[37.5772,-5.0431],[37.4784,-5.1038],[37.3651,-5.2906],[37.3222,-5.537],[37.2372,-5.6814],[37.2147,-5.7679],[37.2883,-5.806],[36.9997,-5.9808],[37.1799,-6.0309],[37.4249,-5.9688],[37.4455,-5.824],[37.5013,-5.8137],[37.6312,-5.875],[37.7155,-5.8715],[37.7789,-5.9109],[38.1274,-5.8497],[38.2301,-5.9359],[38.2834,-5.9448],[38.3815,-5.8814],[38.5154,-5.828],[38.8007,-5.9711],[38.8213,-5.9268],[38.8241,-5.8427],[38.8958,-5.7139],[38.9051,-5.6463],[38.8825,-5.672],[38.8699,-5.6561],[38.9149,-5.6399],[38.9523,-5.5522],[38.9699,-5.5525],[39.0021,-5.4537],[38.9642,-5.4302],[39.0264,-5.3971],[39.0888,-5.2318],[39.0646,-5.2199],[39.0692,-5.1987],[39.1336,-5.1081],[39.1318,-5.0556],[39.0845,-5.0621],[39.1003,-5.0247],[39.1535,-5.0033],[39.1298,-4.9927],[39.1431,-4.9633],[39.1189,-4.9275],[39.1487,-4.9017],[39.1481,-4.8295],[39.1711,-4.8365],[39.1747,-4.8702],[39.1922,-4.8651],[39.1754,-4.9401],[39.2158,-4.8509],[39.2154,-4.8374],[39.2012,-4.8573],[39.1927,-4.8403],[39.2004,-4.82],[39.2167,-4.8242],[39.2148,-4.7931],[39.1981,-4.8181],[39.167,-4.7861],[39.1549,-4.8179],[39.1907,-4.6597],[38.4709,-4.1577],[38.1188,-4.5795],[38.0385,-4.624],[37.9732,-4.586]]]]},"properties":{"iso3":"TZA","shapeId":"36957248B96174950507772","regionId":"TZA.27_1","name":"Tanga"}},{"type":"Feature","geometry":{"type":"Polygon","coordinates":[[[35.3227,-4.8345],[35.348,-5.051],[35.3695,-5.0862],[35.331,-5.1105],[35.2711,-5.0812],[35.1195,-5.1821],[35.1558,-5.3676],[35.2589,-5.5282],[35.3711,-5.6246],[35.2888,-5.7401],[35.2146,-6.2377],[35.25,-6.2395],[35.2909,-6.4351],[35.0946,-6.7222],[35.1111,-6.7839],[35.1004,-6.8536],[35.1306,-6.9012],[35.106,-6.9399],[35.1361,-6.9642],[35.1995,-6.9732],[35.2677,-6.9378],[35.4001,-6.9455],[35.4671,-6.9601],[35.5281,-7.0095],[35.6526,-7.0593],[35.7858,-7.0509],[36.0076,-7.1442],[36.1496,-7.1377],[36.2343,-7.1939],[36.3004,-7.2681],[36.3174,-7.3326],[36.3361,-7.3466],[36.4163,-7.3398],[36.4741,-7.4149],[36.5281,-7.3748],[36.5058,-7.2368],[36.5243,-7.1076],[36.595,-7.0323],[36.6449,-6.9246],[36.6232,-6.805],[36.6363,-6.701],[36.6973,-6.6223],[36.7439,-6.4357],[36.7768,-6.4219],[36.795,-6.4345],[36.8252,-6.3835],[36.8112,-6.0895],[36.9997,-5.9808],[36.8595,-5.9391],[36.7254,-5.9466],[36.5858,-5.7709],[36.4748,-5.7084],[36.2575,-5.4968],[36.3057,-5.3831],[36.3041,-5.3377],[36.289,-5.298],[36.2212,-5.3072],[36.3608,-4.6549],[36.3153,-4.4625],[36.2997,-4.2131],[35.958,-4.3423],[35.8649,-4.287],[35.8092,-4.3808],[35.6812,-4.4705],[35.6606,-4.5253],[35.6908,-4.6019],[35.4951,-4.8491],[35.3227,-4.8345]]]},"properties":{"iso3":"TZA","shapeId":"36957248B94171853380228","regionId":"TZA.3_1","name":"Dodoma"}},{"type":"Feature","geometry":{"type":"Polygon","coordinates":[[[39.3051,-6.2723],[39.2942,-6.2386],[39.3099,-6.2369],[39.3473,-6.3027],[39.3831,-6.3236],[39.4161,-6.4124],[39.4156,-6.3476],[39.3869,-6.3062],[39.4008,-6.3149],[39.4338,-6.2899],[39.4117,-6.3193],[39.4902,-6.4751],[39.5306,-6.4692],[39.5656,-6.4352],[39.5803,-6.3841],[39.538,-6.2862],[39.5357,-6.1893],[39.4957,-6.1226],[39.5078,-6.1908],[39.4653,-6.1818],[39.4551,-6.199],[39.4448,-6.1787],[39.4151,-6.1921],[39.4385,-6.1707],[39.4241,-6.057],[39.3217,-6.0631],[39.2814,-6.0836],[39.2699,-6.1524],[39.3051,-6.2723]]]},"properties":{"iso3":"TZA","shapeId":"36957248B39816127207897","regionId":null,"name":"Zanzibar South & Central"}},{"type":"Feature","geometry":{"type":"MultiPolygon","coordinates":[[[[39.8048,-4.9499],[39.8021,-4.9491],[39.804,-4.9512],[39.8048,-4.9499]]],[[[39.6356,-5.1239],[39.634,-5.1229],[39.6332,-5.1267],[39.6356,-5.1239]]],[[[39.6383,-5.1605],[39.6348,-5.1582],[39.6369,-5.1614],[39.6383,-5.1605]]],[[[39.8115,-4.9543],[39.8101,-4.9515],[39.8069,-4.9498],[39.8065,-4.9516],[39.8095,-4.9538],[39.8094,-4.9563],[39.8115,-4.9543]]],[[[39.6276,-5.1474],[39.6155,-5.1479],[39.613,-5.1505],[39.6184,-5.1506],[39.6276,-5.1474]]],[[[39.6806,-5.1365],[39.6785,-5.1355],[39.679,-5.1339],[39.6718,-5.1362],[39.6721,-5.1377],[39.6767,-5.1404],[39.6806,-5.1365]]],[[[39.6689,-5.1391],[39.6626,-5.136],[39.661,-5.1324],[39.6602,-5.1329],[39.661,-5.1365],[39.6587,-5.1393],[39.6574,-5.1494],[39.6592,-5.146],[39.6605,-5.146],[39.661,-5.1419],[39.6675,-5.1408],[39.6689,-5.1391]]],[[[39.6479,-5.1332],[39.6458,-5.1328],[39.6381,-5.1391],[39.6374,-5.1539],[39.6407,-5.152],[39.6428,-5.1414],[39.6479,-5.1332]]],[[[39.6463,-5.1138],[39.6415,-5.114],[39.6363,-5.1113],[39.6348,-5.1079],[39.6359,-5.0986],[39.6342,-5.0954],[39.6307,-5.1077],[39.6332,-5.1089],[39.6364,-5.118],[39.6376,-5.1177],[39.6361,-5.119],[39.6422,-5.1174],[39.6463,-5.1138]]],[[[39.6763,-4.9679],[39.6749,-4.9625],[39.6761,-4.961],[39.6706,-4.9607],[39.667,-4.9702],[39.6627,-4.9749],[39.6597,-4.9841],[39.6576,-4.9867],[39.6577,-4.9932],[39.6597,-4.9998],[39.664,-5.0053],[39.6657,-5.005],[39.665,-5.0038],[39.6667,-5.0025],[39.6684,-5.0027],[39.6662,-4.9924],[39.6674,-4.9895],[39.6696,-4.9897],[39.6704,-4.988],[39.6702,-4.9819],[39.672,-4.9762],[39.6757,-4.9716],[39.6763,-4.9679]]],[[[39.6649,-5.0086],[39.6629,-5.0071],[39.6596,-5.0076],[39.6586,-5.0115],[39.657,-5.0117],[39.6555,-5.0187],[39.6495,-5.0264],[39.6377,-5.0739],[39.636,-5.0744],[39.6335,-5.0816],[39.635,-5.0932],[39.6363,-5.093],[39.6376,-5.0891],[39.6417,-5.09],[39.6437,-5.087],[39.6425,-5.0878],[39.6414,-5.0842],[39.6448,-5.0799],[39.6442,-5.0734],[39.6519,-5.0574],[39.6551,-5.0447],[39.6531,-5.0411],[39.6549,-5.0357],[39.658,-5.0331],[39.6603,-5.021],[39.6627,-5.0179],[39.6649,-5.0086]]],[[[39.8717,-5.0744],[39.8523,-5.0417],[39.8576,-5.078],[39.8342,-5.1039],[39.8626,-5.1082],[39.8717,-5.0744]]],[[[39.8524,-5.2077],[39.8555,-5.1811],[39.8382,-5.1806],[39.8569,-5.1708],[39.8639,-5.1138],[39.8453,-5.1092],[39.8428,-5.1378],[39.8576,-5.1365],[39.8395,-5.1634],[39.8202,-5.1505],[39.8273,-5.1108],[39.8135,-5.1046],[39.8285,-5.0989],[39.817,-5.0768],[39.8348,-5.0739],[39.834,-5.017],[39.8465,-5.0061],[39.8653,-5.0254],[39.8714,-5.012],[39.8702,-4.8912],[39.8507,-4.953],[39.8377,-4.9543],[39.8436,-4.909],[39.8352,-4.9289],[39.8153,-4.927],[39.8157,-4.9802],[39.7477,-4.9101],[39.7281,-4.9045],[39.7208,-4.9229],[39.7007,-4.9082],[39.6832,-4.8643],[39.6736,-4.9577],[39.6829,-4.9471],[39.7028,-4.9764],[39.6747,-4.981],[39.6947,-5.0196],[39.6715,-5.0437],[39.7323,-5.0712],[39.6947,-5.0824],[39.6912,-5.1091],[39.7091,-5.1169],[39.6872,-5.134],[39.7182,-5.1539],[39.7109,-5.1743],[39.742,-5.1624],[39.7348,-5.1974],[39.7602,-5.2017],[39.7916,-5.1785],[39.8524,-5.2077]]]]},"properties":{"iso3":"TZA","shapeId":"36957248B13188202009922","regionId":null,"name":"North Pemba"}},{"type":"Feature","geometry":{"type":"MultiPolygon","coordinates":[[[[39.255,-5.8203],[39.254,-5.8159],[39.2512,-5.8209],[39.2522,-5.8223],[39.254,-5.8221],[39.255,-5.8203]]],[[[39.2521,-5.8231],[39.2481,-5.8244],[39.2494,-5.8254],[39.2471,-5.8249],[39.2496,-5.8302],[39.2521,-5.8231]]],[[[39.2231,-5.7587],[39.2208,-5.7553],[39.2195,-5.7564],[39.2183,-5.7607],[39.2203,-5.7656],[39.2215,-5.7641],[39.22,-5.7633],[39.2213,-5.7609],[39.2226,-5.7605],[39.223,-5.7618],[39.2231,-5.7587]]],[[[39.2429,-5.8071],[39.2205,-5.7659],[39.2167,-5.8591],[39.2383,-5.8533],[39.2272,-5.8139],[39.2429,-5.8071]]],[[[39.415,-6.0571],[39.3571,-5.9179],[39.356,-5.7948],[39.3085,-5.7242],[39.2922,-5.7253],[39.2965,-5.7907],[39.2753,-5.867],[39.2243,-5.8898],[39.2087,-5.9348],[39.1998,-5.8995],[39.1838,-5.9094],[39.1879,-6.0157],[39.2114,-6.0762],[39.2332,-6.0817],[39.415,-6.0571]]]]},"properties":{"iso3":"TZA","shapeId":"36957248B81638677744414","regionId":null,"name":"Zanzibar North"}},{"type":"Feature","geometry":{"type":"Polygon","coordinates":[[[39.2814,-6.0836],[39.2114,-6.0762],[39.2147,-6.1327],[39.1855,-6.1629],[39.2068,-6.1904],[39.2127,-6.2488],[39.2728,-6.3163],[39.2972,-6.3214],[39.2789,-6.2573],[39.3051,-6.2723],[39.2699,-6.1524],[39.2814,-6.0836]]]},"properties":{"iso3":"TZA","shapeId":"36957248B66874645654546","regionId":null,"name":"Zanzibar Urban/West"}},{"type":"Feature","geometry":{"type":"MultiPolygon","coordinates":[[[[39.5843,-5.3635],[39.582,-5.3624],[39.5818,-5.364],[39.5843,-5.3635]]],[[[39.5845,-5.3676],[39.5831,-5.3664],[39.581,-5.3673],[39.5828,-5.3711],[39.5845,-5.3676]]],[[[39.5731,-5.4086],[39.5718,-5.407],[39.5717,-5.4024],[39.5689,-5.3996],[39.5651,-5.3988],[39.563,-5.4024],[39.5672,-5.4081],[39.569,-5.4092],[39.5695,-5.4081],[39.5731,-5.4086]]],[[[39.6107,-5.241],[39.6087,-5.2348],[39.6048,-5.2349],[39.5974,-5.2446],[39.5948,-5.2531],[39.6012,-5.2438],[39.6107,-5.241]]],[[[39.6325,-5.3845],[39.6289,-5.3776],[39.6204,-5.373],[39.6181,-5.373],[39.6152,-5.3699],[39.6129,-5.3697],[39.6044,-5.3748],[39.6062,-5.3789],[39.6119,-5.3776],[39.6181,-5.3789],[39.623,-5.3874],[39.6289,-5.3892],[39.6325,-5.3845]]],[[[39.6682,-5.4681],[39.6583,-5.4506],[39.6195,-5.4518],[39.5993,-5.4119],[39.5698,-5.4133],[39.6328,-5.4813],[39.6682,-5.4681]]],[[[39.7348,-5.1974],[39.6745,-5.2144],[39.6487,-5.1888],[39.6737,-5.2176],[39.7567,-5.2472],[39.6904,-5.2526],[39.6872,-5.2888],[39.6545,-5.2886],[39.6737,-5.3251],[39.6443,-5.342],[39.6502,-5.3936],[39.6312,-5.4031],[39.643,-5.4369],[39.6752,-5.4283],[39.7048,-5.4564],[39.7037,-5.4338],[39.7265,-5.4375],[39.727,-5.4728],[39.7413,-5.4368],[39.7588,-5.4394],[39.7948,-5.3949],[39.7773,-5.3942],[39.7658,-5.421],[39.7575,-5.392],[39.7737,-5.3957],[39.7858,-5.3622],[39.8099,-5.3635],[39.7896,-5.3349],[39.8004,-5.3138],[39.8198,-5.3217],[39.835,-5.2753],[39.8076,-5.2789],[39.8369,-5.2701],[39.817,-5.2418],[39.8355,-5.2626],[39.8531,-5.2105],[39.7916,-5.1785],[39.7602,-5.2017],[39.7348,-5.1974]]]]},"properties":{"iso3":"TZA","shapeId":"36957248B25003810903493","regionId":null,"name":"South Pemba"}},{"type":"Feature","geometry":{"type":"Polygon","coordinates":[[[32.6557,-7.0088],[32.6934,-6.9772],[32.7135,-6.9269],[32.7445,-6.6111],[32.6981,-6.3612],[32.509,-6.3226],[32.4468,-6.2332],[32.3424,-6.1942],[32.3282,-6.1573],[32.2283,-6.0982],[32.1511,-5.9958],[32.0594,-5.7463],[31.8113,-5.6876],[31.7757,-5.6964],[31.6615,-5.7922],[31.2468,-5.786],[31.1815,-5.7498],[31.1552,-5.6894],[31.1654,-5.6216],[31.0808,-5.587],[31.0678,-5.5304],[30.9571,-5.4803],[30.6252,-5.2645],[30.3893,-5.1825],[30.3229,-5.2561],[29.9582,-5.3813],[30.0978,-5.4992],[30.1999,-5.932],[30.3342,-6.2187],[30.4087,-6.2242],[30.4223,-6.2414],[30.3817,-6.3079],[30.3968,-6.3421],[30.3855,-6.4218],[30.3238,-6.4536],[30.2233,-6.6116],[30.0067,-6.805],[30.1756,-6.9475],[30.2611,-7.0676],[30.548,-6.8861],[30.6409,-6.8886],[30.8497,-6.9381],[30.9475,-6.9829],[30.9855,-7.1243],[31.1938,-7.1394],[31.2559,-7.175],[31.3398,-7.5043],[31.4171,-7.5076],[31.4397,-7.4753],[31.4763,-7.4863],[31.5258,-7.5672],[31.6368,-7.6233],[31.7086,-7.6265],[31.7876,-7.7312],[31.9718,-7.745],[32.0652,-7.5787],[32.0875,-7.5046],[32.2041,-7.4662],[32.2654,-7.2779],[32.2526,-7.2414],[32.3721,-7.1631],[32.4562,-7.138],[32.4896,-7.1517],[32.5896,-7.0842],[32.6016,-7.0233],[32.6557,-7.0088]]]},"properties":{"iso3":"TZA","shapeId":"36957248B34051677343112","regionId":"TZA.7_1","name":"Katavi"}},{"type":"Feature","geometry":{"type":"Polygon","coordinates":[[[34.134,-9.5791],[34.3272,-9.7579],[34.5,-9.9897],[34.5415,-10.0672],[34.5205,-10.119],[34.5705,-10.2065],[34.5656,-10.2562],[34.5868,-10.309],[34.5605,-10.4325],[34.5719,-10.4606],[34.592,-10.4588],[34.5911,-10.4955],[34.6381,-10.5104],[34.7048,-10.4888],[34.798,-10.3849],[34.9609,-10.2924],[34.9838,-10.183],[35.1216,-10.1393],[35.1811,-9.9789],[35.2493,-9.9436],[35.1489,-9.8257],[35.1257,-9.746],[35.1412,-9.7219],[35.2301,-9.6909],[35.2795,-9.652],[35.3657,-9.5498],[35.6348,-9.3238],[35.6551,-9.2868],[35.6356,-9.2393],[35.4118,-9.0891],[35.3564,-9.0017],[35.2468,-9.0324],[35.138,-9.0177],[35.1182,-8.9211],[35.1231,-8.8128],[35.1072,-8.7998],[34.854,-8.7685],[34.8164,-8.7515],[34.8628,-8.6971],[34.7009,-8.6895],[34.6287,-8.6505],[34.5666,-8.7424],[34.461,-8.8108],[34.3795,-8.8162],[34.2779,-8.8672],[34.2478,-8.865],[34.151,-8.7959],[34.1122,-8.805],[34.036,-8.877],[33.868,-8.879],[33.8378,-8.8952],[33.8126,-8.9472],[33.7276,-9.0278],[33.8762,-9.0673],[33.9906,-9.2961],[34.1767,-9.5246],[34.134,-9.5791]]]},"properties":{"iso3":"TZA","shapeId":"36957248B16645806994912","regionId":"TZA.17_1","name":"Njombe"}},{"type":"Feature","geometry":{"type":"Polygon","coordinates":[[[31.1683,-3.3441],[31.2389,-3.7012],[31.3086,-3.7824],[31.3403,-3.9081],[31.3798,-3.9751],[31.4019,-4.126],[31.3909,-4.2475],[31.4019,-4.3426],[31.4262,-4.3806],[31.4562,-4.3488],[31.4641,-4.2511],[31.6515,-4.2471],[31.6739,-4.2299],[31.6975,-4.0009],[31.7213,-3.9755],[31.8327,-3.9492],[31.8819,-3.8318],[31.877,-3.7867],[31.9876,-3.7458],[32.0785,-3.7863],[32.1585,-3.7452],[32.191,-3.7748],[32.2198,-3.7328],[32.3671,-3.816],[32.37,-3.7216],[32.3989,-3.7183],[32.4162,-3.6541],[32.3952,-3.5971],[32.317,-3.6288],[32.3027,-3.5724],[32.3309,-3.52],[32.3306,-3.4718],[32.308,-3.4116],[32.3073,-3.3133],[32.3482,-3.3294],[32.3779,-3.2598],[32.4,-3.2629],[32.4831,-3.2025],[32.5223,-3.2011],[32.5452,-3.3017],[32.5026,-3.3938],[32.6973,-3.4596],[32.6854,-3.3258],[32.7394,-3.3119],[32.7865,-3.224],[32.7934,-3.1689],[32.7703,-3.1246],[32.7846,-3.0642],[32.7658,-3.0335],[32.777,-2.9954],[32.7584,-2.9871],[32.7228,-3.0114],[32.5801,-2.9324],[32.578,-2.8681],[32.5424,-2.8223],[32.554,-2.7989],[32.427,-2.7674],[32.4052,-2.7369],[32.4204,-2.684],[32.5186,-2.6586],[32.5156,-2.6305],[32.2694,-2.6077],[32.2114,-2.5021],[32.1893,-2.5223],[32.145,-2.521],[31.9986,-2.3866],[31.9385,-2.3573],[31.9012,-2.2184],[31.8635,-2.1598],[31.7523,-2.2079],[31.71,-2.3033],[31.6362,-2.3545],[31.6009,-2.4057],[31.5249,-2.4046],[31.5679,-2.5107],[31.5321,-2.5267],[31.4721,-2.5107],[31.4148,-2.5965],[31.4005,-2.6939],[31.4424,-2.6774],[31.471,-2.7114],[31.5547,-2.7103],[31.6009,-2.7648],[31.6719,-2.7444],[31.7138,-2.7961],[31.6955,-2.8482],[31.5858,-2.8839],[31.5705,-2.9358],[31.4989,-2.8948],[31.4769,-2.9103],[31.4662,-2.974],[31.4945,-3.003],[31.5022,-3.084],[31.5207,-3.1063],[31.5727,-3.1144],[31.5541,-3.2218],[31.5168,-3.2252],[31.4986,-3.2774],[31.4756,-3.278],[31.4423,-3.218],[31.3606,-3.21],[31.1683,-3.3441]]]},"properties":{"iso3":"TZA","shapeId":"36957248B67527021942185","regionId":"TZA.4_1","name":"Geita"}},{"type":"Feature","geometry":{"type":"Polygon","coordinates":[[[33.3587,-2.2966],[33.3565,-2.4845],[33.4595,-2.5318],[33.4752,-2.4891],[33.5153,-2.5174],[33.5654,-2.5074],[33.5861,-2.5692],[33.632,-2.5571],[33.6308,-2.6426],[33.7733,-2.7154],[33.7906,-2.8025],[33.7619,-2.8329],[33.7274,-2.8149],[33.6608,-2.8389],[33.6162,-2.8021],[33.5765,-2.8431],[33.5501,-2.8365],[33.5468,-2.8599],[33.5018,-2.8923],[33.5243,-2.9939],[33.4853,-3.0459],[33.4818,-3.1698],[33.4395,-3.2086],[33.4441,-3.2756],[33.4238,-3.304],[33.5583,-3.2887],[33.6102,-3.3704],[33.6677,-3.4196],[33.6747,-3.4569],[33.7159,-3.475],[33.7255,-3.535],[33.7666,-3.5667],[33.8273,-3.4945],[33.8555,-3.5118],[33.9037,-3.4941],[34.0074,-3.6022],[34.0697,-3.6065],[34.0593,-3.6429],[34.0935,-3.7187],[34.0812,-3.7439],[34.1703,-3.8464],[34.2343,-3.9718],[34.2102,-3.9949],[34.2023,-4.0754],[34.2632,-4.0636],[34.3093,-4.006],[34.3998,-4.0115],[34.4724,-3.9378],[34.6824,-3.873],[34.7902,-3.799],[34.8,-3.7844],[34.7723,-3.7591],[34.7824,-3.6871],[34.824,-3.6536],[34.8344,-3.6189],[34.8808,-3.6272],[34.8819,-2.9003],[34.9786,-2.9801],[34.9864,-3.0165],[35.0269,-3.0422],[35.0721,-3.0358],[35.0522,-2.9993],[35.0053,-2.976],[35.1361,-2.9082],[35.2245,-2.4975],[34.6027,-2.5249],[34.5232,-2.5128],[34.4246,-2.3959],[34.2286,-2.292],[34.1143,-2.2722],[33.9877,-2.2118],[33.829,-2.2003],[33.6353,-2.2549],[33.3587,-2.2966]]]},"properties":{"iso3":"TZA","shapeId":"36957248B66492463379082","regionId":null,"name":"Simiyu"}},{"type":"Feature","geometry":{"type":"Polygon","coordinates":[[[32.7448,-1.4622],[31.8635,-2.1598],[31.9012,-2.2184],[31.9385,-2.3573],[31.9986,-2.3866],[32.1058,-2.4936],[32.1509,-2.5221],[32.1893,-2.5223],[32.2114,-2.5021],[32.2694,-2.6077],[32.5156,-2.6305],[32.5186,-2.6586],[32.4204,-2.684],[32.4052,-2.7369],[32.4292,-2.7704],[32.554,-2.7989],[32.5424,-2.8223],[32.578,-2.8681],[32.5801,-2.9324],[32.7228,-3.0114],[32.7584,-2.9871],[32.777,-2.9954],[32.7703,-3.1246],[32.7937,-3.1746],[32.7757,-3.2521],[32.8428,-3.2323],[32.8561,-3.2649],[32.9164,-3.3035],[32.9181,-3.3347],[32.9603,-3.3411],[33.0167,-3.3918],[33.0622,-3.3946],[33.1002,-3.4351],[33.1311,-3.4378],[33.157,-3.4061],[33.2884,-3.3997],[33.3436,-3.3143],[33.4175,-3.312],[33.4441,-3.2756],[33.4395,-3.2086],[33.4818,-3.1698],[33.4853,-3.0459],[33.5243,-2.9939],[33.5018,-2.8923],[33.5468,-2.8599],[33.5501,-2.8365],[33.5765,-2.8431],[33.6162,-2.8021],[33.6608,-2.8389],[33.7274,-2.8149],[33.7619,-2.8329],[33.7894,-2.8147],[33.7873,-2.7534],[33.7733,-2.7154],[33.6308,-2.6426],[33.632,-2.5571],[33.5861,-2.5692],[33.5654,-2.5074],[33.5153,-2.5174],[33.4752,-2.4891],[33.4595,-2.5318],[33.3565,-2.4845],[33.3587,-2.2966],[33.2719,-2.2624],[33.2097,-2.1648],[33.1943,-2.0203],[33.2547,-1.938],[33.2786,-1.8337],[33.3648,-1.7811],[33.4509,-1.7572],[33.4682,-1.4662],[32.7448,-1.4622]]]},"properties":{"iso3":"TZA","shapeId":"36957248B97200142584881","regionId":"TZA.16_1","name":"Mwanza"}},{"type":"Feature","geometry":{"type":"Polygon","coordinates":[[[34.2023,-4.0754],[34.2102,-3.9949],[34.2343,-3.9718],[34.1703,-3.8464],[34.0812,-3.7439],[34.0935,-3.7187],[34.0593,-3.6429],[34.0697,-3.6065],[34.0074,-3.6022],[33.9037,-3.4941],[33.8555,-3.5118],[33.8273,-3.4945],[33.7666,-3.5667],[33.7255,-3.535],[33.7159,-3.475],[33.6747,-3.4569],[33.6677,-3.4196],[33.6102,-3.3704],[33.5583,-3.2887],[33.3436,-3.3143],[33.2884,-3.3997],[33.2174,-3.3927],[33.1048,-3.437],[33.0622,-3.3946],[33.0167,-3.3918],[32.9603,-3.3411],[32.9181,-3.3347],[32.9164,-3.3035],[32.8561,-3.2649],[32.8428,-3.2323],[32.7757,-3.2521],[32.7394,-3.3119],[32.6854,-3.3258],[32.6973,-3.4596],[32.5026,-3.3938],[32.5452,-3.3017],[32.53,-3.2074],[32.5095,-3.1978],[32.4391,-3.2212],[32.4,-3.2629],[32.3779,-3.2598],[32.3482,-3.3294],[32.3073,-3.3133],[32.308,-3.4116],[32.3306,-3.4718],[32.3309,-3.52],[32.3027,-3.5724],[32.317,-3.6288],[32.3952,-3.5971],[32.4162,-3.6541],[32.3989,-3.7183],[32.37,-3.7216],[32.3671,-3.816],[32.2198,-3.7328],[32.191,-3.7748],[32.1585,-3.7452],[32.0881,-3.7867],[32.0021,-3.7466],[31.9696,-3.7501],[31.877,-3.7867],[31.8819,-3.8318],[31.8327,-3.9492],[31.7124,-3.9794],[31.6836,-4.0555],[31.9399,-4.1267],[32.0008,-4.1887],[32.1027,-4.2474],[32.3262,-4.2714],[32.4007,-4.3266],[32.4201,-4.276],[32.4077,-4.2135],[32.4876,-4.2296],[32.5079,-4.1879],[32.5373,-4.176],[32.5808,-4.2037],[32.5908,-4.2883],[32.7476,-4.2383],[32.7308,-4.1888],[32.698,-4.1925],[32.6392,-4.1321],[32.6706,-4.1248],[32.692,-4.0889],[32.7042,-3.9474],[32.8132,-3.9526],[32.8498,-3.9183],[32.9223,-3.9281],[33.0134,-3.9086],[33.071,-3.9659],[33.1708,-3.9651],[33.3548,-3.8955],[33.4136,-3.8894],[33.4435,-3.9143],[33.6009,-3.8791],[33.6619,-3.8995],[33.6479,-3.9219],[33.6798,-3.9399],[33.7558,-3.9299],[33.7995,-3.9558],[33.9272,-3.9607],[33.9871,-4.0231],[34.0437,-4.0412],[34.092,-4.0268],[34.1668,-4.0771],[34.2023,-4.0754]]]},"properties":{"iso3":"TZA","shapeId":"36957248B79115240070229","regionId":"TZA.23_1","name":"Shinyanga"}}]}