{"type":"FeatureCollection","features":[{"type":"Feature","geometry":{"type":"Polygon","coordinates":[[[-57.8013,-30.7784],[-57.8096,-30.9133],[-57.8886,-30.9235],[-57.9071,-30.9452],[-57.865,-31.0257],[-57.8792,-31.0882],[-57.9083,-31.1185],[-57.9104,-31.219],[-57.9811,-31.3191],[-57.9964,-31.3596],[-57.9792,-31.3858],[-58.0814,-31.4546],[-58.0806,-31.4848],[-58.034,-31.5097],[-58.0199,-31.4867],[-57.9338,-31.5015],[-57.9574,-31.4597],[-57.9266,-31.4708],[-57.8805,-31.4525],[-57.8772,-31.468],[-57.8255,-31.4806],[-57.7846,-31.4752],[-57.7386,-31.571],[-57.6459,-31.5691],[-57.5673,-31.5931],[-57.464,-31.6512],[-57.3724,-31.6656],[-57.314,-31.7292],[-57.1516,-31.7838],[-56.9866,-31.7838],[-56.9009,-31.8047],[-56.8331,-31.7774],[-56.7794,-31.7848],[-56.7537,-31.8106],[-56.7331,-31.7987],[-56.678,-31.8316],[-56.587,-31.8316],[-56.5368,-31.8614],[-56.4532,-31.8713],[-56.4387,-31.8352],[-56.3896,-31.7981],[-56.3919,-31.7703],[-56.3017,-31.7399],[-56.3163,-31.6975],[-56.35,-31.6701],[-56.3374,-31.6205],[-56.3662,-31.5949],[-56.3251,-31.547],[-56.3122,-31.4868],[-56.1957,-31.386],[-56.1866,-31.3261],[-56.1538,-31.3014],[-56.185,-31.2456],[-56.0702,-31.1975],[-56.0099,-31.0827],[-56.0826,-31.0133],[-56.1414,-30.9942],[-56.1424,-30.9553],[-56.1801,-30.9314],[-56.3421,-30.9145],[-56.404,-30.877],[-56.4535,-30.9021],[-56.4622,-30.941],[-56.5467,-30.9887],[-56.6613,-31.0089],[-56.7016,-31.0401],[-56.7758,-31.0538],[-56.9863,-31.0388],[-57.0702,-31.0691],[-57.1744,-31.0257],[-57.2393,-30.9632],[-57.3566,-30.9305],[-57.481,-30.8499],[-57.5816,-30.8574],[-57.6366,-30.7943],[-57.7074,-30.754],[-57.7713,-30.7415],[-57.7699,-30.7699],[-57.8013,-30.7784]]]},"properties":{"iso3":"URY","shapeId":"27058087B51474914010310","regionId":"URY.15_1","name":"Salto"}},{"type":"Feature","geometry":{"type":"Polygon","coordinates":[[[-56.0099,-31.0827],[-56.0152,-30.9428],[-55.9896,-30.8585],[-56.0224,-30.7857],[-56.0618,-30.7746],[-56.0683,-30.7468],[-56.0886,-30.7572],[-56.1067,-30.7317],[-56.1322,-30.732],[-56.1505,-30.7048],[-56.1374,-30.6839],[-56.1824,-30.6278],[-56.1707,-30.6152],[-56.2192,-30.6075],[-56.2357,-30.5741],[-56.261,-30.5851],[-56.2577,-30.562],[-56.2816,-30.5602],[-56.2919,-30.5197],[-56.3222,-30.5313],[-56.3559,-30.4912],[-56.3818,-30.4996],[-56.406,-30.4693],[-56.3971,-30.4495],[-56.4534,-30.4226],[-56.4613,-30.3849],[-56.4899,-30.3984],[-56.5187,-30.3602],[-56.5463,-30.3603],[-56.5411,-30.3129],[-56.5564,-30.3195],[-56.5764,-30.2888],[-56.6187,-30.3005],[-56.6106,-30.2657],[-56.6396,-30.2585],[-56.6244,-30.2462],[-56.668,-30.2184],[-56.6463,-30.2035],[-56.6974,-30.2049],[-56.7053,-30.1764],[-56.7755,-30.1641],[-56.7803,-30.1265],[-56.841,-30.0906],[-56.8864,-30.0877],[-56.905,-30.1135],[-56.9314,-30.094],[-57.0223,-30.0873],[-57.0454,-30.1055],[-57.0705,-30.0863],[-57.0907,-30.1211],[-57.1161,-30.114],[-57.1059,-30.1353],[-57.1296,-30.1414],[-57.168,-30.1981],[-57.1553,-30.2345],[-57.2208,-30.2893],[-57.2495,-30.2893],[-57.2598,-30.2672],[-57.284,-30.294],[-57.3135,-30.2578],[-57.353,-30.285],[-57.3727,-30.2749],[-57.3923,-30.3047],[-57.4203,-30.3021],[-57.4163,-30.2783],[-57.4649,-30.2661],[-57.5243,-30.2857],[-57.5665,-30.259],[-57.5609,-30.2113],[-57.6321,-30.1874],[-57.6492,-30.2018],[-57.6156,-30.2525],[-57.6478,-30.349],[-57.8922,-30.513],[-57.887,-30.5819],[-57.8471,-30.6126],[-57.8038,-30.7092],[-57.8013,-30.7784],[-57.7699,-30.7699],[-57.7713,-30.7415],[-57.7074,-30.754],[-57.6366,-30.7943],[-57.5816,-30.8574],[-57.481,-30.8499],[-57.3566,-30.9305],[-57.2393,-30.9632],[-57.1744,-31.0257],[-57.0702,-31.0691],[-56.9863,-31.0388],[-56.7758,-31.0538],[-56.7016,-31.0401],[-56.6613,-31.0089],[-56.5467,-30.9887],[-56.4622,-30.941],[-56.4535,-30.9021],[-56.404,-30.877],[-56.3421,-30.9145],[-56.1801,-30.9314],[-56.1424,-30.9553],[-56.1414,-30.9942],[-56.0826,-31.0133],[-56.0099,-31.0827]]]},"properties":{"iso3":"URY","shapeId":"27058087B22084813565519","regionId":"URY.1_1","name":"Artigas"}},{"type":"Feature","geometry":{"type":"Polygon","coordinates":[[[-56.3917,-34.4264],[-56.4195,-34.4659],[-56.3916,-34.5104],[-56.4042,-34.5304],[-56.4449,-34.5334],[-56.4921,-34.5789],[-56.4856,-34.6483],[-56.451,-34.688],[-56.3544,-34.7266],[-56.309,-34.7032],[-56.231,-34.7701],[-56.1916,-34.7214],[-56.1261,-34.7176],[-56.0974,-34.7761],[-56.0467,-34.7604],[-56.0292,-34.7772],[-56.0608,-34.8658],[-56.0306,-34.8796],[-55.7881,-34.7715],[-55.7521,-34.7813],[-55.6848,-34.7618],[-55.5282,-34.7978],[-55.3949,-34.7902],[-55.4223,-34.7501],[-55.4545,-34.7472],[-55.4415,-34.6839],[-55.4835,-34.6586],[-55.4739,-34.6058],[-55.4951,-34.5808],[-55.4965,-34.5379],[-55.5561,-34.4797],[-55.5341,-34.3886],[-55.5717,-34.3558],[-55.6264,-34.2068],[-55.7598,-34.2173],[-55.8502,-34.2814],[-55.918,-34.267],[-55.953,-34.2822],[-56.0489,-34.2593],[-56.1282,-34.2963],[-56.1837,-34.3872],[-56.3309,-34.3473],[-56.3852,-34.3699],[-56.3917,-34.4264]]]},"properties":{"iso3":"URY","shapeId":"27058087B19329078127106","regionId":"URY.2_1","name":"Canelones"}},{"type":"Feature","geometry":{"type":"Polygon","coordinates":[[[-56.185,-31.2456],[-56.089,-31.2356],[-55.9063,-31.3521],[-55.8253,-31.3595],[-55.7995,-31.3973],[-55.808,-31.4775],[-55.7402,-31.5309],[-55.673,-31.5397],[-55.6837,-31.5689],[-55.6515,-31.5917],[-55.6698,-31.618],[-55.6394,-31.6372],[-55.6613,-31.7169],[-55.6305,-31.7416],[-55.642,-31.7632],[-55.629,-31.7975],[-55.5732,-31.7737],[-55.5084,-31.7908],[-55.3657,-31.7739],[-55.1751,-31.8224],[-55.1287,-31.8067],[-55.0717,-31.8098],[-55.0415,-31.8307],[-54.9538,-31.8147],[-54.8956,-31.8295],[-54.8673,-31.8755],[-54.8461,-31.8773],[-54.7751,-31.9916],[-54.6674,-32.11],[-54.6021,-32.1067],[-54.5442,-32.0644],[-54.5564,-32.0395],[-54.5265,-32.0157],[-54.548,-31.9747],[-54.455,-31.8041],[-54.4865,-31.7436],[-54.4528,-31.5996],[-54.5157,-31.5102],[-54.5758,-31.4814],[-54.5868,-31.4566],[-54.6706,-31.4538],[-54.7522,-31.4245],[-54.8367,-31.442],[-54.8862,-31.3773],[-54.9409,-31.3807],[-54.9352,-31.3565],[-54.9602,-31.3515],[-54.9533,-31.3319],[-55.0072,-31.2669],[-55.0319,-31.2698],[-55.0574,-31.3318],[-55.0745,-31.3322],[-55.1693,-31.2695],[-55.24,-31.2606],[-55.2501,-31.2061],[-55.2827,-31.194],[-55.2709,-31.177],[-55.2912,-31.1423],[-55.3404,-31.1314],[-55.3277,-31.0882],[-55.3599,-31.0675],[-55.3498,-31.0392],[-55.374,-31.0192],[-55.4231,-31.0182],[-55.4414,-30.9597],[-55.4868,-30.9476],[-55.4884,-30.9257],[-55.5458,-30.8906],[-55.5774,-30.8331],[-55.6583,-30.864],[-55.6423,-30.9116],[-55.6662,-30.954],[-55.7232,-30.9427],[-55.7285,-30.9797],[-55.773,-30.997],[-55.7758,-31.0153],[-55.8135,-31.016],[-55.8834,-31.0765],[-56.0099,-31.0827],[-56.0702,-31.1975],[-56.185,-31.2456]]]},"properties":{"iso3":"URY","shapeId":"27058087B52084370772895","regionId":"URY.13_1","name":"Rivera"}},{"type":"Feature","geometry":{"type":"Polygon","coordinates":[[[-56.3544,-34.7266],[-56.3415,-34.7515],[-56.3566,-34.7943],[-56.4312,-34.8298],[-56.3401,-34.8707],[-56.3157,-34.9048],[-56.2967,-34.8931],[-56.2564,-34.9061],[-56.2468,-34.8773],[-56.2155,-34.8739],[-56.1972,-34.8968],[-56.223,-34.9135],[-56.1715,-34.9148],[-56.1605,-34.9381],[-56.1192,-34.8987],[-56.0646,-34.8997],[-56.0225,-34.8778],[-56.0608,-34.8658],[-56.0292,-34.7772],[-56.0467,-34.7604],[-56.0974,-34.7761],[-56.1261,-34.7176],[-56.1916,-34.7214],[-56.231,-34.7701],[-56.309,-34.7032],[-56.3544,-34.7266]]]},"properties":{"iso3":"URY","shapeId":"27058087B97113143242340","regionId":"URY.10_1","name":"Montevideo"}},{"type":"Feature","geometry":{"type":"Polygon","coordinates":[[[-55.4025,-34.7912],[-55.3198,-34.823],[-55.2612,-34.9045],[-55.064,-34.8802],[-55.0407,-34.893],[-55.0474,-34.9165],[-54.965,-34.9261],[-54.9416,-34.95],[-54.9525,-34.9739],[-54.884,-34.9265],[-54.7053,-34.8532],[-54.6349,-34.8485],[-54.5473,-34.7872],[-54.5442,-34.7524],[-54.5245,-34.7527],[-54.5393,-34.6084],[-54.5025,-34.5475],[-54.5791,-34.4206],[-54.5515,-34.4101],[-54.5562,-34.3833],[-54.5051,-34.405],[-54.487,-34.3582],[-54.4909,-34.168],[-54.4678,-34.1529],[-54.4834,-34.1158],[-54.4639,-34.0802],[-54.4687,-34.0352],[-54.4932,-34.0144],[-54.484,-33.929],[-54.5394,-33.9436],[-54.5468,-33.995],[-54.5787,-34.0111],[-54.5854,-34.0371],[-54.6701,-34.0413],[-54.7163,-34.0676],[-54.7243,-34.1378],[-54.7791,-34.1872],[-54.7811,-34.2651],[-54.7938,-34.2898],[-54.8157,-34.2841],[-54.8503,-34.4073],[-54.9301,-34.4131],[-54.9634,-34.4424],[-54.9934,-34.4321],[-55.1064,-34.5132],[-55.1474,-34.4925],[-55.1906,-34.5043],[-55.2208,-34.5457],[-55.3247,-34.5751],[-55.3146,-34.6304],[-55.4803,-34.627],[-55.4835,-34.6586],[-55.4415,-34.6839],[-55.4545,-34.7472],[-55.4223,-34.7501],[-55.4025,-34.7912]]]},"properties":{"iso3":"URY","shapeId":"27058087B438131503863","regionId":"URY.9_1","name":"Maldonado"}},{"type":"Feature","geometry":{"type":"Polygon","coordinates":[[[-55.4803,-34.627],[-55.3146,-34.6304],[-55.3247,-34.5751],[-55.2208,-34.5457],[-55.1906,-34.5043],[-55.1474,-34.4925],[-55.1064,-34.5132],[-54.9934,-34.4321],[-54.9634,-34.4424],[-54.9301,-34.4131],[-54.8503,-34.4073],[-54.8157,-34.2841],[-54.7938,-34.2898],[-54.7811,-34.2651],[-54.7791,-34.1872],[-54.7243,-34.1378],[-54.7163,-34.0676],[-54.6701,-34.0413],[-54.5854,-34.0371],[-54.5787,-34.0111],[-54.5468,-33.995],[-54.5394,-33.9436],[-54.4884,-33.9349],[-54.4814,-33.901],[-54.4469,-33.8952],[-54.4241,-33.8281],[-54.4404,-33.8136],[-54.4319,-33.7933],[-54.3752,-33.7379],[-54.3928,-33.6993],[-54.3813,-33.6273],[-54.3033,-33.6043],[-54.2667,-33.5487],[-54.2361,-33.543],[-54.2185,-33.4876],[-54.1401,-33.4809],[-54.1291,-33.4585],[-54.2009,-33.4485],[-54.3235,-33.351],[-54.3238,-33.3641],[-54.3697,-33.3683],[-54.3835,-33.3964],[-54.4317,-33.3821],[-54.4608,-33.4418],[-54.5185,-33.4526],[-54.5935,-33.4243],[-54.7073,-33.4221],[-54.8284,-33.3194],[-54.8751,-33.3334],[-54.8809,-33.3563],[-54.9221,-33.3491],[-54.9489,-33.373],[-54.9576,-33.3547],[-54.9996,-33.3574],[-55.0015,-33.3393],[-55.0914,-33.3501],[-55.1062,-33.3735],[-55.0962,-33.4282],[-55.1248,-33.4318],[-55.1496,-33.4682],[-55.1429,-33.5097],[-55.2115,-33.5091],[-55.2429,-33.589],[-55.3324,-33.609],[-55.3589,-33.6415],[-55.3395,-33.7008],[-55.3045,-33.7106],[-55.3199,-33.7321],[-55.3017,-33.7634],[-55.3153,-33.8116],[-55.3435,-33.8296],[-55.3672,-33.9035],[-55.391,-33.9113],[-55.4498,-34.0075],[-55.4396,-34.0264],[-55.4839,-34.0578],[-55.5201,-34.0582],[-55.5519,-34.1098],[-55.5491,-34.1371],[-55.6242,-34.208],[-55.5717,-34.3558],[-55.5341,-34.3886],[-55.5561,-34.4797],[-55.4965,-34.5379],[-55.4803,-34.627]]]},"properties":{"iso3":"URY","shapeId":"27058087B10223787783888","regionId":"URY.8_1","name":"Lavalleja"}},{"type":"Feature","geometry":{"type":"Polygon","coordinates":[[[-55.6242,-34.208],[-55.5491,-34.1371],[-55.5519,-34.1098],[-55.5201,-34.0582],[-55.4839,-34.0578],[-55.4396,-34.0264],[-55.4498,-34.0075],[-55.391,-33.9113],[-55.3672,-33.9035],[-55.3435,-33.8296],[-55.3153,-33.8116],[-55.3017,-33.7634],[-55.3199,-33.7321],[-55.3045,-33.7106],[-55.3395,-33.7008],[-55.3589,-33.6415],[-55.3324,-33.609],[-55.2429,-33.589],[-55.2115,-33.5091],[-55.1429,-33.5097],[-55.1549,-33.4861],[-55.1286,-33.4455],[-55.1534,-33.4247],[-55.1587,-33.3775],[-55.13,-33.3391],[-55.1421,-33.3159],[-55.0982,-33.2737],[-55.1398,-33.2313],[-55.1174,-33.1946],[-55.1382,-33.102],[-55.1787,-33.1079],[-55.2502,-33.2016],[-55.3136,-33.193],[-55.3496,-33.2256],[-55.4342,-33.2544],[-55.467,-33.2893],[-55.5371,-33.289],[-55.5554,-33.3164],[-55.6149,-33.3342],[-55.6366,-33.3777],[-55.6948,-33.3692],[-55.7153,-33.3453],[-55.8038,-33.4135],[-55.8825,-33.4316],[-55.9328,-33.4068],[-56.0347,-33.4322],[-56.0493,-33.4726],[-56.0935,-33.4949],[-56.1892,-33.4602],[-56.2371,-33.4894],[-56.2779,-33.435],[-56.3894,-33.426],[-56.4069,-33.3808],[-56.4371,-33.4035],[-56.418,-33.472],[-56.4301,-33.5016],[-56.5364,-33.4927],[-56.5162,-33.5091],[-56.524,-33.5546],[-56.4578,-33.7449],[-56.4235,-33.7524],[-56.4304,-33.8141],[-56.3963,-33.8365],[-56.4102,-33.8744],[-56.4542,-33.9025],[-56.4585,-33.9412],[-56.4441,-33.9647],[-56.421,-33.9648],[-56.4149,-34.0624],[-56.3974,-34.0752],[-56.4555,-34.1898],[-56.4101,-34.2351],[-56.4297,-34.2733],[-56.4248,-34.3352],[-56.4708,-34.3592],[-56.4331,-34.3816],[-56.4228,-34.4121],[-56.3917,-34.4264],[-56.3852,-34.3699],[-56.3309,-34.3473],[-56.1837,-34.3872],[-56.1282,-34.2963],[-56.0489,-34.2593],[-55.953,-34.2822],[-55.918,-34.267],[-55.8502,-34.2814],[-55.7598,-34.2173],[-55.6242,-34.208]]]},"properties":{"iso3":"URY","shapeId":"27058087B4606463382645","regionId":"URY.7_1","name":"Florida"}},{"type":"Feature","geometry":{"type":"Polygon","coordinates":[[[-56.3917,-34.4264],[-56.4706,-34.3631],[-56.4248,-34.3352],[-56.4297,-34.2733],[-56.4101,-34.2351],[-56.4555,-34.1898],[-56.3974,-34.0752],[-56.4149,-34.0624],[-56.421,-33.9648],[-56.4547,-33.9555],[-56.4486,-33.9096],[-56.4908,-33.8772],[-56.594,-33.8321],[-56.6569,-33.891],[-56.7956,-33.9408],[-56.8297,-33.9842],[-57.0844,-33.9678],[-57.1025,-33.9799],[-57.0862,-34.0333],[-57.0525,-34.0441],[-56.9823,-34.1275],[-57.0502,-34.1929],[-57.1036,-34.2119],[-57.1181,-34.2767],[-57.091,-34.3035],[-57.1033,-34.3211],[-57.0915,-34.3395],[-57.1108,-34.3484],[-57.1127,-34.4091],[-57.1526,-34.4488],[-57.1078,-34.4618],[-57.0596,-34.5268],[-56.9992,-34.5547],[-56.895,-34.6556],[-56.8208,-34.6883],[-56.6439,-34.7201],[-56.5593,-34.7594],[-56.4559,-34.7515],[-56.3491,-34.7827],[-56.3415,-34.7515],[-56.3632,-34.7141],[-56.451,-34.688],[-56.488,-34.6439],[-56.477,-34.6116],[-56.4921,-34.5789],[-56.3916,-34.5104],[-56.4195,-34.4659],[-56.3917,-34.4264]]]},"properties":{"iso3":"URY","shapeId":"27058087B9919519605551","regionId":"URY.16_1","name":"San José"}},{"type":"Feature","geometry":{"type":"Polygon","coordinates":[[[-54.1291,-33.4585],[-54.0512,-33.4454],[-54.0409,-33.4174],[-53.9861,-33.3975],[-53.9906,-33.3668],[-53.9695,-33.34],[-53.8901,-33.3216],[-53.8523,-33.2589],[-53.8394,-33.2756],[-53.8023,-33.2592],[-53.7989,-33.2043],[-53.626,-33.1508],[-53.6446,-33.1239],[-53.6016,-33.0917],[-53.6215,-33.0603],[-53.5971,-33.0468],[-53.573,-33.0743],[-53.592,-33.0918],[-53.5705,-33.0854],[-53.5723,-33.0432],[-53.5252,-33.0071],[-53.499,-32.9471],[-53.3305,-32.9333],[-53.3722,-32.9248],[-53.3205,-32.8952],[-53.3505,-32.8826],[-53.3027,-32.8765],[-53.293,-32.833],[-53.309,-32.7703],[-53.3431,-32.7589],[-53.3793,-32.7887],[-53.4417,-32.7516],[-53.473,-32.7651],[-53.4975,-32.7462],[-53.5094,-32.7614],[-53.5654,-32.7516],[-53.602,-32.771],[-53.6744,-32.7482],[-53.8387,-32.7782],[-53.9393,-32.706],[-53.9777,-32.6983],[-54.0268,-32.7195],[-54.0524,-32.7577],[-54.0338,-32.8148],[-54.1276,-32.7825],[-54.1296,-32.7615],[-54.1544,-32.7739],[-54.1585,-32.7531],[-54.1984,-32.7567],[-54.2366,-32.7309],[-54.2864,-32.7367],[-54.3406,-32.7116],[-54.3792,-32.7235],[-54.3899,-32.7666],[-54.4245,-32.7526],[-54.4379,-32.7788],[-54.4823,-32.7941],[-54.5086,-32.7813],[-54.531,-32.8106],[-54.5771,-32.8009],[-54.6242,-32.8469],[-54.6893,-32.7943],[-54.7448,-32.8397],[-54.8551,-32.8515],[-54.9032,-32.9105],[-54.9615,-32.9109],[-55.0076,-32.9336],[-55.0324,-32.9746],[-55.0058,-33.0018],[-55.0185,-33.0387],[-55.1346,-33.1045],[-55.1174,-33.1946],[-55.1398,-33.2313],[-55.0982,-33.2737],[-55.1421,-33.3159],[-55.13,-33.3391],[-55.1587,-33.3775],[-55.1534,-33.4247],[-55.1286,-33.4455],[-55.0962,-33.4282],[-55.1062,-33.3735],[-55.0914,-33.3501],[-55.0015,-33.3393],[-54.9996,-33.3574],[-54.9576,-33.3547],[-54.9489,-33.373],[-54.9221,-33.3491],[-54.8809,-33.3563],[-54.8751,-33.3334],[-54.8284,-33.3194],[-54.7073,-33.4221],[-54.5935,-33.4243],[-54.5185,-33.4526],[-54.4635,-33.4434],[-54.4317,-33.3821],[-54.3835,-33.3964],[-54.3697,-33.3683],[-54.3238,-33.3641],[-54.3235,-33.351],[-54.2009,-33.4485],[-54.1291,-33.4585]]]},"properties":{"iso3":"URY","shapeId":"27058087B85503990233673","regionId":"URY.19_1","name":"Treinta y Tres"}},{"type":"Feature","geometry":{"type":"Polygon","coordinates":[[[-56.5364,-33.4927],[-56.5648,-33.4766],[-56.5809,-33.4025],[-56.6236,-33.393],[-56.6261,-33.355],[-56.6776,-33.3157],[-56.6742,-33.2944],[-56.7267,-33.2707],[-56.7441,-33.2861],[-56.7687,-33.2664],[-56.7978,-33.2814],[-56.8125,-33.2635],[-56.8601,-33.2615],[-56.8477,-33.2396],[-56.88,-33.1913],[-56.9896,-33.1844],[-57.0067,-33.1593],[-57.0184,-33.1778],[-57.0818,-33.1692],[-57.1145,-33.1196],[-57.1578,-33.1259],[-57.1762,-33.1876],[-57.206,-33.1917],[-57.2125,-33.2238],[-57.2347,-33.2196],[-57.2783,-33.2595],[-57.3068,-33.2941],[-57.3079,-33.3272],[-57.3392,-33.338],[-57.3609,-33.3761],[-57.2935,-33.4239],[-57.2906,-33.4701],[-57.2546,-33.4873],[-57.2425,-33.5447],[-57.1593,-33.6096],[-57.2023,-33.7256],[-57.1778,-33.7854],[-57.1211,-33.8406],[-57.1184,-33.9003],[-57.0892,-33.9535],[-57.0974,-33.9831],[-57.0844,-33.9678],[-56.8297,-33.9842],[-56.7956,-33.9408],[-56.6569,-33.891],[-56.594,-33.8321],[-56.4594,-33.9007],[-56.4326,-33.8954],[-56.3963,-33.8365],[-56.4304,-33.8141],[-56.4235,-33.7524],[-56.4578,-33.7449],[-56.524,-33.5546],[-56.5162,-33.5091],[-56.5364,-33.4927]]]},"properties":{"iso3":"URY","shapeId":"27058087B64628270573025","regionId":"URY.6_1","name":"Flores"}},{"type":"Feature","geometry":{"type":"Polygon","coordinates":[[[-55.1346,-33.1045],[-55.0395,-33.0607],[-55.0058,-33.0018],[-55.0746,-32.9984],[-55.1214,-33.0269],[-55.1649,-33.0095],[-55.1588,-33.0276],[-55.1855,-33.0258],[-55.2326,-32.9538],[-55.2748,-32.9439],[-55.321,-32.8916],[-55.3236,-32.8067],[-55.3522,-32.7876],[-55.3535,-32.7583],[-55.3166,-32.7476],[-55.3362,-32.6555],[-55.292,-32.5645],[-55.3155,-32.5076],[-55.3058,-32.4926],[-55.3765,-32.4756],[-55.382,-32.4596],[-55.414,-32.4761],[-55.4352,-32.409],[-55.4747,-32.412],[-55.4932,-32.4445],[-55.4775,-32.5014],[-55.6432,-32.4791],[-55.6838,-32.5359],[-55.71,-32.5232],[-55.7115,-32.4953],[-55.7772,-32.4989],[-55.7524,-32.5205],[-55.7695,-32.5643],[-55.7986,-32.5637],[-55.7757,-32.5922],[-55.815,-32.5937],[-55.8093,-32.6216],[-55.8445,-32.628],[-55.9249,-32.6022],[-56.0048,-32.6861],[-56.1798,-32.6923],[-56.2054,-32.7069],[-56.1896,-32.7303],[-56.2206,-32.7669],[-56.3276,-32.8177],[-56.4214,-32.8222],[-56.4266,-32.866],[-56.446,-32.8169],[-56.4889,-32.8019],[-56.5005,-32.8225],[-56.5391,-32.8083],[-56.5628,-32.8427],[-56.5741,-32.8301],[-56.5576,-32.8103],[-56.5904,-32.8058],[-56.6476,-32.8642],[-56.6654,-32.8513],[-56.6524,-32.8131],[-56.6889,-32.7957],[-56.6951,-32.8461],[-56.7365,-32.8301],[-56.7353,-32.8496],[-56.7617,-32.8531],[-56.7883,-32.8363],[-56.8103,-32.8591],[-56.7949,-32.8743],[-56.8251,-32.8707],[-56.8359,-32.8893],[-56.8168,-32.9191],[-56.8518,-32.9054],[-56.8891,-32.9312],[-56.8675,-32.9662],[-56.908,-32.9733],[-56.9363,-32.9339],[-56.9569,-32.9619],[-56.9379,-32.9799],[-56.9986,-32.9707],[-56.9658,-32.9957],[-56.9708,-33.0316],[-57.0778,-32.991],[-57.2003,-33.0465],[-57.1844,-33.0802],[-57.1315,-33.0782],[-57.1279,-33.119],[-57.103,-33.1279],[-57.0818,-33.1692],[-57.0184,-33.1778],[-57.0067,-33.1593],[-56.9896,-33.1844],[-56.912,-33.1795],[-56.9091,-33.1979],[-56.8712,-33.2003],[-56.8477,-33.2396],[-56.8601,-33.2615],[-56.8125,-33.2635],[-56.7978,-33.2814],[-56.7687,-33.2664],[-56.7441,-33.2861],[-56.7267,-33.2707],[-56.6742,-33.2944],[-56.6776,-33.3157],[-56.6261,-33.355],[-56.6236,-33.393],[-56.5809,-33.4025],[-56.554,-33.4897],[-56.5112,-33.4848],[-56.483,-33.5073],[-56.4235,-33.4927],[-56.4371,-33.4035],[-56.4069,-33.3808],[-56.3894,-33.426],[-56.2779,-33.435],[-56.2371,-33.4894],[-56.1892,-33.4602],[-56.0935,-33.4949],[-56.0493,-33.4726],[-56.0347,-33.4322],[-55.9328,-33.4068],[-55.8825,-33.4316],[-55.8038,-33.4135],[-55.7153,-33.3453],[-55.6948,-33.3692],[-55.6366,-33.3777],[-55.6149,-33.3342],[-55.5554,-33.3164],[-55.5371,-33.289],[-55.467,-33.2893],[-55.4342,-33.2544],[-55.3496,-33.2256],[-55.3136,-33.193],[-55.2502,-33.2016],[-55.1787,-33.1079],[-55.1346,-33.1045]]]},"properties":{"iso3":"URY","shapeId":"27058087B99783771080652","regionId":"URY.5_1","name":"Durazno"}},{"type":"Feature","geometry":{"type":"Polygon","coordinates":[[[-57.1423,-33.12],[-57.1674,-33.114],[-57.2206,-33.1413],[-57.2412,-33.1179],[-57.2709,-33.1321],[-57.3061,-33.0917],[-57.3811,-33.0662],[-57.4315,-33.092],[-57.4595,-33.0242],[-57.5301,-33.0001],[-57.6224,-33.0419],[-57.6283,-33.0812],[-57.7459,-33.0388],[-57.7907,-33.0563],[-57.8687,-33.0189],[-57.8769,-33.041],[-57.9545,-33.0716],[-57.9429,-33.112],[-57.956,-33.1355],[-58.0445,-33.116],[-58.0547,-33.1367],[-58.013,-33.2411],[-58.1201,-33.2278],[-58.1364,-33.2439],[-58.1113,-33.2882],[-58.1292,-33.3051],[-58.226,-33.2978],[-58.2899,-33.3678],[-58.3839,-33.3898],[-58.4427,-33.4414],[-58.444,-33.5367],[-58.4948,-33.5818],[-58.4351,-33.7166],[-58.432,-33.8414],[-58.3494,-33.8549],[-58.3399,-33.8361],[-58.2916,-33.8397],[-58.2428,-33.7963],[-58.1649,-33.7965],[-58.1254,-33.7646],[-58.0577,-33.8138],[-58.0268,-33.816],[-57.9684,-33.8841],[-57.931,-33.8574],[-57.8719,-33.8664],[-57.8285,-33.877],[-57.7736,-33.9257],[-57.7493,-33.9156],[-57.6137,-33.9535],[-57.5392,-33.9171],[-57.477,-33.9151],[-57.4301,-33.8843],[-57.3626,-33.8736],[-57.304,-33.927],[-57.2278,-33.9138],[-57.1442,-33.9516],[-57.0892,-33.9535],[-57.1184,-33.9003],[-57.1291,-33.8249],[-57.1976,-33.7494],[-57.2021,-33.7143],[-57.1643,-33.6539],[-57.1593,-33.6096],[-57.2425,-33.5447],[-57.2546,-33.4873],[-57.2906,-33.4701],[-57.2935,-33.4239],[-57.3609,-33.3761],[-57.3392,-33.338],[-57.3079,-33.3272],[-57.3068,-33.2941],[-57.2783,-33.2595],[-57.2347,-33.2196],[-57.2125,-33.2238],[-57.206,-33.1917],[-57.1762,-33.1876],[-57.1788,-33.1657],[-57.1423,-33.12]]]},"properties":{"iso3":"URY","shapeId":"27058087B69444591785940","regionId":"URY.17_1","name":"Soriano"}},{"type":"Feature","geometry":{"type":"Polygon","coordinates":[[[-57.1025,-33.9799],[-57.0964,-33.9516],[-57.1442,-33.9516],[-57.2278,-33.9138],[-57.304,-33.927],[-57.3626,-33.8736],[-57.4301,-33.8843],[-57.477,-33.9151],[-57.5392,-33.9171],[-57.6137,-33.9535],[-57.7493,-33.9156],[-57.7736,-33.9257],[-57.8285,-33.877],[-57.8719,-33.8664],[-57.931,-33.8574],[-57.9684,-33.8841],[-58.0268,-33.816],[-58.0577,-33.8138],[-58.1254,-33.7646],[-58.1649,-33.7965],[-58.2428,-33.7963],[-58.2916,-33.8397],[-58.3399,-33.8361],[-58.3494,-33.8549],[-58.432,-33.8414],[-58.4228,-33.9163],[-58.329,-33.9677],[-58.2921,-34.0266],[-58.2322,-34.075],[-58.21,-34.1653],[-58.0755,-34.1898],[-58.0616,-34.2337],[-57.9963,-34.2615],[-57.9203,-34.3456],[-57.8967,-34.3789],[-57.895,-34.426],[-57.8518,-34.4492],[-57.8429,-34.4762],[-57.5953,-34.4253],[-57.5372,-34.4553],[-57.4669,-34.4272],[-57.4412,-34.4425],[-57.3893,-34.427],[-57.1521,-34.4467],[-57.1127,-34.4091],[-57.1108,-34.3484],[-57.0915,-34.3395],[-57.1033,-34.3211],[-57.091,-34.3035],[-57.1181,-34.2767],[-57.1036,-34.2119],[-57.0502,-34.1929],[-56.9823,-34.1275],[-57.0525,-34.0441],[-57.0862,-34.0333],[-57.1025,-33.9799]]]},"properties":{"iso3":"URY","shapeId":"27058087B79494286721501","regionId":"URY.4_1","name":"Colonia"}},{"type":"Feature","geometry":{"type":"Polygon","coordinates":[[[-54.5661,-34.8018],[-54.2228,-34.6661],[-54.1521,-34.6691],[-54.1468,-34.6193],[-54.0814,-34.5542],[-53.8624,-34.43],[-53.7767,-34.4061],[-53.7619,-34.3586],[-53.7918,-34.3253],[-53.7766,-34.2741],[-53.6943,-34.1793],[-53.5339,-34.0445],[-53.5426,-34.0247],[-53.5061,-33.9459],[-53.5033,-33.8877],[-53.3694,-33.7444],[-53.4305,-33.7395],[-53.4395,-33.6935],[-53.5323,-33.6888],[-53.5324,-33.5433],[-53.5687,-33.5109],[-53.5996,-33.426],[-53.5654,-33.3527],[-53.5984,-33.3582],[-53.6025,-33.3237],[-53.5698,-33.2619],[-53.5835,-33.2812],[-53.6096,-33.2724],[-53.6641,-33.1983],[-53.6497,-33.1718],[-53.6059,-33.1794],[-53.6194,-33.1516],[-53.7989,-33.2043],[-53.8023,-33.2592],[-53.8394,-33.2756],[-53.8523,-33.2589],[-53.8901,-33.3216],[-53.9695,-33.34],[-54.0045,-33.412],[-54.0409,-33.4174],[-54.0512,-33.4454],[-54.1123,-33.4441],[-54.1401,-33.4809],[-54.2185,-33.4876],[-54.2361,-33.543],[-54.2667,-33.5487],[-54.3033,-33.6043],[-54.3813,-33.6273],[-54.3928,-33.6993],[-54.3752,-33.7379],[-54.4319,-33.7933],[-54.4404,-33.8136],[-54.4241,-33.8281],[-54.4469,-33.8952],[-54.4851,-33.909],[-54.4932,-34.0144],[-54.4687,-34.0352],[-54.4639,-34.0802],[-54.4834,-34.1158],[-54.4678,-34.1529],[-54.4909,-34.168],[-54.4945,-34.3902],[-54.5089,-34.4051],[-54.5232,-34.3849],[-54.5562,-34.3833],[-54.5515,-34.4101],[-54.5791,-34.4206],[-54.5401,-34.4641],[-54.5359,-34.5135],[-54.5152,-34.518],[-54.5019,-34.5549],[-54.5393,-34.6084],[-54.5245,-34.7527],[-54.5442,-34.7524],[-54.5661,-34.8018]]]},"properties":{"iso3":"URY","shapeId":"27058087B55390925666910","regionId":"URY.14_1","name":"Rocha"}},{"type":"Feature","geometry":{"type":"Polygon","coordinates":[[[-54.6674,-32.11],[-54.7577,-32.0971],[-54.7734,-32.1501],[-54.8149,-32.1715],[-54.8083,-32.2115],[-54.7891,-32.219],[-54.817,-32.2411],[-54.8484,-32.3247],[-54.8968,-32.3393],[-54.911,-32.3846],[-54.9586,-32.3899],[-55.0184,-32.4677],[-55.0801,-32.4873],[-55.2333,-32.445],[-55.2537,-32.4754],[-55.2704,-32.4653],[-55.3112,-32.486],[-55.292,-32.5645],[-55.3362,-32.6555],[-55.3166,-32.7476],[-55.3494,-32.7503],[-55.3522,-32.7876],[-55.3236,-32.8067],[-55.321,-32.8916],[-55.2748,-32.9439],[-55.2326,-32.9538],[-55.1855,-33.0258],[-55.1588,-33.0276],[-55.1649,-33.0095],[-55.1214,-33.0269],[-55.0746,-32.9984],[-55.0058,-33.0018],[-55.0324,-32.9746],[-55.0076,-32.9336],[-54.9615,-32.9109],[-54.9032,-32.9105],[-54.8551,-32.8515],[-54.7448,-32.8397],[-54.6893,-32.7943],[-54.6242,-32.8469],[-54.5771,-32.8009],[-54.531,-32.8106],[-54.5086,-32.7813],[-54.4823,-32.7941],[-54.4379,-32.7788],[-54.4245,-32.7526],[-54.3899,-32.7666],[-54.3792,-32.7235],[-54.3406,-32.7116],[-54.2864,-32.7367],[-54.2366,-32.7309],[-54.1984,-32.7567],[-54.1585,-32.7531],[-54.1544,-32.7739],[-54.1296,-32.7615],[-54.1276,-32.7825],[-54.0338,-32.8148],[-54.0524,-32.7577],[-54.0268,-32.7195],[-53.9777,-32.6983],[-53.9393,-32.706],[-53.8387,-32.7782],[-53.6744,-32.7482],[-53.602,-32.771],[-53.5654,-32.7516],[-53.5043,-32.7606],[-53.4975,-32.7462],[-53.473,-32.7651],[-53.4547,-32.7503],[-53.4148,-32.7602],[-53.3793,-32.7887],[-53.3431,-32.7589],[-53.309,-32.7703],[-53.1836,-32.7152],[-53.184,-32.6472],[-53.2355,-32.631],[-53.2525,-32.6032],[-53.2908,-32.621],[-53.3702,-32.5697],[-53.3898,-32.5865],[-53.4307,-32.5665],[-53.4642,-32.4845],[-53.5552,-32.4734],[-53.6452,-32.3839],[-53.6333,-32.3503],[-53.6571,-32.3157],[-53.6428,-32.297],[-53.7115,-32.1985],[-53.7177,-32.1531],[-53.735,-32.1519],[-53.7442,-32.1154],[-53.7252,-32.0961],[-53.7468,-32.0778],[-53.8338,-32.0552],[-53.8498,-32.0006],[-53.9607,-31.9553],[-53.9697,-31.9177],[-54.0328,-31.8954],[-54.0897,-31.9351],[-54.4564,-31.6517],[-54.4865,-31.7436],[-54.4564,-31.781],[-54.4609,-31.8358],[-54.4838,-31.847],[-54.548,-31.9747],[-54.5265,-32.0157],[-54.5564,-32.0395],[-54.5442,-32.0644],[-54.6021,-32.1067],[-54.6674,-32.11]]]},"properties":{"iso3":"URY","shapeId":"27058087B72518212949854","regionId":"URY.3_1","name":"Cerro Largo"}},{"type":"Feature","geometry":{"type":"Polygon","coordinates":[[[-56.3017,-31.7399],[-56.2689,-31.7501],[-56.2748,-31.8261],[-56.2385,-31.8794],[-56.2981,-31.9875],[-56.2892,-32.017],[-56.3133,-32.0696],[-56.2866,-32.0951],[-56.3467,-32.2163],[-56.462,-32.3012],[-56.5308,-32.3911],[-56.5505,-32.5274],[-56.586,-32.5882],[-56.5943,-32.6602],[-56.6482,-32.6996],[-56.6365,-32.7697],[-56.6833,-32.7954],[-56.6524,-32.8131],[-56.6654,-32.8513],[-56.6476,-32.8642],[-56.5904,-32.8058],[-56.5576,-32.8103],[-56.5741,-32.8301],[-56.5628,-32.8427],[-56.5391,-32.8083],[-56.5005,-32.8225],[-56.4889,-32.8019],[-56.446,-32.8169],[-56.4266,-32.866],[-56.4214,-32.8222],[-56.3276,-32.8177],[-56.2206,-32.7669],[-56.1896,-32.7303],[-56.2054,-32.7069],[-56.1798,-32.6923],[-56.0048,-32.6861],[-55.9249,-32.6022],[-55.8445,-32.628],[-55.8093,-32.6216],[-55.815,-32.5937],[-55.7757,-32.5922],[-55.7986,-32.5637],[-55.7695,-32.5643],[-55.7524,-32.5205],[-55.7772,-32.4989],[-55.7115,-32.4953],[-55.71,-32.5232],[-55.6838,-32.5359],[-55.6432,-32.4791],[-55.4775,-32.5014],[-55.4932,-32.4445],[-55.4747,-32.412],[-55.4315,-32.4114],[-55.414,-32.4761],[-55.382,-32.4596],[-55.3765,-32.4756],[-55.3108,-32.4889],[-55.2944,-32.4701],[-55.2537,-32.4754],[-55.2333,-32.445],[-55.1823,-32.4668],[-55.1616,-32.4548],[-55.1473,-32.4782],[-55.0538,-32.4852],[-55.0184,-32.4677],[-54.9527,-32.3857],[-54.911,-32.3846],[-54.8897,-32.3333],[-54.8484,-32.3247],[-54.817,-32.2411],[-54.7891,-32.219],[-54.8083,-32.2115],[-54.8149,-32.1715],[-54.7734,-32.1501],[-54.7577,-32.0971],[-54.6674,-32.11],[-54.8956,-31.8295],[-54.971,-31.8134],[-55.0415,-31.8307],[-55.1231,-31.8067],[-55.1751,-31.8224],[-55.3657,-31.7739],[-55.5084,-31.7908],[-55.5732,-31.7737],[-55.629,-31.7975],[-55.642,-31.7632],[-55.6305,-31.7416],[-55.6613,-31.7169],[-55.6394,-31.6372],[-55.6698,-31.618],[-55.6515,-31.5917],[-55.6837,-31.5689],[-55.6742,-31.5372],[-55.7402,-31.5309],[-55.808,-31.4775],[-55.7995,-31.3973],[-55.8253,-31.3595],[-55.9063,-31.3521],[-56.089,-31.2356],[-56.185,-31.2456],[-56.1538,-31.3014],[-56.1866,-31.3261],[-56.1957,-31.386],[-56.3122,-31.4868],[-56.3251,-31.547],[-56.3628,-31.5815],[-56.3656,-31.6032],[-56.3341,-31.6388],[-56.35,-31.6701],[-56.3163,-31.6975],[-56.3017,-31.7399]]]},"properties":{"iso3":"URY","shapeId":"27058087B78128732832923","regionId":"URY.18_1","name":"Tacuarembó"}},{"type":"Feature","geometry":{"type":"Polygon","coordinates":[[[-58.034,-31.5097],[-58.0033,-31.5298],[-57.9805,-31.5836],[-58.0388,-31.7576],[-58.0857,-31.8193],[-58.2068,-31.8688],[-58.1385,-32.001],[-58.1837,-32.155],[-58.1041,-32.2431],[-58.0985,-32.2859],[-58.1234,-32.3383],[-58.1838,-32.3746],[-58.2047,-32.4568],[-58.1962,-32.4861],[-58.1358,-32.4578],[-58.1196,-32.4785],[-58.1126,-32.4588],[-58.0954,-32.4741],[-58.0715,-32.4658],[-58.0239,-32.5328],[-57.9971,-32.5386],[-57.9993,-32.5631],[-57.9585,-32.5809],[-57.8894,-32.5839],[-57.8358,-32.5629],[-57.7808,-32.5956],[-57.7472,-32.5414],[-57.6259,-32.5383],[-57.5647,-32.4991],[-57.5435,-32.5069],[-57.5276,-32.4605],[-57.501,-32.4585],[-57.48,-32.4207],[-57.4504,-32.4121],[-57.4142,-32.4341],[-57.3209,-32.4119],[-57.2617,-32.4442],[-57.2047,-32.4084],[-57.1919,-32.3742],[-57.0855,-32.3766],[-57.0361,-32.3426],[-56.9819,-32.3452],[-56.8786,-32.3931],[-56.6778,-32.393],[-56.6125,-32.4721],[-56.5502,-32.4915],[-56.5322,-32.3943],[-56.5046,-32.3494],[-56.3467,-32.2163],[-56.2866,-32.0951],[-56.3133,-32.0696],[-56.2892,-32.017],[-56.2981,-31.9875],[-56.2385,-31.8794],[-56.2748,-31.8261],[-56.262,-31.7826],[-56.2839,-31.7395],[-56.3919,-31.7703],[-56.3896,-31.7981],[-56.4387,-31.8352],[-56.4532,-31.8713],[-56.5368,-31.8614],[-56.587,-31.8316],[-56.678,-31.8316],[-56.7331,-31.7987],[-56.7537,-31.8106],[-56.7794,-31.7848],[-56.8331,-31.7774],[-56.9009,-31.8047],[-56.9866,-31.7838],[-57.1516,-31.7838],[-57.314,-31.7292],[-57.3724,-31.6656],[-57.464,-31.6512],[-57.5673,-31.5931],[-57.6459,-31.5691],[-57.7386,-31.571],[-57.7846,-31.4752],[-57.8255,-31.4806],[-57.8772,-31.468],[-57.8805,-31.4525],[-57.9266,-31.4708],[-57.9574,-31.4597],[-57.9338,-31.5015],[-58.0199,-31.4867],[-58.034,-31.5097]]]},"properties":{"iso3":"URY","shapeId":"27058087B55907822213987","regionId":"URY.11_1","name":"Paysandú"}},{"type":"Feature","geometry":{"type":"Polygon","coordinates":[[[-57.1279,-33.119],[-57.1315,-33.0782],[-57.1844,-33.0802],[-57.2003,-33.0465],[-57.0778,-32.991],[-56.9708,-33.0316],[-56.9658,-32.9957],[-56.9986,-32.9707],[-56.9379,-32.9799],[-56.9569,-32.9619],[-56.9363,-32.9339],[-56.908,-32.9733],[-56.8675,-32.9662],[-56.8948,-32.9385],[-56.8518,-32.9054],[-56.8168,-32.9191],[-56.8359,-32.8893],[-56.8251,-32.8707],[-56.7949,-32.8743],[-56.8103,-32.8591],[-56.7883,-32.8363],[-56.7617,-32.8531],[-56.7353,-32.8496],[-56.7365,-32.8301],[-56.6951,-32.8461],[-56.6889,-32.7957],[-56.6365,-32.7697],[-56.6482,-32.6996],[-56.5943,-32.6602],[-56.586,-32.5882],[-56.5464,-32.5031],[-56.6125,-32.4721],[-56.6778,-32.393],[-56.8786,-32.3931],[-56.9819,-32.3452],[-57.0361,-32.3426],[-57.0855,-32.3766],[-57.1919,-32.3742],[-57.2047,-32.4084],[-57.2617,-32.4442],[-57.3209,-32.4119],[-57.4142,-32.4341],[-57.4504,-32.4121],[-57.48,-32.4207],[-57.501,-32.4585],[-57.5276,-32.4605],[-57.5435,-32.5069],[-57.5647,-32.4991],[-57.6259,-32.5383],[-57.7472,-32.5414],[-57.7808,-32.5956],[-57.8358,-32.5629],[-57.8894,-32.5839],[-57.9585,-32.5809],[-57.9993,-32.5631],[-57.9971,-32.5386],[-58.0493,-32.5064],[-58.0596,-32.4721],[-58.109,-32.4581],[-58.1196,-32.4785],[-58.1358,-32.4578],[-58.1962,-32.4861],[-58.1605,-32.5685],[-58.1494,-32.7338],[-58.0847,-33.0008],[-58.1781,-33.0751],[-58.3694,-33.1244],[-58.4044,-33.1774],[-58.41,-33.2322],[-58.3904,-33.2762],[-58.4314,-33.3589],[-58.4427,-33.4414],[-58.3839,-33.3898],[-58.2899,-33.3678],[-58.226,-33.2978],[-58.1292,-33.3051],[-58.1113,-33.2882],[-58.1364,-33.2439],[-58.1201,-33.2278],[-58.013,-33.2411],[-58.0479,-33.1188],[-57.956,-33.1355],[-57.9429,-33.112],[-57.9545,-33.0716],[-57.8769,-33.041],[-57.8687,-33.0189],[-57.7907,-33.0563],[-57.7459,-33.0388],[-57.6352,-33.0826],[-57.6224,-33.0419],[-57.5301,-33.0001],[-57.4595,-33.0242],[-57.4315,-33.092],[-57.3988,-33.0662],[-57.3619,-33.069],[-57.3061,-33.0917],[-57.2709,-33.1321],[-57.2412,-33.1179],[-57.2206,-33.1413],[-57.1674,-33.114],[-57.1279,-33.119]]]},"properties":{"iso3":"URY","shapeId":"27058087B51576366641273","regionId":"URY.12_1","name":"Río Negro"}}]}