{"type":"FeatureCollection","features":[{"type":"Feature","geometry":{"type":"Polygon","coordinates":[[[105.1848,10.9141],[105.165,10.9307],[105.1048,10.9275],[105.1023,10.9607],[105.0257,10.9165],[105.0192,10.8921],[105.0901,10.7369],[104.9635,10.6543],[104.8623,10.5326],[104.7768,10.5243],[104.8527,10.401],[105.0557,10.3147],[105.2151,10.2031],[105.3085,10.2966],[105.3762,10.2776],[105.4429,10.2957],[105.4552,10.3294],[105.4918,10.3428],[105.5706,10.4758],[105.5573,10.5278],[105.5145,10.5689],[105.395,10.5834],[105.3604,10.6103],[105.3381,10.6644],[105.3442,10.743],[105.2233,10.82],[105.1848,10.9141]]]},"properties":{"iso3":"VNM","shapeId":"63759600B46141220358660","regionId":"VNM.1_1","name":"An Giang"}},{"type":"Feature","geometry":{"type":"Polygon","coordinates":[[[107.0072,10.606],[107.031,10.5415],[107.0142,10.4939],[107.0282,10.4668],[107.1086,10.4259],[107.1081,10.4088],[107.067,10.3899],[107.0828,10.3268],[107.1812,10.4098],[107.2524,10.377],[107.3368,10.4548],[107.4493,10.4712],[107.5459,10.544],[107.4923,10.7196],[107.4053,10.7571],[107.328,10.6569],[107.2946,10.6552],[107.2638,10.7182],[107.1733,10.7416],[107.1311,10.7174],[107.0986,10.6517],[107.0231,10.6509],[107.0072,10.606]]]},"properties":{"iso3":"VNM","shapeId":"63759600B21811289888982","regionId":"VNM.7_1","name":"Bà Rịa  Vũng Tàu"}},{"type":"Feature","geometry":{"type":"Polygon","coordinates":[[[106.6121,21.2618],[106.6507,21.2364],[106.9043,21.1973],[106.9219,21.2344],[107.0179,21.2258],[107.0607,21.2743],[107.0464,21.3348],[107.0908,21.3395],[107.1018,21.3725],[107.0565,21.4082],[107.0524,21.4593],[106.9692,21.4668],[106.911,21.5357],[106.911,21.5697],[106.8719,21.5858],[106.8266,21.5919],[106.8038,21.5669],[106.7599,21.5782],[106.7408,21.618],[106.6276,21.6159],[106.5381,21.4757],[106.435,21.4075],[106.3289,21.4905],[106.232,21.5097],[106.2331,21.6077],[106.141,21.6173],[106.0978,21.5758],[106.1122,21.4764],[106.0953,21.413],[106.0304,21.436],[105.9689,21.3496],[106.0151,21.2677],[106.0504,21.2555],[106.0845,21.2805],[106.1323,21.2543],[106.2312,21.2415],[106.355,21.1969],[106.3864,21.1658],[106.431,21.2262],[106.5122,21.2726],[106.6121,21.2618]]]},"properties":{"iso3":"VNM","shapeId":"63759600B37262939240335","regionId":"VNM.3_1","name":"Bắc Giang"}},{"type":"Feature","geometry":{"type":"Polygon","coordinates":[[[105.531,22.6327],[105.5964,22.5071],[105.5452,22.438],[105.5537,22.4107],[105.5168,22.3971],[105.4829,22.2843],[105.4479,22.2628],[105.4398,22.2117],[105.4977,22.1533],[105.4737,22.0946],[105.5434,21.9843],[105.5757,21.9655],[105.6052,22.0075],[105.6832,22.0469],[105.7709,22.0077],[105.7964,21.952],[105.7884,21.8185],[105.8108,21.8093],[105.8392,21.8449],[105.9136,21.8637],[106.0566,21.9594],[106.1244,21.9279],[106.138,21.9662],[106.1225,22.0591],[106.1929,22.0748],[106.2028,22.112],[106.2507,22.1421],[106.2651,22.2069],[106.222,22.2908],[106.2323,22.3358],[106.1924,22.3844],[106.1129,22.4046],[106.1139,22.5018],[106.0724,22.5542],[105.9166,22.4743],[105.8275,22.506],[105.7385,22.6173],[105.7769,22.6739],[105.7495,22.7308],[105.6697,22.7167],[105.531,22.6327]]]},"properties":{"iso3":"VNM","shapeId":"63759600B29118141744967","regionId":"VNM.4_1","name":"Bắc Kạn"}},{"type":"Feature","geometry":{"type":"Polygon","coordinates":[[[105.5496,9.6151],[105.4025,9.6336],[105.3665,9.6093],[105.2953,9.6396],[105.2821,9.6258],[105.319,9.5842],[105.3199,9.5469],[105.29,9.5174],[105.2654,9.4256],[105.2795,9.3302],[105.2338,9.2582],[105.2777,9.1949],[105.256,9.1478],[105.2728,9.1239],[105.3988,9.0878],[105.4376,9.0562],[105.5023,9.1239],[105.8376,9.2623],[105.824,9.346],[105.8623,9.3976],[105.8342,9.4087],[105.7925,9.3898],[105.7757,9.4237],[105.6806,9.4009],[105.5496,9.4631],[105.5496,9.6151]]]},"properties":{"iso3":"VNM","shapeId":"63759600B49404698723526","regionId":"VNM.2_1","name":"Bạc Liêu"}},{"type":"Feature","geometry":{"type":"Polygon","coordinates":[[[106.011,21.272],[105.9637,21.2383],[105.9594,21.1427],[105.9674,21.1109],[106.0429,21.08],[106.0303,21.0181],[106.1581,21.0166],[106.1988,20.9775],[106.221,21.0057],[106.3493,21.026],[106.3669,21.0503],[106.3908,21.1195],[106.3864,21.1658],[106.355,21.1969],[106.0845,21.2805],[106.0504,21.2555],[106.011,21.272]]]},"properties":{"iso3":"VNM","shapeId":"63759600B40382966221261","regionId":"VNM.5_1","name":"Bắc Ninh"}},{"type":"Feature","geometry":{"type":"Polygon","coordinates":[[[106.6564,10.2555],[106.3477,10.3197],[106.2054,10.3108],[106.1005,10.2811],[106.033,10.2972],[106.03,10.2777],[106.0367,10.2532],[106.132,10.2256],[106.3212,10.0124],[106.5096,9.8994],[106.574,9.8233],[106.6012,9.8163],[106.6566,9.8276],[106.6838,9.8769],[106.6671,9.928],[106.6132,9.9639],[106.6688,9.9803],[106.6941,10.0169],[106.747,10.044],[106.7931,10.1143],[106.7841,10.1785],[106.6564,10.2555]]]},"properties":{"iso3":"VNM","shapeId":"63759600B71233846988018","regionId":"VNM.6_1","name":"Bến Tre"}},{"type":"Feature","geometry":{"type":"Polygon","coordinates":[[[108.6872,14.5649],[108.6995,14.5138],[108.6555,14.4882],[108.7117,14.3],[108.7227,14.1534],[108.796,14.0412],[108.7731,13.9404],[108.8573,13.77],[108.84,13.6883],[108.8656,13.606],[108.8537,13.5683],[108.8682,13.5502],[109.0068,13.5372],[109.0962,13.5947],[109.1691,13.6789],[109.1981,13.6952],[109.2323,13.678],[109.2184,13.7295],[109.2401,13.7753],[109.2296,13.8503],[109.246,13.8572],[109.2668,13.8005],[109.2565,13.7659],[109.2949,13.7656],[109.2978,13.7803],[109.2978,13.8851],[109.2493,13.9496],[109.257,14.01],[109.2184,14.0949],[109.2287,14.1378],[109.2016,14.2522],[109.1382,14.3743],[109.0802,14.571],[109.074,14.656],[109.0888,14.6596],[109.0279,14.7023],[108.9563,14.7161],[108.84,14.6861],[108.8209,14.6249],[108.7194,14.5972],[108.6872,14.5649]]]},"properties":{"iso3":"VNM","shapeId":"63759600B9901642676381","regionId":"VNM.8_1","name":"Bình Định"}},{"type":"Feature","geometry":{"type":"Polygon","coordinates":[[[106.4644,11.1296],[106.5037,11.1298],[106.5221,11.0626],[106.6003,11.0315],[106.6917,10.8754],[106.7322,10.8633],[106.8069,10.8849],[106.8113,10.9098],[106.7743,10.9245],[106.7673,10.9824],[106.8113,11.0194],[106.9097,11.0194],[106.9369,11.0565],[106.9492,11.1359],[106.9,11.2143],[106.9495,11.3054],[106.9079,11.3202],[106.8557,11.291],[106.8445,11.3372],[106.7695,11.351],[106.7684,11.3918],[106.7948,11.4205],[106.7723,11.4453],[106.6519,11.3201],[106.6086,11.3427],[106.5721,11.3372],[106.549,11.378],[106.5659,11.4277],[106.4506,11.4751],[106.3988,11.4111],[106.3629,11.2793],[106.4169,11.1642],[106.4644,11.1296]]]},"properties":{"iso3":"VNM","shapeId":"63759600B4649941622975","regionId":"VNM.9_1","name":"Bình Dương"}},{"type":"Feature","geometry":{"type":"Polygon","coordinates":[[[106.9495,11.3054],[107.0521,11.3798],[107.0837,11.4702],[107.3136,11.5464],[107.2611,11.642],[107.2839,11.7253],[107.3983,11.7675],[107.4282,11.8415],[107.3579,11.9771],[107.2432,12.054],[107.2413,12.2227],[107.2107,12.2936],[107.1683,12.2818],[107.0422,12.1333],[106.9529,12.0725],[106.8661,12.0612],[106.7924,12.0781],[106.7088,11.9672],[106.6635,11.9816],[106.6444,11.963],[106.4583,11.9844],[106.4122,11.9735],[106.4641,11.8661],[106.4264,11.7857],[106.4225,11.7288],[106.4502,11.6923],[106.4486,11.6522],[106.4914,11.5496],[106.4795,11.5235],[106.4324,11.5164],[106.4464,11.4727],[106.5659,11.4277],[106.549,11.378],[106.5721,11.3372],[106.6086,11.3427],[106.6519,11.3201],[106.7723,11.4453],[106.7948,11.4205],[106.7684,11.3918],[106.7695,11.351],[106.8445,11.3372],[106.8557,11.291],[106.9079,11.3202],[106.9495,11.3054]]]},"properties":{"iso3":"VNM","shapeId":"63759600B13042736323456","regionId":"VNM.10_1","name":"Bình Phước"}},{"type":"Feature","geometry":{"type":"MultiPolygon","coordinates":[[[[109.0511,9.9181],[109.0547,9.9279],[109.0546,9.9326],[109.0481,9.9344],[109.0431,9.9332],[109.0396,9.9295],[109.0403,9.917],[109.0456,9.9151],[109.0511,9.9181]]],[[[108.931,10.4563],[108.9147,10.5011],[108.8933,10.5006],[108.9169,10.4525],[108.931,10.4563]]],[[[107.5459,10.544],[107.7448,10.6294],[107.828,10.6919],[108.0041,10.7029],[108.0277,10.7328],[108.0648,10.8764],[108.0974,10.9068],[108.2318,10.9504],[108.2988,10.9184],[108.3651,11.015],[108.4726,11.0564],[108.5508,11.1557],[108.6649,11.18],[108.7099,11.1568],[108.7769,11.2854],[108.8523,11.3135],[108.8488,11.336],[108.7796,11.3593],[108.7549,11.4325],[108.6862,11.4552],[108.6462,11.5371],[108.5765,11.5524],[108.5412,11.5099],[108.4899,11.527],[108.2748,11.5071],[108.2577,11.4631],[108.3013,11.4244],[108.2909,11.393],[108.1949,11.311],[108.0862,11.2645],[108.0504,11.2272],[108.0283,11.3257],[107.9869,11.3425],[107.7645,11.3828],[107.6838,11.3409],[107.5693,11.3974],[107.5319,11.3488],[107.531,11.2747],[107.4405,11.1514],[107.4458,11.0971],[107.3983,11.0462],[107.5038,11.0117],[107.5301,10.9841],[107.5513,10.8129],[107.5069,10.7753],[107.4917,10.7223],[107.5459,10.544]]]]},"properties":{"iso3":"VNM","shapeId":"63759600B31473825670333","regionId":"VNM.11_1","name":"Bình Thuận"}},{"type":"Feature","geometry":{"type":"MultiPolygon","coordinates":[[[[104.8327,8.4428],[104.8356,8.4556],[104.8302,8.4592],[104.8295,8.4716],[104.8241,8.472],[104.8183,8.4592],[104.8194,8.4531],[104.8226,8.4446],[104.8288,8.44],[104.8327,8.4428]]],[[[105.2654,9.4256],[105.0141,9.589],[104.9134,9.5895],[104.8758,9.5535],[104.8409,9.5724],[104.7981,9.1417],[104.8054,8.9245],[104.7779,8.8245],[104.7981,8.7878],[104.8864,8.8162],[104.8173,8.7684],[104.7925,8.7155],[104.7914,8.6572],[104.7171,8.646],[104.7149,8.6127],[104.8274,8.5788],[104.9815,8.5971],[105.1559,8.6905],[105.3184,8.8351],[105.4413,9.0588],[105.2616,9.1334],[105.2777,9.1949],[105.2338,9.2582],[105.2795,9.3302],[105.2654,9.4256]]]]},"properties":{"iso3":"VNM","shapeId":"63759600B81181225404594","regionId":"VNM.13_1","name":"Cà Mau"}},{"type":"Feature","geometry":{"type":"Polygon","coordinates":[[[105.2151,10.2031],[105.334,10.1253],[105.5488,9.9104],[105.5721,9.9029],[105.6073,9.9427],[105.6512,9.9098],[105.7136,9.896],[105.7707,9.9194],[105.8604,9.9038],[105.9028,9.9414],[105.797,10.0529],[105.6837,10.1355],[105.5959,10.2879],[105.5343,10.3294],[105.4948,10.3441],[105.4552,10.3294],[105.4429,10.2957],[105.3762,10.2776],[105.3085,10.2966],[105.2151,10.2031]]]},"properties":{"iso3":"VNM","shapeId":"63759600B21046589863912","regionId":"VNM.12_1","name":"Cần Thơ"}},{"type":"Feature","geometry":{"type":"Polygon","coordinates":[[[106.1924,22.3844],[106.2252,22.428],[106.2525,22.4308],[106.376,22.3405],[106.4924,22.3367],[106.5202,22.3732],[106.5809,22.3952],[106.5667,22.428],[106.5981,22.4682],[106.6214,22.5673],[106.6917,22.564],[106.7276,22.5883],[106.7848,22.6901],[106.7838,22.7251],[106.8384,22.803],[106.758,22.8305],[106.717,22.8576],[106.7074,22.8874],[106.6831,22.8706],[106.6421,22.8753],[106.6188,22.9158],[106.5571,22.9317],[106.4392,22.8781],[106.3558,22.8576],[106.3062,22.8677],[106.2405,22.9593],[106.1751,22.9852],[106.0511,22.9906],[106.0135,22.9819],[106.0177,22.9578],[105.9957,22.942],[105.8833,22.9244],[105.8196,23.0004],[105.7263,23.0692],[105.5837,23.0737],[105.566,23.119],[105.5184,23.1058],[105.4845,23.0179],[105.3792,22.989],[105.3646,22.9447],[105.312,22.9219],[105.2942,22.8748],[105.2684,22.872],[105.4496,22.7676],[105.5015,22.6362],[105.5563,22.6364],[105.6697,22.7167],[105.7495,22.7308],[105.7769,22.6739],[105.7385,22.6173],[105.8083,22.5191],[105.9166,22.4743],[106.0724,22.5542],[106.1139,22.5018],[106.1129,22.4046],[106.1924,22.3844]]]},"properties":{"iso3":"VNM","shapeId":"63759600B11108179203280","regionId":"VNM.14_1","name":"Cao Bằng"}},{"type":"Feature","geometry":{"type":"Polygon","coordinates":[[[106.6424,8.7033],[106.6671,8.7367],[106.6548,8.7517],[106.5552,8.695],[106.5389,8.636],[106.6199,8.6383],[106.6182,8.6939],[106.6773,8.6544],[106.7161,8.6644],[106.6424,8.7033]]]},"properties":{"iso3":"VNM","shapeId":"63759600B5991530625500","regionId":null,"name":"Côn Đảo"}},{"type":"Feature","geometry":{"type":"MultiPolygon","coordinates":[[[[111.2751,15.7627],[111.2781,15.7685],[111.2766,15.7731],[111.2689,15.7745],[111.2626,15.7727],[111.2586,15.7689],[111.2626,15.7636],[111.2684,15.7609],[111.2751,15.7627]]],[[[111.8412,16.0337],[111.8386,16.0377],[111.8302,16.0372],[111.8281,16.0342],[111.8291,16.0297],[111.8339,16.0282],[111.8412,16.0337]]],[[[108.1952,16.2089],[108.066,16.179],[107.9968,16.2065],[107.8872,16.1924],[107.8615,16.1002],[107.8194,16.0581],[107.8958,16.0533],[107.9254,16.0291],[107.965,16.0507],[107.9841,16.042],[108.0163,15.9881],[107.9918,15.9374],[108.0146,15.9203],[108.2559,15.9516],[108.2923,15.9715],[108.2527,16.0776],[108.3341,16.131],[108.2452,16.1483],[108.2226,16.126],[108.2385,16.0973],[108.2052,16.0786],[108.1676,16.0854],[108.1328,16.1425],[108.1952,16.2089]]],[[[108.2923,15.9715],[108.2923,15.9715],[108.2923,15.9715],[108.2923,15.9715]]],[[[111.6843,16.5017],[111.688,16.5027],[111.6893,16.5117],[111.6846,16.5149],[111.6806,16.5149],[111.6742,16.5114],[111.6739,16.5046],[111.6783,16.5014],[111.6843,16.5017]]],[[[112.7941,16.6436],[112.793,16.6466],[112.7878,16.6501],[112.783,16.6481],[112.7825,16.6416],[112.7878,16.6401],[112.7941,16.6436]]],[[[112.4028,16.8048],[112.4034,16.8108],[112.4008,16.8124],[112.3929,16.8108],[112.3903,16.8083],[112.3908,16.8023],[112.3971,16.7993],[112.4028,16.8048]]],[[[112.4091,16.9032],[112.4097,16.9062],[112.406,16.9092],[112.4028,16.9087],[112.4002,16.9057],[112.3997,16.9012],[112.4034,16.9002],[112.4091,16.9032]]]]},"properties":{"iso3":"VNM","shapeId":"63759600B8583399541445","regionId":"VNM.19_1","name":"Đà Nẵng"}},{"type":"Feature","geometry":{"type":"Polygon","coordinates":[[[107.6227,13.3184],[107.585,13.2717],[107.492,13.0403],[107.4819,12.9563],[107.5036,12.865],[107.5518,12.7955],[107.6278,12.8034],[107.7941,12.7663],[107.877,12.7882],[107.9326,12.7061],[108.0487,12.6061],[108.0582,12.5809],[107.9476,12.5736],[107.9163,12.5385],[107.9939,12.5002],[107.9996,12.471],[107.9627,12.4048],[108.113,12.3267],[108.1334,12.2715],[108.09,12.2464],[108.1138,12.1823],[108.2411,12.17],[108.3385,12.2218],[108.4119,12.2314],[108.4664,12.2738],[108.6127,12.267],[108.6522,12.285],[108.6928,12.3407],[108.6814,12.3928],[108.7123,12.4588],[108.7826,12.5028],[108.8705,12.4566],[108.8938,12.5733],[108.872,12.616],[108.9046,12.6274],[108.9133,12.68],[108.998,12.6843],[109.0106,12.7008],[108.9814,12.8112],[108.8741,12.8149],[108.8486,12.8571],[108.7931,12.8692],[108.7621,12.9329],[108.6735,12.9963],[108.5315,13.0387],[108.4676,13.1288],[108.4634,13.1734],[108.418,13.2437],[108.3157,13.3645],[108.1015,13.4317],[108.0135,13.3889],[107.8258,13.4111],[107.7722,13.3824],[107.6793,13.3738],[107.6227,13.3184]]]},"properties":{"iso3":"VNM","shapeId":"63759600B97182540787332","regionId":"VNM.15_1","name":"Đắk Lắk"}},{"type":"Feature","geometry":{"type":"Polygon","coordinates":[[[107.3983,11.7675],[107.433,11.7556],[107.5017,11.7969],[107.5521,11.7943],[107.6963,11.9185],[107.7524,11.8517],[107.8814,11.8728],[107.8967,11.8061],[107.9434,11.8074],[107.9712,11.7851],[108.086,11.8492],[108.0834,11.9023],[107.9553,12.0664],[107.9978,12.1101],[108.0866,12.1211],[108.1222,12.1788],[108.09,12.2464],[108.1334,12.2715],[108.096,12.3407],[108.0369,12.3555],[108.0052,12.3937],[107.9627,12.4048],[107.9978,12.4888],[107.9726,12.5172],[107.9314,12.5197],[107.9163,12.5478],[107.9476,12.5736],[108.0582,12.5809],[107.8851,12.7571],[107.877,12.7882],[107.7941,12.7663],[107.6278,12.8034],[107.5518,12.7955],[107.5868,12.5558],[107.5369,12.3526],[107.4491,12.291],[107.4204,12.2456],[107.3983,12.2481],[107.3674,12.3029],[107.3253,12.3241],[107.2107,12.2937],[107.2413,12.2227],[107.2432,12.054],[107.3579,11.9771],[107.4313,11.8543],[107.3983,11.7675]]]},"properties":{"iso3":"VNM","shapeId":"63759600B22683796323846","regionId":"VNM.16_1","name":"Đăk Nông"}},{"type":"Feature","geometry":{"type":"Polygon","coordinates":[[[102.3251,22.5415],[102.2545,22.4619],[102.2741,22.4125],[102.1822,22.4302],[102.1481,22.3883],[102.1987,22.341],[102.1967,22.3077],[102.2323,22.2831],[102.2459,22.2385],[102.4318,22.1168],[102.483,22.0423],[102.5183,22.0318],[102.4885,22.0018],[102.504,21.9793],[102.617,21.9159],[102.6164,21.8736],[102.6653,21.7825],[102.6511,21.7289],[102.6759,21.6593],[102.7538,21.6598],[102.8196,21.7256],[102.8161,21.8323],[102.8343,21.8478],[102.8591,21.8102],[102.8667,21.7068],[102.9764,21.7331],[102.9977,21.5987],[102.8763,21.4396],[102.8839,21.4202],[102.9425,21.4527],[102.8935,21.3585],[102.8965,21.3045],[102.8184,21.2514],[102.9111,21.2309],[102.9133,21.1687],[102.936,21.1554],[102.9703,21.0753],[103.0409,21.0457],[103.1073,20.9127],[103.2623,20.8989],[103.2962,20.9608],[103.2836,21.0902],[103.3301,21.0925],[103.4085,21.06],[103.4197,21.0732],[103.3944,21.1223],[103.4379,21.186],[103.4338,21.3024],[103.3832,21.3298],[103.3853,21.3571],[103.3375,21.4164],[103.4441,21.4281],[103.4589,21.4911],[103.5286,21.5312],[103.6005,21.6712],[103.5472,21.7646],[103.53,21.8403],[103.4865,21.8971],[103.5059,21.9534],[103.4667,21.9826],[103.4784,22.0189],[103.4117,22.0814],[103.3961,22.1345],[103.3663,22.1477],[103.2896,22.0994],[103.2893,22.0378],[103.2524,22.0366],[103.1873,22.073],[103.1189,22.0742],[103.0127,22.0497],[102.9768,22.0239],[102.9292,22.091],[102.8447,22.0537],[102.8058,22.0591],[102.7491,22.1135],[102.7499,22.1881],[102.7286,22.232],[102.6763,22.2451],[102.6847,22.1929],[102.6614,22.1722],[102.6216,22.1887],[102.6232,22.2115],[102.5885,22.2454],[102.5213,22.2516],[102.4571,22.3496],[102.3933,22.4049],[102.3874,22.4639],[102.3251,22.5415]]]},"properties":{"iso3":"VNM","shapeId":"63759600B72990231521734","regionId":"VNM.20_1","name":"Điện Biên"}},{"type":"Feature","geometry":{"type":"Polygon","coordinates":[[[107.4923,10.7196],[107.5069,10.7753],[107.5513,10.8129],[107.5301,10.9841],[107.5038,11.0117],[107.3983,11.0462],[107.4458,11.0971],[107.4405,11.1514],[107.531,11.2747],[107.5345,11.3571],[107.48,11.4293],[107.4348,11.433],[107.4645,11.4743],[107.4519,11.4966],[107.3465,11.5476],[107.1048,11.484],[107.0837,11.4702],[107.0521,11.3798],[106.944,11.304],[106.9,11.2143],[106.9492,11.1359],[106.9369,11.0565],[106.9097,11.0194],[106.8113,11.0194],[106.7673,10.9824],[106.7743,10.9245],[106.8244,10.9082],[106.8772,10.8029],[106.8473,10.7536],[106.7286,10.6889],[106.7374,10.663],[106.7849,10.6267],[106.8798,10.6077],[106.9703,10.5446],[107.0231,10.6509],[107.0986,10.6517],[107.1311,10.7174],[107.1733,10.7416],[107.2638,10.7182],[107.2946,10.6552],[107.328,10.6569],[107.4053,10.7571],[107.4923,10.7196]]]},"properties":{"iso3":"VNM","shapeId":"63759600B12839449494422","regionId":"VNM.17_1","name":"Đồng Nai"}},{"type":"Feature","geometry":{"type":"Polygon","coordinates":[[[105.4918,10.3428],[105.5959,10.2879],[105.685,10.1393],[105.7312,10.2245],[105.8364,10.178],[105.9112,10.2129],[105.9129,10.2361],[105.8947,10.2777],[105.8266,10.319],[105.8035,10.3923],[105.8269,10.3947],[105.9263,10.4935],[105.9273,10.5386],[105.9073,10.5404],[105.8432,10.636],[105.7391,10.7007],[105.6113,10.8324],[105.5861,10.8897],[105.508,10.9529],[105.4196,10.9791],[105.3375,10.8769],[105.1841,10.9153],[105.2233,10.82],[105.3442,10.743],[105.3381,10.6644],[105.3723,10.5972],[105.5145,10.5689],[105.5573,10.5278],[105.5699,10.4631],[105.4918,10.3428]]]},"properties":{"iso3":"VNM","shapeId":"63759600B81354309972615","regionId":"VNM.18_1","name":"Đồng Tháp"}},{"type":"Feature","geometry":{"type":"Polygon","coordinates":[[[108.6872,14.5649],[108.6472,14.6116],[108.531,14.5873],[108.4848,14.5969],[108.4486,14.6309],[108.4245,14.5965],[108.4451,14.5496],[108.3464,14.439],[108.1604,14.3855],[108.1251,14.3621],[108.1022,14.3114],[108.022,14.27],[107.9686,14.2726],[107.9136,14.3014],[107.8792,14.287],[107.8495,14.243],[107.7773,14.2251],[107.7165,14.2366],[107.6574,14.0903],[107.4736,13.9785],[107.4555,13.9486],[107.4688,13.8581],[107.4444,13.7961],[107.5196,13.7503],[107.6097,13.5601],[107.6258,13.4673],[107.6087,13.3069],[107.6793,13.3738],[107.7722,13.3824],[107.8258,13.4111],[108.0135,13.3889],[108.0875,13.4277],[108.1388,13.4299],[108.3481,13.3448],[108.5315,13.0387],[108.6735,12.9963],[108.7558,13.0393],[108.7636,13.1358],[108.8418,13.1677],[108.8781,13.2752],[108.8022,13.386],[108.796,13.4778],[108.7353,13.4893],[108.7201,13.519],[108.7392,13.5561],[108.7953,13.5862],[108.8537,13.5683],[108.8656,13.606],[108.84,13.6883],[108.8573,13.77],[108.7731,13.9404],[108.796,14.0412],[108.7227,14.1534],[108.7117,14.3],[108.6555,14.4882],[108.6995,14.5138],[108.6872,14.5649]]]},"properties":{"iso3":"VNM","shapeId":"63759600B15361955936842","regionId":"VNM.21_1","name":"Gia Lai"}},{"type":"Feature","geometry":{"type":"Polygon","coordinates":[[[105.566,23.119],[105.5796,23.15],[105.5558,23.1862],[105.5032,23.2095],[105.442,23.299],[105.4093,23.2892],[105.3614,23.3184],[105.323,23.391],[105.2113,23.2696],[105.1683,23.2844],[105.1161,23.251],[105.0656,23.2626],[104.9709,23.2035],[104.9502,23.1673],[104.8996,23.1793],[104.8586,23.1165],[104.8116,23.1305],[104.8333,22.996],[104.8642,22.9391],[104.8495,22.9228],[104.7847,22.8967],[104.723,22.8231],[104.5991,22.8212],[104.5965,22.8473],[104.5682,22.8492],[104.5206,22.7867],[104.3618,22.692],[104.3592,22.6752],[104.421,22.6527],[104.467,22.6084],[104.4716,22.5752],[104.4291,22.5705],[104.423,22.528],[104.464,22.4939],[104.4523,22.4616],[104.4726,22.4224],[104.5768,22.347],[104.5869,22.3026],[104.5581,22.2464],[104.624,22.2704],[104.7202,22.2545],[104.7257,22.1996],[104.7663,22.1673],[104.897,22.1896],[104.9239,22.2727],[104.9117,22.3241],[104.9846,22.3175],[105.0074,22.2703],[105.0529,22.304],[105.0504,22.3541],[105.0858,22.3601],[105.1327,22.5439],[105.1197,22.5766],[105.1597,22.6303],[105.1384,22.6602],[105.1445,22.6826],[105.2098,22.6742],[105.3104,22.6121],[105.3413,22.6434],[105.4496,22.6079],[105.5017,22.6359],[105.4496,22.7676],[105.2684,22.872],[105.2942,22.8748],[105.312,22.9219],[105.3646,22.9447],[105.3792,22.989],[105.4845,23.0179],[105.5184,23.1058],[105.566,23.119]]]},"properties":{"iso3":"VNM","shapeId":"63759600B80209413202681","regionId":"VNM.26_1","name":"Hà Giang"}},{"type":"Feature","geometry":{"type":"Polygon","coordinates":[[[105.9321,20.3658],[105.9729,20.4034],[106.0202,20.4006],[106.1104,20.4706],[106.1561,20.4694],[106.1837,20.4937],[106.2319,20.4781],[106.2164,20.5573],[106.1673,20.6181],[106.1183,20.6087],[106.0734,20.6973],[106.0387,20.6549],[106.0098,20.6794],[105.9528,20.6481],[105.8913,20.6469],[105.8539,20.5666],[105.8143,20.5461],[105.8722,20.4683],[105.8865,20.3944],[105.9321,20.3658]]]},"properties":{"iso3":"VNM","shapeId":"63759600B38291039937725","regionId":"VNM.28_1","name":"Hà Nam"}},{"type":"Feature","geometry":{"type":"Polygon","coordinates":[[[105.9689,21.3496],[105.9177,21.3897],[105.8532,21.3989],[105.8528,21.3588],[105.7876,21.274],[105.8624,21.2064],[105.8352,21.1401],[105.6826,21.1871],[105.6285,21.162],[105.5666,21.1624],[105.5198,21.1954],[105.4999,21.2802],[105.4601,21.296],[105.3997,21.2702],[105.4107,21.2215],[105.3621,21.1851],[105.3838,21.0871],[105.3603,21.0252],[105.3996,21.0033],[105.5135,21.0236],[105.5843,20.97],[105.5951,20.9204],[105.642,20.9194],[105.6205,20.8043],[105.6855,20.8236],[105.7167,20.7241],[105.7138,20.6213],[105.7842,20.5946],[105.8143,20.5461],[105.8539,20.5666],[105.8913,20.6469],[105.9528,20.6481],[106.0098,20.6794],[106.0387,20.6549],[106.0734,20.6973],[106.0345,20.72],[106.0222,20.7787],[105.9787,20.8111],[105.9994,20.871],[105.9588,20.9231],[105.9737,20.9806],[106.0269,21.0131],[106.0479,21.0667],[106.0286,21.0945],[105.9636,21.1183],[105.9637,21.2383],[106.011,21.272],[105.9689,21.3496]]]},"properties":{"iso3":"VNM","shapeId":"63759600B97268694287734","regionId":"VNM.27_1","name":"Hà Nội"}},{"type":"Feature","geometry":{"type":"Polygon","coordinates":[[[105.1894,18.6014],[105.1608,18.5803],[105.1272,18.4635],[105.1702,18.3983],[105.2127,18.3794],[105.2096,18.3172],[105.304,18.2405],[105.3249,18.2599],[105.3407,18.2524],[105.3318,18.1981],[105.3732,18.1658],[105.4199,18.1513],[105.4555,18.2066],[105.5011,18.1892],[105.5468,18.0905],[105.5829,18.0751],[105.5871,18.0202],[105.6438,17.9848],[105.7072,17.9763],[105.7429,18.0247],[105.8588,18.0247],[105.8588,18.0686],[105.9102,18.0895],[106.0516,18.0141],[106.0643,17.9959],[106.0459,17.9529],[106.1499,17.9184],[106.2711,17.919],[106.2832,17.9544],[106.3406,17.9896],[106.4527,17.957],[106.5094,17.9607],[106.4379,18.0183],[106.4211,18.132],[106.4054,18.1018],[106.367,18.1102],[106.2362,18.2228],[106.1449,18.2773],[106.0948,18.2836],[106.0252,18.3462],[105.9603,18.4228],[105.9398,18.483],[105.9318,18.4671],[105.8818,18.5056],[105.8254,18.5934],[105.7737,18.761],[105.7519,18.7413],[105.7752,18.6775],[105.7151,18.667],[105.6831,18.6313],[105.677,18.5832],[105.6146,18.5861],[105.5482,18.5619],[105.472,18.6157],[105.3559,18.588],[105.2592,18.6354],[105.2303,18.6014],[105.1894,18.6014]]]},"properties":{"iso3":"VNM","shapeId":"63759600B52412632417993","regionId":"VNM.29_1","name":"Hà Tĩnh"}},{"type":"Feature","geometry":{"type":"Polygon","coordinates":[[[106.3864,21.1658],[106.39,21.1082],[106.3493,21.026],[106.221,21.0057],[106.199,20.9776],[106.1901,20.8329],[106.265,20.7562],[106.2986,20.6923],[106.4227,20.7224],[106.4822,20.7574],[106.5519,20.7569],[106.6058,20.847],[106.6005,20.9004],[106.6391,20.9049],[106.6605,20.9733],[106.7045,20.9977],[106.6948,21.0512],[106.7328,21.0791],[106.7075,21.1034],[106.6464,21.1006],[106.5681,21.1347],[106.5726,21.1673],[106.6079,21.1839],[106.6114,21.2618],[106.5122,21.2726],[106.431,21.2262],[106.3864,21.1658]]]},"properties":{"iso3":"VNM","shapeId":"63759600B6612369570330","regionId":"VNM.22_1","name":"Hải Dương"}},{"type":"Feature","geometry":{"type":"MultiPolygon","coordinates":[[[[107.871,20.1105],[107.8747,20.124],[107.8586,20.1121],[107.871,20.1105]]],[[[107.2637,20.6936],[107.2584,20.697],[107.249,20.6936],[107.2469,20.6887],[107.2369,20.6892],[107.2364,20.6833],[107.2485,20.6818],[107.2605,20.6838],[107.2637,20.6872],[107.2637,20.6936]]],[[[106.9581,20.8205],[106.9564,20.8308],[106.9527,20.8343],[106.946,20.8308],[106.9433,20.8252],[106.947,20.8186],[106.9544,20.818],[106.9581,20.8205]]],[[[107.0155,20.8518],[107.0521,20.8907],[107.0413,20.9133],[106.9705,20.8641],[107.0155,20.8518]]],[[[107.1693,20.8015],[107.1934,20.9073],[107.0822,20.9255],[107.0843,20.8544],[107.1289,20.7922],[107.1693,20.8015]]],[[[106.4227,20.7224],[106.5069,20.6312],[106.5585,20.6492],[106.6356,20.6307],[106.6571,20.6563],[106.7208,20.6402],[106.7653,20.6542],[106.7969,20.6921],[106.7929,20.7292],[106.8915,20.7669],[106.8689,20.8339],[106.9147,20.8784],[106.8814,20.9266],[106.9123,20.9748],[106.9043,21.0284],[106.8527,21.0603],[106.7328,21.0791],[106.6948,21.0512],[106.7045,20.9977],[106.6605,20.9733],[106.6391,20.9049],[106.6005,20.9004],[106.6058,20.847],[106.5762,20.7814],[106.5409,20.7502],[106.4822,20.7574],[106.4227,20.7224]]]]},"properties":{"iso3":"VNM","shapeId":"63759600B57390768683549","regionId":"VNM.23_1","name":"Hải Phòng"}},{"type":"Feature","geometry":{"type":"Polygon","coordinates":[[[105.5496,9.6151],[105.7037,9.6683],[105.828,9.7404],[105.8722,9.9058],[105.7707,9.9194],[105.7136,9.896],[105.6512,9.9098],[105.6073,9.9427],[105.5721,9.9029],[105.5431,9.9116],[105.5238,9.8683],[105.4552,9.8198],[105.4078,9.7479],[105.3436,9.6942],[105.392,9.6656],[105.4025,9.6336],[105.5496,9.6151]]]},"properties":{"iso3":"VNM","shapeId":"63759600B90584107995256","regionId":"VNM.24_1","name":"Hậu Giang"}},{"type":"Feature","geometry":{"type":"Polygon","coordinates":[[[107.0072,10.606],[106.9879,10.5991],[106.9888,10.5619],[106.9703,10.5446],[106.8798,10.6077],[106.7533,10.6422],[106.7286,10.6889],[106.8701,10.7787],[106.8772,10.8029],[106.8411,10.8831],[106.8113,10.9098],[106.8069,10.8849],[106.7111,10.8633],[106.6337,10.9565],[106.6003,11.0315],[106.5221,11.0626],[106.5037,11.1298],[106.458,11.1186],[106.409,10.9879],[106.4123,10.9476],[106.4225,10.9195],[106.5153,10.8863],[106.5344,10.8493],[106.522,10.7808],[106.4686,10.6974],[106.5355,10.6145],[106.6953,10.5995],[106.7441,10.5185],[106.7762,10.411],[106.8083,10.3933],[106.8353,10.4099],[106.8342,10.333],[106.8803,10.3307],[106.9202,10.3612],[106.8994,10.4143],[106.9382,10.4392],[106.936,10.4796],[107.0142,10.4939],[107.031,10.5415],[107.0072,10.606]]]},"properties":{"iso3":"VNM","shapeId":"63759600B80663352659785","regionId":"VNM.25_1","name":"Hồ Chí Minh city"}},{"type":"Feature","geometry":{"type":"Polygon","coordinates":[[[105.8143,20.5461],[105.7842,20.5946],[105.7138,20.6213],[105.7167,20.7241],[105.6906,20.8123],[105.6686,20.8294],[105.6205,20.8043],[105.642,20.9194],[105.5951,20.9204],[105.5843,20.97],[105.5406,21.0106],[105.4794,21.0278],[105.3996,21.0033],[105.3842,20.9361],[105.3179,20.9172],[105.1661,20.9392],[105.1197,20.9864],[104.9822,21.049],[104.939,21.0912],[104.9122,21.0576],[104.9158,21.0198],[104.9487,20.9792],[105.0473,20.8965],[105.0706,20.8005],[105.0261,20.7371],[104.889,20.7589],[104.8758,20.7064],[104.8551,20.6931],[104.8585,20.6517],[104.9275,20.6241],[104.9643,20.5639],[105.0121,20.5458],[105.0985,20.5571],[105.3496,20.3925],[105.4982,20.3681],[105.5403,20.3306],[105.598,20.3371],[105.6914,20.2874],[105.7403,20.3196],[105.7179,20.3942],[105.7627,20.3693],[105.781,20.4269],[105.8556,20.3907],[105.8843,20.3975],[105.8722,20.4683],[105.8143,20.5461]]]},"properties":{"iso3":"VNM","shapeId":"63759600B96462676465033","regionId":"VNM.30_1","name":"Hòa Bình"}},{"type":"Feature","geometry":{"type":"Polygon","coordinates":[[[106.0303,21.0181],[105.9737,20.9806],[105.9588,20.9231],[105.9983,20.877],[105.9757,20.8224],[106.0222,20.7787],[106.0345,20.72],[106.0802,20.6927],[106.1183,20.6087],[106.1673,20.6181],[106.1942,20.6515],[106.2709,20.6664],[106.2948,20.6848],[106.2944,20.7095],[106.1853,20.8484],[106.2089,20.9494],[106.199,20.9776],[106.1581,21.0166],[106.0303,21.0181]]]},"properties":{"iso3":"VNM","shapeId":"63759600B38696477403674","regionId":"VNM.31_1","name":"Hưng Yên"}},{"type":"Feature","geometry":{"type":"MultiPolygon","coordinates":[[[[114.3485,9.5697],[114.3513,9.5732],[114.3515,9.5776],[114.3412,9.5798],[114.3328,9.579],[114.3332,9.5744],[114.3394,9.5705],[114.3485,9.5697]]],[[[114.0097,9.9088],[114.011,9.912],[114.0096,9.9173],[113.9971,9.9168],[113.9962,9.9122],[113.9975,9.909],[114.0015,9.907],[114.0057,9.9069],[114.0097,9.9088]]],[[[114.3411,10.0692],[114.3438,10.0882],[114.3296,10.0772],[114.3411,10.0692]]],[[[114.3397,10.2701],[114.3524,10.2861],[114.3255,10.2774],[114.3397,10.2701]]],[[[114.4379,10.286],[114.4146,10.2948],[114.4431,10.2708],[114.4379,10.286]]],[[[114.261,10.9469],[114.2621,10.9501],[114.2611,10.9528],[114.2539,10.9539],[114.2527,10.9508],[114.2535,10.9466],[114.2585,10.9446],[114.261,10.9469]]],[[[114.9957,11.0219],[114.997,11.0263],[114.994,11.0287],[114.9906,11.0278],[114.9893,11.026],[114.9911,11.0213],[114.9957,11.0219]]],[[[109.2469,12.2294],[109.2318,12.2294],[109.2837,12.1759],[109.329,12.1946],[109.3297,12.2153],[109.2469,12.2294]]],[[[108.6828,12.3211],[108.7171,12.1775],[108.7412,12.1559],[108.7926,12.1555],[108.8056,12.0597],[108.8205,12.0204],[108.8525,12.0074],[108.8724,11.9343],[109.0179,11.8916],[109.1166,11.8068],[109.1682,11.8102],[109.1821,11.813],[109.1677,11.833],[109.1847,11.8749],[109.1408,11.8189],[109.1116,11.864],[109.2073,11.9714],[109.2037,11.9031],[109.2415,11.8636],[109.2163,11.8464],[109.2491,11.8312],[109.2765,11.8629],[109.2595,11.9045],[109.2736,11.9422],[109.1944,12.0781],[109.2304,12.1421],[109.2055,12.247],[109.2386,12.3028],[109.2054,12.4012],[109.1689,12.433],[109.2094,12.4424],[109.2392,12.3814],[109.2786,12.3484],[109.3365,12.3885],[109.2358,12.5308],[109.2442,12.5884],[109.2133,12.5912],[109.2156,12.6329],[109.3196,12.753],[109.3528,12.7541],[109.3601,12.7125],[109.3067,12.6087],[109.395,12.5451],[109.4439,12.5615],[109.4653,12.6735],[109.3939,12.7388],[109.3725,12.8035],[109.3921,12.8465],[109.3673,12.8557],[109.2371,12.8129],[109.19,12.8247],[109.1529,12.7787],[109.03,12.7253],[108.998,12.6843],[108.9133,12.68],[108.9046,12.6274],[108.869,12.6105],[108.8938,12.5733],[108.878,12.4675],[108.8532,12.4553],[108.7826,12.5028],[108.7123,12.4588],[108.6814,12.3928],[108.6828,12.3211]]]]},"properties":{"iso3":"VNM","shapeId":"63759600B80040926405936","regionId":"VNM.32_1","name":"Khánh Hòa"}},{"type":"Feature","geometry":{"type":"MultiPolygon","coordinates":[[[[104.3625,9.7607],[104.372,9.797],[104.3452,9.7859],[104.3326,9.7516],[104.3478,9.6967],[104.4065,9.7214],[104.3886,9.7639],[104.3625,9.7607]]],[[[104.6337,9.8381],[104.6655,9.8651],[104.6074,9.8431],[104.6337,9.8381]]],[[[104.8445,9.9772],[104.847,9.9834],[104.8472,9.9924],[104.8505,9.9965],[104.8511,10.0042],[104.8445,10.007],[104.8389,10.002],[104.8378,9.9979],[104.8334,9.9929],[104.8394,9.9763],[104.8445,9.9772]]],[[[104.065,10.3649],[104.027,10.4237],[103.9854,10.448],[103.9314,10.3623],[103.838,10.3761],[103.86,10.3236],[103.9528,10.2466],[104.0149,9.9877],[104.043,10.0518],[104.0474,10.1712],[104.0755,10.2663],[104.065,10.3649]]],[[[104.7768,10.5243],[104.6677,10.542],[104.5958,10.5299],[104.5211,10.4185],[104.4358,10.4262],[104.4332,10.377],[104.4982,10.3718],[104.565,10.3026],[104.5993,10.1651],[104.6538,10.1599],[104.7003,10.2118],[104.7654,10.2352],[104.8128,10.2118],[104.8726,10.1175],[104.9174,10.0976],[104.9965,10.1063],[105.0738,10.0518],[105.1002,9.9696],[104.9258,9.8728],[104.8887,9.8313],[104.8409,9.5724],[104.8758,9.5535],[104.9134,9.5895],[105.0141,9.589],[105.2654,9.4256],[105.29,9.5174],[105.3199,9.5469],[105.319,9.5842],[105.2821,9.6258],[105.2953,9.6396],[105.3665,9.6093],[105.402,9.6333],[105.392,9.6656],[105.3436,9.6942],[105.5488,9.9104],[105.2637,10.1816],[105.0557,10.3147],[104.8527,10.401],[104.7768,10.5243]]]]},"properties":{"iso3":"VNM","shapeId":"63759600B18022923052532","regionId":"VNM.33_1","name":"Kiên Giang"}},{"type":"Feature","geometry":{"type":"Polygon","coordinates":[[[108.6311,14.6149],[108.6198,14.6451],[108.5792,14.6671],[108.6174,14.779],[108.5613,14.8269],[108.4742,14.8546],[108.3156,15.0425],[108.2343,15.0779],[108.2254,14.9837],[108.152,14.9832],[108.0361,15.0308],[108.013,15.0551],[108.0587,15.1396],[108.0531,15.1597],[107.9769,15.2032],[107.7967,15.2293],[107.7622,15.2964],[107.7,15.3352],[107.6631,15.4023],[107.6361,15.4142],[107.6005,15.3766],[107.6379,15.3122],[107.6193,15.2698],[107.6335,15.2228],[107.5983,15.1911],[107.6234,15.1399],[107.612,15.0465],[107.5864,15.0304],[107.5506,15.0448],[107.4653,15.0045],[107.4969,14.9434],[107.5959,14.8678],[107.5202,14.7963],[107.5583,14.6399],[107.5211,14.5838],[107.5323,14.5476],[107.4889,14.415],[107.4439,14.4139],[107.4149,14.3669],[107.3942,14.3273],[107.4049,14.2555],[107.334,14.1447],[107.3298,14.1117],[107.3686,14.0798],[107.3603,14.0225],[107.377,14.0017],[107.4354,13.993],[107.4551,13.9484],[107.4736,13.9785],[107.5231,13.9948],[107.5518,14.0376],[107.5965,14.0428],[107.6574,14.0903],[107.7165,14.2366],[107.7773,14.2251],[107.8495,14.243],[107.8792,14.287],[107.9136,14.3014],[107.9686,14.2726],[108.022,14.27],[108.1022,14.3114],[108.1251,14.3621],[108.1604,14.3855],[108.3464,14.439],[108.4451,14.5496],[108.4245,14.5965],[108.4337,14.6235],[108.4585,14.6316],[108.4848,14.5969],[108.531,14.5873],[108.6311,14.6149]]]},"properties":{"iso3":"VNM","shapeId":"63759600B65226847193503","regionId":"VNM.34_1","name":"Kon Tum"}},{"type":"Feature","geometry":{"type":"Polygon","coordinates":[[[103.5026,21.9636],[103.535,22.0144],[103.6514,21.9858],[103.6883,21.9393],[103.7157,21.8572],[103.7101,21.8215],[103.8553,21.6936],[103.9251,21.7012],[103.9762,21.7491],[103.8932,21.875],[103.9024,21.9069],[103.9535,21.9079],[103.9813,21.9403],[103.9536,22.105],[103.8731,22.186],[103.8203,22.2727],[103.7708,22.3098],[103.7836,22.3448],[103.7685,22.3944],[103.7256,22.4072],[103.6292,22.3908],[103.5613,22.4605],[103.5935,22.5266],[103.5684,22.5813],[103.5166,22.6004],[103.4256,22.7113],[103.4348,22.7629],[103.3367,22.8133],[103.2729,22.6794],[103.1748,22.6308],[103.1606,22.5925],[103.1748,22.5486],[103.0878,22.5028],[103.064,22.4429],[102.9183,22.4981],[102.8397,22.6209],[102.778,22.6366],[102.6977,22.6969],[102.5672,22.7122],[102.4959,22.7716],[102.4645,22.7582],[102.4218,22.6898],[102.39,22.6847],[102.4198,22.6303],[102.3501,22.5891],[102.3545,22.5666],[102.3218,22.547],[102.3493,22.4927],[102.3874,22.4639],[102.3933,22.4049],[102.4571,22.3496],[102.5213,22.2516],[102.5885,22.2454],[102.6264,22.1839],[102.6779,22.1746],[102.6815,22.2478],[102.7286,22.232],[102.7499,22.1881],[102.7387,22.1372],[102.7725,22.0802],[102.8447,22.0537],[102.9292,22.091],[102.9768,22.0239],[103.0127,22.0497],[103.1189,22.0742],[103.1873,22.073],[103.2796,22.0363],[103.2945,22.0477],[103.2896,22.0994],[103.3663,22.1477],[103.3961,22.1345],[103.4117,22.0814],[103.4784,22.0189],[103.4667,21.9826],[103.5026,21.9636]]]},"properties":{"iso3":"VNM","shapeId":"63759600B24004656938543","regionId":"VNM.36_1","name":"Lai Châu"}},{"type":"Feature","geometry":{"type":"Polygon","coordinates":[[[107.3136,11.5464],[107.3465,11.5476],[107.4519,11.4966],[107.4645,11.4743],[107.4348,11.433],[107.48,11.4293],[107.5351,11.3567],[107.5693,11.3974],[107.6838,11.3409],[107.7645,11.3828],[107.9394,11.3555],[108.0283,11.3257],[108.0587,11.231],[108.0862,11.2645],[108.1949,11.311],[108.2909,11.393],[108.3013,11.4244],[108.2577,11.4631],[108.2748,11.5071],[108.4899,11.527],[108.5412,11.5099],[108.5775,11.549],[108.557,11.5822],[108.5658,11.6073],[108.6889,11.6531],[108.6683,11.7646],[108.6282,11.7993],[108.6519,11.834],[108.6788,11.995],[108.7117,12.0572],[108.6933,12.1129],[108.7291,12.1608],[108.6943,12.308],[108.6828,12.3211],[108.6127,12.267],[108.4664,12.2738],[108.4119,12.2314],[108.3385,12.2218],[108.2411,12.17],[108.1222,12.1788],[108.08,12.1161],[107.9839,12.1029],[107.9566,12.0532],[107.9826,12.0494],[108.0934,11.8674],[108.076,11.8339],[108.0006,11.7928],[107.8967,11.8061],[107.8814,11.8728],[107.7524,11.8517],[107.6963,11.9185],[107.5521,11.7943],[107.5017,11.7969],[107.433,11.7556],[107.3735,11.7669],[107.2839,11.7253],[107.2611,11.642],[107.3136,11.5464]]]},"properties":{"iso3":"VNM","shapeId":"63759600B25056861299541","regionId":"VNM.37_1","name":"Lâm Đồng"}},{"type":"Feature","geometry":{"type":"Polygon","coordinates":[[[107.1018,21.3725],[107.3398,21.4209],[107.2787,21.558],[107.3914,21.6118],[107.3291,21.7292],[107.2971,21.7316],[107.265,21.7015],[107.1582,21.7659],[107.1416,21.7963],[107.0569,21.8141],[107.0421,21.8568],[107.0812,21.9003],[107.0499,21.9382],[106.9633,21.9297],[106.9298,21.9806],[106.8362,21.9768],[106.7909,22.011],[106.7363,21.9696],[106.7216,21.9963],[106.7444,22.094],[106.7019,22.1939],[106.7135,22.2816],[106.6836,22.3276],[106.6004,22.3416],[106.5901,22.3917],[106.5202,22.3732],[106.4924,22.3367],[106.3927,22.3367],[106.2713,22.4238],[106.2186,22.4228],[106.1925,22.3806],[106.2323,22.3358],[106.222,22.2908],[106.2611,22.2301],[106.2507,22.1421],[106.2028,22.112],[106.1929,22.0748],[106.1251,22.0619],[106.1222,22.0393],[106.138,21.9662],[106.1244,21.928],[106.1693,21.9044],[106.1325,21.7908],[106.2076,21.7351],[106.2784,21.7145],[106.2224,21.5779],[106.232,21.5097],[106.3289,21.4905],[106.435,21.4075],[106.5381,21.4757],[106.6276,21.6159],[106.7408,21.618],[106.7599,21.5782],[106.8038,21.5669],[106.838,21.5919],[106.911,21.5697],[106.911,21.5357],[106.9692,21.4668],[107.0477,21.4627],[107.0565,21.4082],[107.1018,21.3725]]]},"properties":{"iso3":"VNM","shapeId":"63759600B58815535609509","regionId":"VNM.35_1","name":"Lạng Sơn"}},{"type":"Feature","geometry":{"type":"Polygon","coordinates":[[[104.3618,22.692],[104.3323,22.7256],[104.2652,22.7534],[104.2588,22.7853],[104.2834,22.8399],[104.1199,22.8109],[104.0496,22.7363],[104.0268,22.67],[104.0415,22.6406],[104.0162,22.5233],[103.9782,22.506],[103.872,22.5729],[103.6539,22.7922],[103.6244,22.7844],[103.5661,22.7053],[103.5783,22.6513],[103.5306,22.5943],[103.5684,22.5813],[103.5935,22.5266],[103.5544,22.4716],[103.6292,22.3908],[103.7256,22.4072],[103.7735,22.3898],[103.7836,22.3448],[103.7688,22.3134],[103.9414,22.1252],[103.9843,21.9689],[104.0304,21.9069],[104.2287,21.8755],[104.2505,21.8989],[104.2332,21.9327],[104.3223,21.9116],[104.3876,21.8553],[104.4599,21.9224],[104.4331,22.0097],[104.3997,22.0435],[104.4194,22.0988],[104.4174,22.1846],[104.4518,22.1878],[104.5854,22.0721],[104.6078,22.1518],[104.6363,22.1815],[104.6263,22.2271],[104.5581,22.2464],[104.5869,22.3026],[104.5768,22.347],[104.4726,22.4224],[104.4523,22.4616],[104.464,22.4939],[104.423,22.528],[104.4291,22.5705],[104.4716,22.5752],[104.467,22.6084],[104.421,22.6527],[104.3592,22.6752],[104.3618,22.692]]]},"properties":{"iso3":"VNM","shapeId":"63759600B43481155123024","regionId":"VNM.38_1","name":"Lào Cai"}},{"type":"Feature","geometry":{"type":"Polygon","coordinates":[[[105.9273,10.5386],[106.1019,10.5227],[106.0996,10.5725],[106.2768,10.5603],[106.3342,10.5089],[106.3482,10.4469],[106.4332,10.4281],[106.4208,10.3794],[106.4641,10.3767],[106.5423,10.3811],[106.6328,10.4325],[106.6514,10.4082],[106.675,10.4154],[106.746,10.509],[106.6767,10.61],[106.6255,10.5973],[106.5355,10.6145],[106.4686,10.6974],[106.522,10.7808],[106.5265,10.8769],[106.313,10.9918],[106.2602,10.9651],[106.1431,10.9738],[106.1945,10.7912],[106.1583,10.8118],[106.0685,10.8138],[105.9422,10.9197],[105.9286,10.8532],[105.8611,10.8685],[105.7722,11.0339],[105.508,10.9529],[105.5861,10.8897],[105.6113,10.8324],[105.7391,10.7007],[105.8432,10.636],[105.9073,10.5404],[105.9273,10.5386]]]},"properties":{"iso3":"VNM","shapeId":"63759600B22652371205312","regionId":"VNM.39_1","name":"Long An"}},{"type":"Feature","geometry":{"type":"Polygon","coordinates":[[[106.2319,20.4781],[106.1837,20.4937],[106.1561,20.4694],[106.1104,20.4706],[106.0202,20.4006],[105.9729,20.4034],[105.9321,20.3658],[106.006,20.258],[106.058,20.2336],[106.0986,20.2446],[106.1112,20.2202],[106.1531,20.2265],[106.1749,20.1872],[106.1745,20.1254],[106.1032,19.9923],[106.1108,19.9584],[106.1724,19.9592],[106.4113,20.1942],[106.518,20.2186],[106.5568,20.1976],[106.6062,20.241],[106.6033,20.2933],[106.5669,20.3287],[106.478,20.311],[106.3783,20.3741],[106.3205,20.3362],[106.2972,20.3399],[106.3244,20.4084],[106.266,20.4204],[106.2719,20.4653],[106.2319,20.4781]]]},"properties":{"iso3":"VNM","shapeId":"63759600B40468097531795","regionId":"VNM.40_1","name":"Nam Định"}},{"type":"Feature","geometry":{"type":"Polygon","coordinates":[[[105.7292,18.6731],[105.7724,18.6774],[105.7482,18.7388],[105.761,18.7604],[105.7235,18.8033],[105.7156,18.8474],[105.6146,18.9344],[105.6092,19.0345],[105.6412,19.097],[105.7313,19.1009],[105.7324,19.2035],[105.7806,19.2401],[105.8044,19.307],[105.6757,19.322],[105.6421,19.3663],[105.5445,19.422],[105.5235,19.4624],[105.4648,19.4529],[105.3801,19.4774],[105.3411,19.5469],[105.3064,19.5102],[105.2828,19.5116],[105.2682,19.6658],[105.1726,19.7123],[105.1324,19.7692],[105.1265,19.8465],[105.1957,19.9013],[105.1844,19.934],[105.1483,19.9568],[105.0142,19.9706],[104.9576,20.0301],[104.9101,20.0288],[104.9011,20.0058],[104.8454,19.9771],[104.8289,19.9475],[104.8601,19.8635],[104.8521,19.8285],[104.7135,19.7511],[104.6376,19.6269],[104.5416,19.6212],[104.4487,19.669],[104.4171,19.7047],[104.3393,19.6743],[104.3111,19.6983],[104.251,19.7025],[104.1509,19.6442],[104.0755,19.6761],[104.0665,19.6167],[104.1291,19.5406],[104.1372,19.4867],[104.0674,19.4065],[103.9877,19.3842],[103.951,19.3412],[103.8792,19.3182],[103.968,19.2538],[104.0154,19.2348],[104.0711,19.2436],[104.1748,19.1952],[104.2268,19.153],[104.2231,19.1159],[104.2913,19.114],[104.3866,19.0604],[104.4495,18.9872],[104.4905,19.0033],[104.5466,18.9761],[104.5857,18.9088],[104.753,18.7994],[104.8643,18.7771],[104.924,18.7879],[104.9609,18.7427],[105.0174,18.746],[105.0773,18.7049],[105.1508,18.7015],[105.1958,18.6469],[105.1894,18.6014],[105.2303,18.6014],[105.2592,18.6354],[105.3559,18.588],[105.4643,18.6173],[105.5317,18.5645],[105.5639,18.5629],[105.6146,18.5861],[105.677,18.5832],[105.6831,18.6313],[105.7292,18.6731]]]},"properties":{"iso3":"VNM","shapeId":"63759600B83996903780984","regionId":"VNM.41_1","name":"Nghệ An"}},{"type":"Feature","geometry":{"type":"Polygon","coordinates":[[[105.8844,20.3981],[105.8556,20.3907],[105.781,20.4269],[105.7627,20.3693],[105.7179,20.3942],[105.7403,20.3196],[105.6914,20.2874],[105.598,20.3371],[105.54,20.3245],[105.5616,20.2898],[105.7494,20.1513],[105.9553,20.0557],[106.0743,20.0659],[106.0336,19.9899],[106.0567,19.93],[106.0814,19.93],[106.1225,20.0443],[106.1745,20.1254],[106.1749,20.1872],[106.1531,20.2265],[106.1112,20.2202],[106.0986,20.2446],[106.058,20.2336],[106.006,20.258],[105.9557,20.3507],[105.8844,20.3981]]]},"properties":{"iso3":"VNM","shapeId":"63759600B34339839848337","regionId":"VNM.42_1","name":"Ninh Bình"}},{"type":"Feature","geometry":{"type":"Polygon","coordinates":[[[108.8523,11.3135],[108.9403,11.2977],[109.0105,11.3472],[109.0016,11.4426],[109.036,11.5787],[109.0948,11.5815],[109.1217,11.557],[109.1366,11.5682],[109.2033,11.7089],[109.2365,11.7321],[109.1821,11.813],[109.1166,11.8068],[109.0179,11.8916],[108.8724,11.9343],[108.8525,12.0074],[108.8205,12.0204],[108.8056,12.0597],[108.7926,12.1555],[108.7289,12.1608],[108.6933,12.1129],[108.7117,12.0572],[108.6788,11.995],[108.6519,11.834],[108.6282,11.7993],[108.6683,11.7646],[108.6889,11.6531],[108.5718,11.611],[108.557,11.5822],[108.5765,11.5524],[108.6462,11.5371],[108.6862,11.4552],[108.7421,11.448],[108.7796,11.3593],[108.8424,11.3462],[108.8523,11.3135]]]},"properties":{"iso3":"VNM","shapeId":"63759600B19155127097543","regionId":"VNM.43_1","name":"Ninh Thuận"}},{"type":"Feature","geometry":{"type":"Polygon","coordinates":[[[105.4999,21.2802],[105.4929,21.3293],[105.4439,21.3715],[105.4531,21.4161],[105.3849,21.4469],[105.3663,21.5214],[105.2976,21.5751],[105.2704,21.6529],[105.2144,21.6967],[105.137,21.708],[104.9504,21.6348],[104.9414,21.5604],[104.9077,21.5357],[104.9262,21.5252],[104.9268,21.4809],[104.9602,21.4176],[104.8727,21.3162],[104.9042,21.2322],[104.9031,21.1397],[104.9822,21.049],[105.1197,20.9864],[105.1661,20.9392],[105.3684,20.9227],[105.3894,20.942],[105.3997,21.0032],[105.3603,21.0252],[105.3838,21.0871],[105.3621,21.1851],[105.4008,21.204],[105.3997,21.2702],[105.4332,21.2956],[105.4999,21.2802]]]},"properties":{"iso3":"VNM","shapeId":"63759600B45971409679814","regionId":"VNM.44_1","name":"Phú Thọ"}},{"type":"Feature","geometry":{"type":"MultiPolygon","coordinates":[[[[109.3374,13.2845],[109.3376,13.2862],[109.333,13.2888],[109.3297,13.288],[109.3284,13.2859],[109.3286,13.281],[109.3337,13.2765],[109.3398,13.2773],[109.3419,13.283],[109.3374,13.2845]]],[[[108.8537,13.5683],[108.7827,13.581],[108.7392,13.5561],[108.7204,13.5108],[108.7353,13.4893],[108.796,13.4778],[108.8022,13.386],[108.8781,13.2624],[108.8418,13.1677],[108.7636,13.1358],[108.7558,13.0393],[108.6751,12.9927],[108.7621,12.9329],[108.7931,12.8692],[108.8486,12.8571],[108.8645,12.8199],[108.9814,12.8112],[109.016,12.7139],[109.1128,12.7508],[109.19,12.8247],[109.2371,12.8129],[109.3673,12.8557],[109.3933,12.8464],[109.4284,12.8773],[109.4273,12.8531],[109.4437,12.8527],[109.4586,12.8981],[109.307,13.1203],[109.2967,13.221],[109.3116,13.2675],[109.2866,13.3237],[109.2971,13.3613],[109.2553,13.3641],[109.2323,13.4012],[109.2436,13.4792],[109.2825,13.4633],[109.2596,13.4202],[109.2967,13.3979],[109.3356,13.4811],[109.286,13.5342],[109.3001,13.5728],[109.2444,13.6218],[109.2323,13.678],[109.1981,13.6952],[109.1691,13.6789],[109.0962,13.5947],[109.0068,13.5372],[108.8682,13.5502],[108.8537,13.5683]]]]},"properties":{"iso3":"VNM","shapeId":"63759600B26645729855564","regionId":"VNM.45_1","name":"Phú Yên"}},{"type":"Feature","geometry":{"type":"Polygon","coordinates":[[[105.6452,17.9847],[105.6193,17.8875],[105.6789,17.8356],[105.7549,17.6738],[105.8079,17.6693],[105.8761,17.6233],[106.0587,17.4011],[106.2038,17.276],[106.2636,17.2501],[106.2759,17.2893],[106.3095,17.2869],[106.3422,17.2314],[106.3185,17.2173],[106.3234,17.1977],[106.4341,17.0827],[106.4183,17.0356],[106.465,16.9925],[106.5171,16.9754],[106.5755,16.9941],[106.6023,16.9832],[106.6151,16.9443],[106.696,16.9578],[106.7665,16.9366],[106.8106,17.0296],[106.8714,17.0501],[106.8614,17.0812],[107.0015,17.1644],[106.7567,17.3635],[106.5184,17.6685],[106.4465,17.8446],[106.5094,17.9607],[106.4527,17.957],[106.3406,17.9896],[106.2832,17.9544],[106.2711,17.919],[106.1499,17.9184],[106.0459,17.9529],[106.0643,17.9959],[106.0516,18.0141],[105.9102,18.0895],[105.8588,18.0686],[105.8588,18.0247],[105.7429,18.0247],[105.7072,17.9763],[105.6452,17.9847]]]},"properties":{"iso3":"VNM","shapeId":"63759600B63586366081005","regionId":"VNM.46_1","name":"Quảng Bình"}},{"type":"Feature","geometry":{"type":"Polygon","coordinates":[[[108.2923,15.9715],[108.1741,15.9329],[108.0925,15.9403],[108.0146,15.9203],[107.9918,15.9374],[108.0126,16.001],[107.9707,16.0507],[107.9254,16.0291],[107.8958,16.0533],[107.8096,16.0559],[107.7178,15.9939],[107.6176,16.0584],[107.572,16.0458],[107.5573,16.0075],[107.4802,16.0377],[107.4372,15.9072],[107.2233,15.83],[107.2196,15.7528],[107.2763,15.7104],[107.281,15.6457],[107.3502,15.6058],[107.4066,15.4995],[107.4787,15.4955],[107.5713,15.4023],[107.6631,15.4023],[107.6795,15.3565],[107.7622,15.2964],[107.7967,15.2293],[107.9769,15.2032],[108.0531,15.1597],[108.0587,15.1396],[108.013,15.0551],[108.0361,15.0308],[108.152,14.9832],[108.2254,14.9837],[108.2343,15.0779],[108.3203,15.05],[108.3707,15.1867],[108.356,15.2753],[108.3801,15.3036],[108.538,15.3208],[108.7462,15.388],[108.6706,15.5114],[108.6072,15.5346],[108.5642,15.5745],[108.3976,15.8811],[108.2923,15.9715]]]},"properties":{"iso3":"VNM","shapeId":"63759600B74453713760270","regionId":"VNM.47_1","name":"Quảng Nam"}},{"type":"Feature","geometry":{"type":"MultiPolygon","coordinates":[[[[109.1497,15.377],[109.1129,15.3951],[109.094,15.3835],[109.1497,15.377]]],[[[109.0888,14.6596],[109.0959,14.6803],[108.9414,14.9624],[108.9134,15.0523],[108.9044,15.19],[108.9647,15.2343],[108.8901,15.274],[108.8839,15.327],[108.8377,15.3642],[108.8304,15.419],[108.7995,15.4253],[108.8068,15.4047],[108.781,15.3902],[108.7467,15.3992],[108.7262,15.3774],[108.5731,15.3299],[108.3654,15.2915],[108.3707,15.1867],[108.3156,15.0424],[108.4742,14.8546],[108.5613,14.8269],[108.6174,14.779],[108.5804,14.6573],[108.6198,14.6451],[108.6872,14.5649],[108.7194,14.5972],[108.8209,14.6249],[108.84,14.6861],[108.9563,14.7161],[109.0279,14.7023],[109.0888,14.6596]]]]},"properties":{"iso3":"VNM","shapeId":"63759600B52816170319692","regionId":"VNM.48_1","name":"Quảng Ngãi"}},{"type":"Feature","geometry":{"type":"MultiPolygon","coordinates":[[[[107.2993,20.827],[107.2998,20.8853],[107.2527,20.8721],[107.2605,20.8373],[107.2993,20.827]]],[[[107.8421,21.0464],[107.8363,21.0821],[107.8111,21.0851],[107.8153,20.9803],[107.9108,21.0719],[107.8421,21.0464]]],[[[107.5279,20.9022],[107.6107,21.0139],[107.6246,21.1186],[107.5975,21.1186],[107.3878,20.9741],[107.319,20.9175],[107.3149,20.8899],[107.3665,20.8631],[107.4206,20.8899],[107.4484,20.8769],[107.4648,20.8248],[107.4886,20.8218],[107.5156,20.8394],[107.5279,20.9022]]],[[[107.873,21.1394],[107.8562,21.1575],[107.8557,21.1379],[107.873,21.1394]]],[[[107.9118,21.176],[107.9118,21.1814],[107.9045,21.1814],[107.9019,21.177],[107.9045,21.1741],[107.9076,21.1736],[107.9118,21.176]]],[[[107.6611,21.1397],[107.6845,21.2128],[107.6414,21.128],[107.6611,21.1397]]],[[[108.0445,21.2334],[108.0475,21.2362],[108.0455,21.2387],[108.0435,21.2381],[108.0422,21.2352],[108.0428,21.2334],[108.0445,21.2334]]],[[[107.7077,21.2266],[107.717,21.2504],[107.6841,21.2268],[107.7077,21.2266]]],[[[108.0015,21.2543],[108.0019,21.2603],[107.9982,21.2637],[107.9911,21.2625],[107.9885,21.2581],[107.9911,21.2531],[108.0015,21.2543]]],[[[107.5537,21.2841],[107.5217,21.2836],[107.5112,21.2655],[107.4823,21.1252],[107.5442,21.1222],[107.6591,21.2372],[107.6496,21.2714],[107.5537,21.2841]]],[[[107.9999,21.3925],[107.9732,21.4013],[107.8353,21.3715],[107.6643,21.2743],[107.8043,21.3407],[107.9653,21.3681],[107.9999,21.3925]]],[[[107.9244,21.4072],[107.8982,21.4223],[107.8683,21.4033],[107.9244,21.4072]]],[[[106.6114,21.2618],[106.6079,21.1839],[106.5666,21.1479],[106.5785,21.1263],[106.8769,21.0512],[106.9043,21.0284],[106.9129,20.9868],[106.9892,20.9539],[107.0831,20.9845],[107.1039,20.9378],[107.165,20.919],[107.2835,20.9956],[107.37,20.9935],[107.3826,21.0394],[107.4661,21.0791],[107.4877,21.2347],[107.4833,21.2674],[107.4452,21.2979],[107.522,21.3229],[107.6375,21.3195],[107.7009,21.3868],[107.7635,21.4152],[107.8343,21.5068],[107.8879,21.5304],[107.9431,21.5082],[107.9267,21.4194],[107.949,21.4166],[108.0787,21.4908],[108.0228,21.5054],[108.025,21.5477],[107.9617,21.5387],[107.8752,21.6281],[107.8357,21.6433],[107.7769,21.6475],[107.7009,21.6101],[107.5995,21.6045],[107.5235,21.6101],[107.4706,21.6585],[107.2787,21.558],[107.3398,21.4209],[107.1018,21.3725],[107.0908,21.3395],[107.0464,21.3348],[107.0607,21.2743],[107.0179,21.2258],[106.9219,21.2344],[106.9156,21.2047],[106.8892,21.1965],[106.6507,21.2364],[106.6114,21.2618]]]]},"properties":{"iso3":"VNM","shapeId":"63759600B48704001246073","regionId":"VNM.49_1","name":"Quảng Ninh"}},{"type":"Feature","geometry":{"type":"Polygon","coordinates":[[[106.5494,16.9922],[106.5483,16.9262],[106.5199,16.9151],[106.5539,16.8621],[106.554,16.7069],[106.5906,16.66],[106.5883,16.6207],[106.6708,16.5786],[106.649,16.5291],[106.6812,16.4505],[106.7628,16.4264],[106.8128,16.4676],[106.8387,16.5426],[106.8574,16.5459],[106.9023,16.5239],[106.8988,16.4091],[106.9727,16.3463],[106.9731,16.3106],[107.1065,16.3106],[107.1219,16.3845],[107.1638,16.3929],[107.1299,16.4904],[107.0756,16.5136],[107.0742,16.5368],[107.1679,16.5773],[107.2698,16.5702],[107.3011,16.585],[107.3241,16.612],[107.3147,16.6466],[107.389,16.742],[107.1397,16.9771],[107.1085,17.0249],[107.1125,17.0868],[107.0014,17.1644],[106.8614,17.0812],[106.8714,17.0501],[106.8106,17.0296],[106.7665,16.9366],[106.696,16.9578],[106.6151,16.9443],[106.6023,16.9832],[106.5494,16.9922]]]},"properties":{"iso3":"VNM","shapeId":"63759600B21465540527765","regionId":"VNM.50_1","name":"Quảng Trị"}},{"type":"Feature","geometry":{"type":"MultiPolygon","coordinates":[[[[106.1447,8.6116],[106.1449,8.6195],[106.1401,8.6191],[106.1385,8.6125],[106.141,8.6109],[106.1447,8.6116]]],[[[105.8376,9.2623],[106.1898,9.3493],[106.2222,9.47],[106.2704,9.4942],[106.2963,9.5595],[106.107,9.7692],[105.9028,9.9414],[105.8669,9.8951],[105.828,9.7404],[105.7037,9.6683],[105.5496,9.6151],[105.5496,9.4631],[105.6806,9.4009],[105.7757,9.4237],[105.7925,9.3898],[105.8342,9.4087],[105.8623,9.3976],[105.824,9.346],[105.8376,9.2623]]]]},"properties":{"iso3":"VNM","shapeId":"63759600B58335636470412","regionId":"VNM.51_1","name":"Sóc Trăng"}},{"type":"Feature","geometry":{"type":"Polygon","coordinates":[[[103.2173,20.896],[103.236,20.8407],[103.2987,20.8337],[103.3968,20.7865],[103.4415,20.7965],[103.468,20.8271],[103.5103,20.7556],[103.5928,20.7463],[103.6883,20.6654],[103.7161,20.6662],[103.743,20.6854],[103.7337,20.7354],[103.7894,20.7527],[103.7782,20.8081],[103.8116,20.8631],[104.0402,20.9118],[104.0548,20.9478],[104.1063,20.9726],[104.2317,20.9338],[104.2469,20.9078],[104.3041,20.9045],[104.385,20.8067],[104.4751,20.7679],[104.4999,20.7154],[104.6345,20.6713],[104.635,20.6121],[104.7347,20.5653],[104.7751,20.5709],[104.848,20.6448],[104.889,20.7589],[105.0261,20.7371],[105.0711,20.792],[105.0473,20.8965],[105.0023,20.923],[104.9102,21.0321],[104.9401,21.0963],[104.9031,21.1397],[104.9042,21.2322],[104.8708,21.318],[104.7959,21.3251],[104.7615,21.3746],[104.6886,21.3623],[104.5854,21.4151],[104.5044,21.3453],[104.4311,21.3581],[104.3274,21.4141],[104.2995,21.473],[104.3577,21.625],[104.2687,21.6636],[104.1953,21.6306],[103.9605,21.6679],[103.9239,21.701],[103.8553,21.6936],[103.7101,21.8215],[103.7157,21.8572],[103.6883,21.9393],[103.6514,21.9858],[103.5606,22.0159],[103.5195,22.0072],[103.4865,21.8971],[103.53,21.8403],[103.5472,21.7646],[103.6005,21.6712],[103.5286,21.5312],[103.4589,21.4911],[103.4441,21.4281],[103.3353,21.4097],[103.3853,21.3571],[103.3832,21.3298],[103.4242,21.3147],[103.4384,21.2859],[103.4379,21.186],[103.3944,21.1223],[103.4187,21.068],[103.3944,21.0562],[103.3301,21.0925],[103.2836,21.0902],[103.2962,20.9608],[103.2623,20.8989],[103.2173,20.896]]]},"properties":{"iso3":"VNM","shapeId":"63759600B3920147428024","regionId":"VNM.52_1","name":"Sơn La"}},{"type":"Feature","geometry":{"type":"Polygon","coordinates":[[[106.4464,11.4727],[106.4324,11.5164],[106.4795,11.5235],[106.4914,11.5496],[106.4488,11.6698],[106.3836,11.6934],[106.3134,11.6767],[106.2571,11.7235],[106.1936,11.7472],[106.1705,11.7346],[106.1103,11.7467],[106.0749,11.7748],[106.0203,11.7709],[106.0175,11.7296],[105.9663,11.647],[105.8651,11.6762],[105.8117,11.6178],[105.8162,11.5726],[105.8814,11.5412],[105.8753,11.4668],[105.8955,11.4349],[105.8771,11.4108],[105.8709,11.3169],[105.9105,11.2393],[106.0107,11.1902],[106.0326,11.1376],[106.11,11.079],[106.1565,11.0979],[106.1987,10.9755],[106.2602,10.9651],[106.313,10.9918],[106.4192,10.9287],[106.409,10.9879],[106.4682,11.1272],[106.4277,11.1515],[106.3816,11.2203],[106.3629,11.3065],[106.3988,11.4111],[106.4464,11.4727]]]},"properties":{"iso3":"VNM","shapeId":"63759600B24834630697040","regionId":"VNM.53_1","name":"Tây Ninh"}},{"type":"Feature","geometry":{"type":"Polygon","coordinates":[[[106.2319,20.4781],[106.2719,20.4653],[106.266,20.4204],[106.3244,20.4084],[106.3043,20.336],[106.3932,20.3721],[106.4642,20.3146],[106.5669,20.3287],[106.6031,20.2938],[106.6269,20.4723],[106.5933,20.5552],[106.6356,20.6307],[106.5942,20.6515],[106.5069,20.6312],[106.4181,20.7263],[106.3338,20.7095],[106.2558,20.659],[106.1942,20.6515],[106.1673,20.6181],[106.2244,20.5412],[106.2319,20.4781]]]},"properties":{"iso3":"VNM","shapeId":"63759600B57830284065529","regionId":"VNM.55_1","name":"Thái Bình"}},{"type":"Feature","geometry":{"type":"Polygon","coordinates":[[[106.2331,21.6077],[106.2784,21.7145],[106.1402,21.7782],[106.1303,21.7977],[106.1557,21.8281],[106.1498,21.8685],[106.1693,21.9044],[106.1461,21.9204],[106.0566,21.9594],[105.9136,21.8637],[105.8392,21.8449],[105.8108,21.8093],[105.7884,21.8185],[105.7964,21.952],[105.7648,22.0115],[105.6714,22.0447],[105.6052,22.0075],[105.5662,21.9519],[105.5673,21.9126],[105.5234,21.8253],[105.5387,21.7616],[105.5146,21.6683],[105.5625,21.6005],[105.6493,21.5554],[105.6867,21.5049],[105.8075,21.4339],[105.8226,21.4078],[105.9177,21.3897],[105.9689,21.3495],[106.0304,21.436],[106.0953,21.413],[106.1115,21.5971],[106.141,21.6173],[106.2331,21.6077]]]},"properties":{"iso3":"VNM","shapeId":"63759600B68663063324919","regionId":"VNM.56_1","name":"Thái Nguyên"}},{"type":"Feature","geometry":{"type":"MultiPolygon","coordinates":[[[[105.9213,19.3621],[105.9232,19.3874],[105.9038,19.3788],[105.9213,19.3621]]],[[[104.8556,20.6552],[104.7524,20.5648],[104.6471,20.6117],[104.5812,20.5895],[104.3908,20.4808],[104.3816,20.4509],[104.4114,20.4034],[104.4894,20.3759],[104.5438,20.4164],[104.6101,20.4278],[104.6377,20.4717],[104.6633,20.4698],[104.7111,20.4014],[104.6217,20.3666],[104.6292,20.2601],[104.8774,20.175],[104.9236,20.1769],[104.9819,20.1084],[104.9333,20.0368],[105.0142,19.9706],[105.1483,19.9568],[105.1844,19.934],[105.1957,19.9013],[105.1265,19.8465],[105.1324,19.7692],[105.1726,19.7123],[105.2682,19.6658],[105.2828,19.5116],[105.3064,19.5102],[105.3411,19.5469],[105.3801,19.4774],[105.4648,19.4529],[105.5235,19.4624],[105.5445,19.422],[105.6421,19.3663],[105.6757,19.322],[105.783,19.3157],[105.8085,19.2907],[105.819,19.3204],[105.7712,19.3936],[105.801,19.4544],[105.8428,19.6705],[105.8723,19.7211],[105.9208,19.7303],[105.9678,19.9249],[106.0202,19.9442],[106.0743,20.0659],[105.9553,20.0557],[105.7494,20.1513],[105.5616,20.2898],[105.4982,20.3681],[105.3496,20.3925],[105.0985,20.5571],[105.0121,20.5458],[104.9643,20.5639],[104.9275,20.6241],[104.8556,20.6552]]]]},"properties":{"iso3":"VNM","shapeId":"63759600B30623332474263","regionId":"VNM.57_1","name":"Thanh Hóa"}},{"type":"Feature","geometry":{"type":"Polygon","coordinates":[[[108.1579,16.2016],[108.1955,16.209],[108.1161,16.2172],[108.0853,16.2382],[108.0239,16.3422],[108.021,16.3191],[107.9823,16.3162],[107.681,16.5449],[107.6284,16.5681],[107.7385,16.4726],[107.6838,16.5179],[107.6473,16.4956],[107.6369,16.5455],[107.4361,16.64],[107.4593,16.6532],[107.6218,16.5738],[107.389,16.742],[107.3147,16.6466],[107.3241,16.612],[107.3011,16.585],[107.2698,16.5702],[107.1679,16.5773],[107.0742,16.5368],[107.0756,16.5136],[107.1299,16.4904],[107.1618,16.4048],[107.1152,16.3746],[107.0994,16.3065],[107.1641,16.2717],[107.1619,16.1879],[107.2081,16.1486],[107.2841,16.1279],[107.3533,16.0574],[107.4456,16.0861],[107.4713,16.0791],[107.4703,16.0246],[107.4913,16.0357],[107.5573,16.0075],[107.572,16.0458],[107.6176,16.0584],[107.701,15.9969],[107.732,15.9964],[107.8615,16.1002],[107.8872,16.1924],[107.9968,16.2065],[108.066,16.179],[108.1579,16.2016]]]},"properties":{"iso3":"VNM","shapeId":"63759600B73452440048702","regionId":"VNM.54_1","name":"Thừa Thiên  Huế"}},{"type":"Feature","geometry":{"type":"Polygon","coordinates":[[[106.6633,10.2542],[106.7791,10.2433],[106.7701,10.3186],[106.8139,10.3512],[106.7459,10.5089],[106.675,10.4154],[106.6514,10.4082],[106.6328,10.4325],[106.5423,10.3811],[106.4208,10.3794],[106.4332,10.4281],[106.3482,10.4469],[106.3342,10.5089],[106.2768,10.5603],[106.0996,10.5725],[106.1019,10.5227],[105.9273,10.5386],[105.9263,10.4935],[105.7996,10.3735],[105.8338,10.3108],[105.8932,10.2779],[105.9799,10.3243],[106.1005,10.2811],[106.2054,10.3108],[106.3477,10.3197],[106.6633,10.2542]]]},"properties":{"iso3":"VNM","shapeId":"63759600B12588044805894","regionId":"VNM.58_1","name":"Tiền Giang"}},{"type":"Feature","geometry":{"type":"Polygon","coordinates":[[[106.258,10.0899],[106.2043,10.0366],[106.1036,10.0368],[106.0856,9.9781],[106.0248,9.977],[105.921,9.9329],[106.1644,9.7211],[106.3982,9.5495],[106.4887,9.5478],[106.5423,9.5729],[106.5722,9.5954],[106.5951,9.6561],[106.5467,9.7696],[106.5617,9.8387],[106.5096,9.8994],[106.3212,10.0124],[106.258,10.0899]]]},"properties":{"iso3":"VNM","shapeId":"63759600B34771484427393","regionId":"VNM.59_1","name":"Trà Vinh"}},{"type":"Feature","geometry":{"type":"Polygon","coordinates":[[[105.5732,21.9644],[105.5153,22.018],[105.4737,22.0946],[105.4977,22.1533],[105.4398,22.2117],[105.4479,22.2628],[105.4829,22.2843],[105.5168,22.3971],[105.5537,22.4107],[105.5452,22.438],[105.5964,22.5071],[105.5504,22.6061],[105.529,22.6341],[105.4496,22.6079],[105.3413,22.6434],[105.2963,22.6144],[105.2497,22.6569],[105.1445,22.6826],[105.1384,22.6602],[105.1597,22.6303],[105.1197,22.5766],[105.1327,22.5439],[105.0858,22.3601],[105.0504,22.3541],[105.0529,22.304],[105.0074,22.2703],[104.9846,22.3175],[104.9117,22.3241],[104.9239,22.2727],[104.9061,22.2022],[104.8489,22.1855],[104.8824,22.082],[104.9663,22.0321],[105.0175,22.0396],[105.01,21.9544],[105.1314,21.8207],[105.1094,21.7323],[105.1432,21.7039],[105.2048,21.7025],[105.2704,21.6529],[105.2976,21.5751],[105.3676,21.5207],[105.4052,21.5371],[105.4833,21.5251],[105.5787,21.5765],[105.5113,21.682],[105.5387,21.7616],[105.5234,21.8253],[105.5732,21.9644]]]},"properties":{"iso3":"VNM","shapeId":"63759600B31607366287554","regionId":"VNM.60_1","name":"Tuyên Quang"}},{"type":"Feature","geometry":{"type":"Polygon","coordinates":[[[106.213,10.1496],[106.132,10.2256],[106.0367,10.2532],[106.033,10.2972],[105.9799,10.3243],[105.8947,10.2777],[105.9112,10.2129],[105.8156,10.1758],[105.7312,10.2245],[105.6837,10.1355],[105.797,10.0529],[105.8775,9.9609],[105.9418,9.9319],[106.0248,9.977],[106.0856,9.9781],[106.1036,10.0368],[106.2197,10.0423],[106.258,10.0899],[106.213,10.1496]]]},"properties":{"iso3":"VNM","shapeId":"63759600B66868150968055","regionId":"VNM.61_1","name":"Vĩnh Long"}},{"type":"Feature","geometry":{"type":"Polygon","coordinates":[[[105.8532,21.3989],[105.7088,21.4874],[105.6047,21.5843],[105.4833,21.5251],[105.4052,21.5371],[105.3663,21.5214],[105.3849,21.4469],[105.4531,21.4161],[105.449,21.3581],[105.4999,21.3169],[105.5198,21.1954],[105.5839,21.1566],[105.6826,21.1871],[105.8009,21.1428],[105.8433,21.1452],[105.8624,21.2064],[105.7876,21.274],[105.8528,21.3588],[105.8532,21.3989]]]},"properties":{"iso3":"VNM","shapeId":"63759600B34367175145761","regionId":"VNM.62_1","name":"Vĩnh Phúc"}},{"type":"Feature","geometry":{"type":"Polygon","coordinates":[[[104.5865,22.2505],[104.6263,22.2271],[104.6367,22.192],[104.5854,22.0721],[104.4518,22.1878],[104.4174,22.1846],[104.4194,22.0988],[104.3972,22.0627],[104.4463,21.9736],[104.4488,21.9013],[104.3805,21.8534],[104.3223,21.9116],[104.2332,21.9327],[104.2489,21.8844],[104.2074,21.8741],[104.1204,21.9032],[104.0304,21.9069],[103.9843,21.9689],[103.9671,21.9187],[103.8932,21.8914],[103.8963,21.8562],[103.9762,21.7491],[103.9239,21.701],[103.9605,21.6679],[104.0871,21.6441],[104.1953,21.6306],[104.2687,21.6636],[104.3476,21.6321],[104.3547,21.6071],[104.3314,21.5841],[104.2995,21.473],[104.3274,21.4141],[104.4412,21.3529],[104.5044,21.3453],[104.5854,21.4151],[104.6886,21.3623],[104.7615,21.3746],[104.7959,21.3251],[104.8727,21.3162],[104.9602,21.4176],[104.9268,21.4809],[104.9262,21.5252],[104.9077,21.5357],[104.9414,21.5604],[104.9504,21.6348],[105.1386,21.7046],[105.1085,21.7434],[105.1314,21.8207],[105.01,21.9544],[105.0175,22.0396],[104.9663,22.0321],[104.8889,22.0751],[104.8489,22.1855],[104.7663,22.1673],[104.7257,22.1996],[104.7202,22.2545],[104.624,22.2704],[104.5865,22.2505]]]},"properties":{"iso3":"VNM","shapeId":"63759600B52601599488063","regionId":"VNM.63_1","name":"Yên Bái"}}]}