{"type":"FeatureCollection","features":[{"type":"Feature","geometry":{"type":"Polygon","coordinates":[[[30.1939,-31.0813],[30.1633,-31.0498],[30.17,-31.0254],[30.1354,-31.009],[30.1564,-30.9759],[30.1345,-30.9638],[30.1464,-30.9224],[30.1201,-30.9101],[30.1195,-30.888],[30.0703,-30.8747],[30.0932,-30.878],[30.0948,-30.8623],[30.039,-30.8446],[30.0221,-30.8568],[30.0077,-30.8257],[29.9748,-30.8381],[29.9581,-30.823],[29.9724,-30.8023],[29.9323,-30.8072],[29.9552,-30.7897],[29.9492,-30.7708],[29.9223,-30.7687],[29.9293,-30.792],[29.908,-30.7982],[29.9147,-30.771],[29.8867,-30.7847],[29.8926,-30.7589],[29.8519,-30.7617],[29.8477,-30.7365],[29.808,-30.7296],[29.8129,-30.6994],[29.7806,-30.6954],[29.7861,-30.71],[29.7525,-30.707],[29.7406,-30.7234],[29.6737,-30.6692],[29.5995,-30.6895],[29.5876,-30.659],[29.5243,-30.6412],[29.5124,-30.6182],[29.4013,-30.6394],[29.3456,-30.6717],[29.2613,-30.6212],[29.2046,-30.6202],[29.1829,-30.6413],[29.1853,-30.6185],[29.1353,-30.6051],[29.146,-30.5952],[29.1153,-30.5796],[29.1738,-30.5517],[29.1651,-30.538],[29.1528,-30.5546],[29.1402,-30.5338],[29.1504,-30.5104],[29.1773,-30.5157],[29.1968,-30.4344],[29.2824,-30.3957],[29.2771,-30.3762],[29.305,-30.3799],[29.3019,-30.3201],[29.2368,-30.2669],[29.2547,-30.3048],[29.136,-30.2612],[29.1323,-30.2149],[29.1124,-30.2096],[29.1221,-30.192],[29.1025,-30.1771],[29.1204,-30.1604],[29.1212,-30.0988],[29.0449,-30.013],[29.0147,-30.0018],[28.8553,-30.0901],[28.6676,-30.1407],[28.5506,-30.1206],[28.4725,-30.1556],[28.3998,-30.1437],[28.3651,-30.1686],[28.3458,-30.2321],[28.3032,-30.2562],[28.2362,-30.2601],[28.2069,-30.291],[28.2699,-30.3534],[28.2578,-30.4174],[28.1861,-30.4352],[28.1564,-30.4655],[28.1797,-30.4913],[28.1771,-30.5253],[28.1512,-30.584],[28.1132,-30.5999],[28.1136,-30.6756],[28.0846,-30.654],[27.9405,-30.6441],[27.9155,-30.6013],[27.7955,-30.6191],[27.7419,-30.6039],[27.6904,-30.5408],[27.6097,-30.4956],[27.6037,-30.448],[27.5673,-30.4448],[27.5531,-30.4012],[27.4894,-30.3734],[27.4758,-30.323],[27.4536,-30.3136],[27.3924,-30.3398],[27.3511,-30.329],[27.3721,-30.3746],[27.3967,-30.3611],[27.4035,-30.3924],[27.3769,-30.4088],[27.3389,-30.3983],[27.3242,-30.4232],[27.3687,-30.437],[27.3006,-30.4437],[27.296,-30.4616],[27.3284,-30.4834],[27.2984,-30.4946],[27.2985,-30.5116],[27.2511,-30.5025],[27.2395,-30.4806],[27.2297,-30.5096],[27.2128,-30.487],[27.1864,-30.5246],[27.1305,-30.5101],[27.138,-30.5322],[27.1061,-30.5583],[27.0853,-30.5281],[27.0057,-30.5373],[27.0004,-30.5534],[27.0415,-30.5815],[27.0337,-30.6007],[26.9479,-30.6076],[26.9293,-30.6245],[26.9488,-30.6586],[26.8787,-30.6596],[26.8636,-30.6841],[26.8053,-30.6394],[26.7031,-30.6869],[26.6753,-30.6675],[26.6295,-30.6939],[26.629,-30.6617],[26.5579,-30.6641],[26.4834,-30.6296],[26.4894,-30.5938],[26.4491,-30.5693],[26.356,-30.595],[26.2802,-30.5896],[26.2631,-30.543],[26.1973,-30.5316],[26.1941,-30.5038],[26.1626,-30.4835],[26.1301,-30.5001],[26.1487,-30.5175],[26.1421,-30.5402],[26.0974,-30.5165],[25.977,-30.5382],[25.931,-30.585],[25.9032,-30.5432],[25.8856,-30.5438],[25.8718,-30.5622],[25.891,-30.6103],[25.793,-30.6371],[25.7642,-30.6885],[25.6932,-30.6761],[25.6755,-30.6401],[25.6137,-30.656],[25.6248,-30.6243],[25.5967,-30.5904],[25.5623,-30.6163],[25.4671,-30.6242],[25.4623,-30.7221],[25.4802,-30.7789],[25.5493,-30.791],[25.4713,-30.8698],[25.5178,-30.9015],[25.5109,-30.9557],[25.475,-30.9839],[25.5016,-31.0074],[25.4868,-31.0369],[25.4388,-31.0615],[25.4464,-31.1002],[25.3846,-31.151],[25.3862,-31.2178],[25.3544,-31.236],[25.211,-31.1921],[25.1705,-31.2392],[25.0585,-31.2694],[25.0056,-31.2631],[24.9336,-31.3204],[24.853,-31.3282],[24.8629,-31.3736],[24.8255,-31.3565],[24.7887,-31.3895],[24.7106,-31.4095],[24.665,-31.3837],[24.5961,-31.3992],[24.5672,-31.4186],[24.5589,-31.4818],[24.5194,-31.4979],[24.533,-31.5098],[24.5039,-31.5684],[24.523,-31.6037],[24.5141,-31.705],[24.4413,-31.7126],[24.4126,-31.6885],[24.4233,-31.7116],[24.3407,-31.7138],[24.285,-31.7652],[24.1616,-31.7401],[24.1543,-31.7983],[24.1837,-31.8133],[24.1548,-31.8225],[24.1533,-31.8549],[24.1236,-31.8472],[24.1054,-31.9069],[24.1642,-31.9024],[24.2224,-31.9556],[24.183,-31.9959],[24.1894,-32.0122],[24.1409,-32.0117],[24.1286,-32.0413],[24.1411,-32.0514],[24.1029,-32.0699],[24.0979,-32.1108],[24.1097,-32.0843],[24.1354,-32.0979],[24.1355,-32.1231],[24.1001,-32.164],[24.038,-32.1581],[24.0305,-32.1935],[23.9611,-32.2065],[23.8923,-32.2549],[23.7662,-32.1787],[23.6705,-32.2377],[23.6489,-32.298],[23.6784,-32.3291],[23.6651,-32.3442],[23.449,-32.3233],[23.4099,-32.3892],[23.3331,-32.3511],[23.3073,-32.3959],[23.2216,-32.425],[23.2475,-32.4653],[23.2445,-32.5132],[23.2882,-32.5512],[23.3073,-32.6116],[23.3013,-32.6518],[23.2696,-32.6715],[23.3329,-32.7036],[23.3535,-32.7294],[23.3516,-32.7638],[23.3977,-32.7635],[23.3786,-32.825],[23.2011,-32.7854],[23.1875,-32.7674],[23.1493,-32.7667],[23.0893,-32.7992],[23.1164,-32.858],[23.098,-32.8737],[23.0074,-32.8728],[23.0037,-32.8983],[22.9488,-32.95],[22.9693,-32.9934],[22.9341,-33.0217],[22.9578,-33.0451],[22.9553,-33.0731],[22.8923,-33.1416],[22.7903,-33.3073],[22.7734,-33.3263],[22.7393,-33.324],[22.7357,-33.3948],[22.7744,-33.4197],[22.9348,-33.4291],[23.1348,-33.3876],[23.2971,-33.3886],[23.3641,-33.4618],[23.3549,-33.4412],[23.4956,-33.4434],[23.604,-33.4964],[23.5962,-33.5725],[23.6168,-33.5696],[23.6199,-33.5915],[23.675,-33.6259],[23.6704,-33.6726],[23.5859,-33.6727],[23.5565,-33.6515],[23.5413,-33.6995],[23.4399,-33.7174],[23.4301,-33.7618],[23.395,-33.7926],[23.4891,-33.8075],[23.488,-33.7915],[23.5188,-33.7821],[23.5573,-33.7934],[23.5619,-33.8289],[23.7033,-33.8641],[23.6374,-33.913],[23.6448,-33.9896],[24.1938,-34.06],[24.3103,-34.1018],[24.3819,-34.1031],[24.4913,-34.1676],[24.6087,-34.1914],[24.6464,-34.173],[24.8371,-34.2139],[24.8399,-34.1973],[24.8714,-34.1967],[24.8323,-34.1679],[24.8429,-34.1417],[24.9224,-34.0798],[24.9284,-34.0148],[25.017,-33.9731],[25.2034,-33.9675],[25.4078,-34.0358],[25.5809,-34.0508],[25.6281,-34.0494],[25.6597,-34.0265],[25.704,-34.0319],[25.672,-33.9836],[25.6125,-33.9483],[25.6134,-33.9189],[25.6653,-33.8219],[25.789,-33.7435],[26.0312,-33.7051],[26.1348,-33.7141],[26.3241,-33.7679],[26.4684,-33.7734],[26.5585,-33.7483],[26.7423,-33.6529],[26.8667,-33.6263],[26.9372,-33.5815],[27.1124,-33.5248],[27.1561,-33.4785],[27.2156,-33.4599],[27.6031,-33.222],[27.7285,-33.121],[27.9255,-33.0284],[27.9226,-33.0116],[27.9608,-32.9788],[28.081,-32.9121],[28.1392,-32.8073],[28.3736,-32.7049],[28.4342,-32.6311],[28.5516,-32.5726],[28.6063,-32.4996],[28.6508,-32.4832],[28.7849,-32.3427],[28.8849,-32.2804],[28.8978,-32.2452],[28.943,-32.2187],[29.021,-32.1208],[29.0889,-32.0803],[29.1358,-31.9959],[29.213,-31.945],[29.3011,-31.8263],[29.3477,-31.8037],[29.3567,-31.7585],[29.403,-31.734],[29.4223,-31.6917],[29.4935,-31.6706],[29.6258,-31.5849],[29.7383,-31.4644],[29.7701,-31.445],[29.8345,-31.4433],[29.9051,-31.3935],[30.0693,-31.2371],[30.1939,-31.0813]]]},"properties":{"iso3":"ZAF","shapeId":"76434192B98113213215773","regionId":"ZAF.1_1","name":"Eastern Cape"}},{"type":"Feature","geometry":{"type":"Polygon","coordinates":[[[27.3774,-30.3271],[27.3952,-30.3077],[27.3669,-30.2738],[27.3682,-30.1922],[27.3862,-30.1933],[27.4073,-30.1445],[27.3269,-30.1481],[27.2965,-30.0561],[27.2685,-30.043],[27.2695,-30.026],[27.2189,-30.01],[27.0966,-29.7299],[27.0133,-29.661],[27.0281,-29.6388],[27.0183,-29.6168],[27.0572,-29.6371],[27.0663,-29.5973],[27.0851,-29.6151],[27.1542,-29.561],[27.2027,-29.5687],[27.2221,-29.5445],[27.2439,-29.5545],[27.2769,-29.5263],[27.3059,-29.5335],[27.306,-29.4972],[27.3611,-29.4858],[27.3567,-29.4527],[27.4244,-29.4045],[27.4069,-29.3641],[27.4323,-29.373],[27.4363,-29.3342],[27.4723,-29.3203],[27.4546,-29.2977],[27.4893,-29.302],[27.5409,-29.2599],[27.5476,-29.2464],[27.5149,-29.2244],[27.5806,-29.1663],[27.6142,-29.1642],[27.6014,-29.1371],[27.6463,-29.1177],[27.6405,-29.0816],[27.6755,-29.0773],[27.6414,-29.0458],[27.673,-29.044],[27.6851,-29.0036],[27.7136,-29.0101],[27.7231,-28.9494],[27.7619,-28.938],[27.754,-28.8973],[27.8163,-28.9211],[27.8299,-28.9035],[27.8884,-28.9167],[27.8931,-28.8792],[27.92,-28.8775],[27.9384,-28.8483],[27.9906,-28.883],[28.0289,-28.8791],[28.0508,-28.8181],[28.0749,-28.815],[28.1191,-28.7416],[28.1577,-28.7308],[28.1831,-28.6939],[28.1964,-28.7112],[28.2335,-28.6951],[28.2812,-28.7149],[28.3049,-28.6924],[28.3496,-28.7034],[28.4019,-28.6243],[28.4724,-28.6053],[28.5907,-28.6084],[28.6514,-28.5708],[28.7036,-28.6181],[28.7047,-28.6714],[28.8062,-28.7099],[28.8085,-28.7715],[28.8576,-28.756],[28.8736,-28.7707],[28.8972,-28.6909],[28.9428,-28.6509],[28.974,-28.5746],[29.0963,-28.5451],[29.135,-28.5663],[29.171,-28.53],[29.1964,-28.545],[29.2162,-28.519],[29.1915,-28.4938],[29.2487,-28.4249],[29.2901,-28.4379],[29.3734,-28.3719],[29.4143,-28.3759],[29.4829,-28.2722],[29.6198,-28.2412],[29.6096,-28.215],[29.6263,-28.1857],[29.6628,-28.1773],[29.6633,-28.142],[29.6555,-28.09],[29.6169,-28.0468],[29.6508,-27.9667],[29.6797,-27.9574],[29.6538,-27.9233],[29.6903,-27.8957],[29.697,-27.8245],[29.7313,-27.8081],[29.7035,-27.7667],[29.709,-27.6985],[29.6701,-27.6701],[29.6712,-27.6505],[29.7348,-27.6071],[29.7851,-27.5967],[29.7584,-27.5271],[29.7092,-27.5136],[29.7319,-27.4879],[29.7084,-27.4618],[29.7587,-27.4426],[29.7214,-27.4328],[29.6991,-27.4508],[29.7014,-27.4939],[29.6189,-27.506],[29.5465,-27.4311],[29.552,-27.3987],[29.4828,-27.36],[29.4864,-27.3274],[29.4282,-27.2539],[29.3909,-27.2427],[29.3312,-27.2634],[29.3351,-27.2074],[29.309,-27.2162],[29.2864,-27.1903],[29.2463,-27.192],[29.2239,-27.1447],[29.1594,-27.1431],[29.1169,-27.1724],[29.104,-27.1303],[29.0557,-27.0813],[29.0742,-27.0632],[29.0505,-27.0057],[29.0312,-27.029],[28.9695,-26.9916],[28.9412,-27.0155],[28.8936,-27.0134],[28.8886,-27.0593],[28.8579,-27.0249],[28.814,-27.0426],[28.8049,-27.0115],[28.795,-27.0289],[28.7109,-26.9692],[28.6834,-26.9752],[28.6455,-26.9527],[28.605,-26.9932],[28.6535,-26.9953],[28.6444,-27.0203],[28.6083,-27.0082],[28.5344,-27.067],[28.5495,-27.0413],[28.5036,-27.008],[28.5096,-26.9866],[28.4779,-26.9503],[28.4676,-26.9828],[28.4366,-26.9646],[28.4514,-26.9813],[28.4185,-27.013],[28.4291,-26.9892],[28.389,-26.9307],[28.3245,-26.949],[28.3301,-26.9239],[28.3017,-26.9409],[28.2815,-26.9061],[28.2626,-26.9148],[28.2354,-26.8814],[28.2403,-26.9164],[28.2259,-26.9237],[28.1858,-26.8917],[28.1717,-26.8458],[28.1538,-26.8513],[28.17,-26.8889],[28.1191,-26.8893],[28.1148,-26.8444],[28.0146,-26.7936],[28.0284,-26.7805],[27.993,-26.7346],[27.9996,-26.696],[27.9691,-26.6688],[27.8932,-26.7109],[27.88,-26.7462],[27.7824,-26.7508],[27.7698,-26.7993],[27.7283,-26.7608],[27.6328,-26.7721],[27.6295,-26.7324],[27.5698,-26.7473],[27.5818,-26.7737],[27.5094,-26.7858],[27.5111,-26.8378],[27.4143,-26.9257],[27.3709,-26.9042],[27.3328,-26.8542],[27.3059,-26.8534],[27.2175,-26.9461],[27.2079,-26.9799],[27.174,-26.9685],[27.1764,-26.9249],[27.1435,-26.9419],[27.113,-26.9263],[27.0282,-26.9359],[26.9561,-26.9002],[26.9404,-26.8715],[26.9202,-26.906],[26.9201,-26.9735],[26.9076,-26.9445],[26.8635,-26.9189],[26.8306,-26.9493],[26.8114,-26.9513],[26.805,-26.932],[26.7155,-26.9739],[26.6887,-27.018],[26.6687,-26.9946],[26.6193,-27.0034],[26.5818,-27.0531],[26.5836,-27.108],[26.5287,-27.091],[26.4731,-27.1542],[26.429,-27.1502],[26.4201,-27.1684],[26.4972,-27.2678],[26.4934,-27.3191],[26.4755,-27.3083],[26.4464,-27.3497],[26.5111,-27.3953],[26.4519,-27.3858],[26.4231,-27.4069],[26.3457,-27.3854],[26.3241,-27.4329],[26.2956,-27.4158],[26.2423,-27.4314],[26.2199,-27.4744],[26.229,-27.5121],[26.1701,-27.5361],[26.1536,-27.564],[26.134,-27.5585],[26.1133,-27.5933],[26.0843,-27.5955],[26.0862,-27.648],[26.0547,-27.6692],[26.0948,-27.6901],[26.0659,-27.7187],[26.0262,-27.7347],[25.9819,-27.6272],[25.9473,-27.6329],[25.9243,-27.6035],[25.8581,-27.6238],[25.8274,-27.5667],[25.6789,-27.6296],[25.6648,-27.6939],[25.5907,-27.6552],[25.5558,-27.6867],[25.4809,-27.6925],[25.4693,-27.7106],[25.3945,-27.7287],[25.3404,-27.793],[25.2695,-27.8012],[25.2384,-27.8344],[25.2497,-27.8686],[25.1606,-27.9271],[25.1335,-27.9253],[25.131,-27.9506],[25.0906,-27.984],[25.1074,-28.0119],[25.0739,-28.0659],[25.0281,-28.0735],[24.9646,-28.2507],[24.8705,-28.2704],[24.8903,-28.3102],[24.9376,-28.3249],[24.8868,-28.465],[24.8469,-28.5038],[24.8678,-28.5171],[24.8277,-28.627],[24.9018,-28.648],[24.3466,-29.6559],[24.3488,-29.7032],[24.4105,-29.7895],[24.4389,-29.8148],[24.4872,-29.813],[24.5103,-29.8415],[24.547,-29.8449],[24.6079,-29.9113],[24.665,-29.902],[24.6744,-29.9756],[24.794,-29.999],[24.808,-30.023],[24.7978,-30.0516],[24.8385,-30.0952],[24.8376,-30.1178],[24.8711,-30.1345],[24.9,-30.2067],[24.9251,-30.2007],[24.9542,-30.2261],[24.9465,-30.2518],[24.9863,-30.29],[25.0344,-30.2862],[25.0383,-30.3623],[25.0961,-30.3732],[25.1896,-30.4984],[25.2353,-30.4999],[25.3054,-30.5765],[25.3337,-30.5577],[25.418,-30.5777],[25.4746,-30.635],[25.5623,-30.6163],[25.5967,-30.5904],[25.6248,-30.6243],[25.6137,-30.656],[25.6755,-30.6401],[25.6797,-30.6662],[25.7166,-30.6825],[25.7715,-30.686],[25.793,-30.6371],[25.891,-30.6103],[25.8718,-30.5622],[25.8856,-30.5438],[25.9032,-30.5432],[25.931,-30.585],[25.977,-30.5382],[26.0974,-30.5165],[26.1421,-30.5402],[26.1487,-30.5175],[26.1301,-30.5001],[26.1626,-30.4835],[26.1941,-30.5038],[26.1973,-30.5316],[26.2631,-30.543],[26.2802,-30.5896],[26.356,-30.595],[26.4491,-30.5693],[26.4894,-30.5938],[26.4834,-30.6296],[26.5579,-30.6641],[26.629,-30.6617],[26.6295,-30.6939],[26.6753,-30.6675],[26.7031,-30.6869],[26.8053,-30.6394],[26.8636,-30.6841],[26.8787,-30.6596],[26.9488,-30.6586],[26.9293,-30.6245],[26.9479,-30.6076],[27.0337,-30.6007],[27.0415,-30.5815],[27.0004,-30.5534],[27.0057,-30.5373],[27.0853,-30.5281],[27.1061,-30.5583],[27.138,-30.5322],[27.1305,-30.5101],[27.1864,-30.5246],[27.2128,-30.487],[27.2297,-30.5096],[27.2395,-30.4806],[27.2511,-30.5025],[27.2985,-30.5116],[27.2984,-30.4946],[27.3284,-30.4834],[27.296,-30.4616],[27.3006,-30.4437],[27.3687,-30.437],[27.3242,-30.4232],[27.3389,-30.3983],[27.3769,-30.4088],[27.4035,-30.3924],[27.3967,-30.3611],[27.3721,-30.3746],[27.3664,-30.3387],[27.3489,-30.3324],[27.3774,-30.3271]]]},"properties":{"iso3":"ZAF","shapeId":"76434192B57942368908249","regionId":"ZAF.2_1","name":"Free State"}},{"type":"Feature","geometry":{"type":"Polygon","coordinates":[[[28.2443,-26.8848],[28.2843,-26.8644],[28.3096,-26.8794],[28.3194,-26.7927],[28.4069,-26.7617],[28.383,-26.7175],[28.4001,-26.655],[28.4903,-26.6353],[28.486,-26.6096],[28.5278,-26.5906],[28.5277,-26.5022],[28.5866,-26.52],[28.5849,-26.5386],[28.6382,-26.5473],[28.6416,-26.5076],[28.7639,-26.518],[28.7899,-26.4265],[28.8613,-26.3986],[28.8051,-26.3066],[28.7101,-26.3412],[28.6269,-26.2924],[28.6223,-26.2484],[28.5305,-26.2253],[28.5343,-26.1722],[28.4905,-26.1264],[28.5158,-26.0812],[28.5031,-26.0638],[28.5386,-26.0478],[28.5789,-26.0596],[28.5909,-26.0025],[28.6323,-25.9708],[28.7108,-25.9906],[28.7624,-25.9831],[28.7739,-26.0137],[28.8673,-26.007],[28.885,-25.9744],[28.8868,-25.8714],[28.9382,-25.8886],[28.9504,-25.8374],[28.9382,-25.8233],[28.9813,-25.7425],[28.9507,-25.7283],[28.9688,-25.6733],[29.0646,-25.6424],[29.0642,-25.6207],[29.04,-25.6176],[29.0343,-25.5634],[29.0984,-25.5377],[29.08,-25.4946],[29.0587,-25.5272],[29.0137,-25.5132],[29.019,-25.5278],[28.9869,-25.5402],[29.0078,-25.5742],[28.9465,-25.5998],[28.9101,-25.5245],[28.8582,-25.5691],[28.8741,-25.5271],[28.8518,-25.5018],[28.7971,-25.542],[28.8085,-25.5732],[28.8431,-25.5664],[28.872,-25.6416],[28.8693,-25.6581],[28.8115,-25.643],[28.847,-25.6824],[28.7572,-25.7059],[28.7663,-25.647],[28.7239,-25.6318],[28.7088,-25.6828],[28.6727,-25.665],[28.6154,-25.4679],[28.6295,-25.4594],[28.6198,-25.4114],[28.6389,-25.394],[28.6226,-25.3336],[28.7396,-25.2885],[28.7324,-25.2692],[28.7638,-25.2211],[28.7846,-25.2287],[28.7446,-25.1096],[28.6159,-25.1516],[28.6553,-25.2135],[28.6799,-25.2203],[28.6326,-25.28],[28.5948,-25.2494],[28.5133,-25.2561],[28.5036,-25.3088],[28.3826,-25.3211],[28.3792,-25.2921],[28.2982,-25.3104],[28.2981,-25.3393],[28.2283,-25.3542],[28.2015,-25.3237],[28.1768,-25.3286],[28.1767,-25.3659],[28.108,-25.367],[28.0447,-25.4017],[28.0004,-25.3594],[27.9708,-25.3629],[27.9456,-25.4067],[27.9697,-25.4391],[27.9917,-25.4245],[28.036,-25.4706],[27.9924,-25.518],[28.0524,-25.5358],[28.0495,-25.5596],[27.9815,-25.5428],[27.9576,-25.5926],[27.9806,-25.6328],[27.9523,-25.6535],[27.9482,-25.6952],[27.9795,-25.7515],[27.9493,-25.7597],[27.9602,-25.816],[27.8826,-25.8619],[27.8917,-25.8229],[27.8587,-25.8188],[27.8315,-25.8602],[27.7445,-25.8946],[27.7427,-25.8502],[27.6849,-25.8754],[27.6471,-25.8406],[27.6435,-25.7959],[27.5474,-25.8514],[27.4619,-25.8676],[27.457,-25.9818],[27.4194,-26.1175],[27.3617,-26.1157],[27.3583,-26.1546],[27.2914,-26.1446],[27.3301,-26.2818],[27.188,-26.3779],[27.2248,-26.444],[27.2314,-26.5055],[27.1563,-26.5243],[27.1826,-26.5746],[27.2284,-26.5711],[27.2419,-26.6365],[27.3442,-26.6131],[27.3386,-26.5717],[27.3658,-26.5738],[27.3783,-26.6107],[27.4258,-26.6495],[27.4548,-26.6303],[27.5691,-26.6472],[27.5742,-26.7158],[27.6028,-26.6924],[27.6022,-26.7229],[27.5814,-26.731],[27.6334,-26.7337],[27.6328,-26.7721],[27.7283,-26.7608],[27.7698,-26.7993],[27.7824,-26.7508],[27.88,-26.7462],[27.8932,-26.7109],[27.9729,-26.6692],[27.9996,-26.696],[28.0069,-26.7689],[28.0284,-26.7805],[28.0146,-26.7936],[28.1148,-26.8444],[28.1191,-26.8893],[28.17,-26.8889],[28.1601,-26.8454],[28.2259,-26.9237],[28.2443,-26.8848]]]},"properties":{"iso3":"ZAF","shapeId":"76434192B69392740373411","regionId":"ZAF.3_1","name":"Gauteng"}},{"type":"Feature","geometry":{"type":"Polygon","coordinates":[[[30.1939,-31.0813],[30.2258,-31.0602],[30.5472,-30.6275],[30.7357,-30.3388],[30.8849,-30.0584],[31.0596,-29.8795],[31.0368,-29.8345],[31.0599,-29.771],[31.1858,-29.5718],[31.3401,-29.3828],[31.7581,-28.9703],[32.0128,-28.877],[32.3592,-28.5787],[32.4148,-28.4764],[32.4706,-28.4853],[32.483,-28.3883],[32.6146,-28.1417],[32.6555,-27.8319],[32.7328,-27.5106],[32.8964,-27.1208],[32.945,-26.872],[32.8913,-26.8579],[32.331,-26.8639],[32.2197,-26.8328],[32.182,-26.8631],[32.1202,-26.8388],[32.1001,-26.8051],[32.0113,-26.8102],[31.9745,-27.1164],[31.9778,-27.3175],[31.4937,-27.3152],[31.2743,-27.2432],[31.1659,-27.3685],[31.0988,-27.3298],[30.9422,-27.3681],[30.9222,-27.305],[30.8659,-27.3127],[30.8576,-27.3433],[30.8223,-27.3542],[30.7889,-27.3128],[30.771,-27.3264],[30.7178,-27.2838],[30.6606,-27.2879],[30.5871,-27.3231],[30.4974,-27.3124],[30.4483,-27.3277],[30.426,-27.315],[30.4264,-27.2698],[30.3676,-27.2674],[30.3667,-27.3117],[30.3284,-27.2996],[30.2825,-27.3144],[30.2799,-27.3686],[30.2347,-27.3807],[30.1981,-27.3552],[30.1434,-27.4134],[30.0683,-27.3659],[30.0162,-27.3976],[29.9172,-27.3544],[29.8988,-27.3858],[29.8402,-27.379],[29.7962,-27.4577],[29.7587,-27.4426],[29.7032,-27.472],[29.7319,-27.4879],[29.7092,-27.5136],[29.7584,-27.5271],[29.7851,-27.5967],[29.7348,-27.6071],[29.6712,-27.6505],[29.6701,-27.6701],[29.709,-27.6985],[29.7035,-27.7667],[29.7313,-27.8081],[29.697,-27.8245],[29.6903,-27.8957],[29.6538,-27.9233],[29.6797,-27.9574],[29.6508,-27.9667],[29.6169,-28.0468],[29.6555,-28.09],[29.6633,-28.142],[29.6628,-28.1773],[29.6263,-28.1857],[29.6096,-28.215],[29.6198,-28.2412],[29.4829,-28.2722],[29.4143,-28.3759],[29.3734,-28.3719],[29.2901,-28.4379],[29.2487,-28.4249],[29.1915,-28.4938],[29.2162,-28.519],[29.1964,-28.545],[29.171,-28.53],[29.135,-28.5663],[29.0963,-28.5451],[28.974,-28.5746],[28.9428,-28.6509],[28.8991,-28.6873],[28.8738,-28.7725],[28.9064,-28.759],[28.9438,-28.7827],[28.9322,-28.7919],[28.949,-28.8043],[28.922,-28.8128],[28.9483,-28.8286],[28.9398,-28.8624],[28.962,-28.8688],[28.9727,-28.9069],[28.9908,-28.9143],[29.019,-28.8819],[29.0413,-28.9151],[29.0778,-28.9181],[29.0739,-28.9377],[29.1267,-28.9639],[29.1245,-28.9803],[29.2153,-29.0261],[29.2119,-29.0461],[29.2548,-29.0895],[29.3125,-29.0793],[29.3564,-29.1282],[29.3446,-29.1875],[29.4083,-29.2123],[29.4557,-29.3363],[29.4034,-29.4445],[29.2933,-29.4901],[29.3056,-29.5542],[29.3251,-29.5698],[29.2852,-29.5845],[29.2823,-29.6427],[29.235,-29.6397],[29.1597,-29.6826],[29.1516,-29.7336],[29.1236,-29.7674],[29.1316,-29.8259],[29.1011,-29.8469],[29.1629,-29.8838],[29.1696,-29.9161],[29.109,-29.937],[29.1037,-29.967],[29.0838,-29.9531],[29.0147,-30.0018],[29.0449,-30.013],[29.1212,-30.0988],[29.1204,-30.1604],[29.1025,-30.1771],[29.1221,-30.192],[29.1124,-30.2096],[29.1323,-30.2149],[29.136,-30.2612],[29.2547,-30.3048],[29.2368,-30.2669],[29.3019,-30.3201],[29.305,-30.3799],[29.2771,-30.3762],[29.2824,-30.3957],[29.1968,-30.4344],[29.1773,-30.5157],[29.1504,-30.5104],[29.1402,-30.5338],[29.1528,-30.5546],[29.1651,-30.538],[29.1738,-30.5517],[29.1153,-30.5796],[29.146,-30.5952],[29.1353,-30.6051],[29.1853,-30.6185],[29.1829,-30.6413],[29.2046,-30.6202],[29.2613,-30.6212],[29.3456,-30.6717],[29.4013,-30.6394],[29.5124,-30.6182],[29.5243,-30.6412],[29.5876,-30.659],[29.5995,-30.6895],[29.6737,-30.6692],[29.7406,-30.7234],[29.7525,-30.707],[29.7861,-30.71],[29.7806,-30.6954],[29.8129,-30.6994],[29.808,-30.7296],[29.8477,-30.7365],[29.8519,-30.7617],[29.8926,-30.7589],[29.8867,-30.7847],[29.9147,-30.771],[29.908,-30.7982],[29.9293,-30.792],[29.9223,-30.7687],[29.9492,-30.7708],[29.9552,-30.7897],[29.9323,-30.8072],[29.9724,-30.8023],[29.9581,-30.823],[29.9748,-30.8381],[30.0077,-30.8257],[30.0221,-30.8568],[30.039,-30.8446],[30.0948,-30.8623],[30.0932,-30.878],[30.0703,-30.8747],[30.1195,-30.888],[30.1201,-30.9101],[30.1464,-30.9224],[30.1345,-30.9638],[30.1564,-30.9759],[30.1354,-31.009],[30.17,-31.0254],[30.1633,-31.0498],[30.1939,-31.0813]]]},"properties":{"iso3":"ZAF","shapeId":"76434192B26311534340602","regionId":"ZAF.4_1","name":"Kwazulu-Natal"}},{"type":"Feature","geometry":{"type":"Polygon","coordinates":[[[28.6516,-25.1429],[28.6489,-25.1129],[28.5366,-25.1524],[28.5321,-25.1698],[28.4616,-25.2015],[28.3869,-25.2134],[28.411,-25.2048],[28.3793,-25.1553],[28.443,-25.129],[28.4952,-25.1318],[28.4737,-25.0893],[28.6343,-25.0582],[28.6057,-25.0034],[28.7138,-24.9536],[28.7594,-24.9114],[28.8374,-24.916],[28.8464,-24.9333],[28.9241,-24.9015],[28.9418,-24.9336],[28.8916,-24.9555],[28.9103,-25.0071],[28.9349,-25.0],[28.9717,-25.0702],[29.0188,-25.0549],[29.0707,-25.0655],[29.0883,-25.1036],[29.1284,-25.113],[29.0898,-25.1485],[29.0425,-25.1405],[29.0318,-25.2509],[29.0384,-25.2765],[29.0902,-25.2894],[29.0959,-25.3212],[29.167,-25.3034],[29.1641,-25.3545],[29.1313,-25.3902],[29.1957,-25.3703],[29.2073,-25.4146],[29.2644,-25.3755],[29.3421,-25.3731],[29.35,-25.4046],[29.5188,-25.4228],[29.5226,-25.405],[29.6128,-25.4006],[29.6739,-25.3722],[29.7702,-25.4015],[29.7932,-25.3621],[29.8203,-25.3589],[29.8403,-25.3863],[29.8878,-25.3643],[29.8879,-25.3386],[30.0062,-25.3403],[30.0054,-25.1444],[29.9789,-25.0921],[30.0298,-25.0846],[30.0299,-25.0641],[30.0908,-25.1255],[30.1444,-25.1238],[30.1485,-25.0324],[30.1987,-25.0364],[30.1721,-24.9892],[30.192,-24.8555],[30.2973,-24.8677],[30.308,-24.885],[30.3529,-24.8834],[30.3542,-24.8493],[30.3965,-24.8712],[30.3897,-24.8494],[30.4251,-24.8549],[30.4942,-24.9533],[30.4963,-24.9147],[30.5629,-24.8965],[30.5812,-24.9169],[30.58,-24.8874],[30.6187,-24.8442],[30.6349,-24.8528],[30.6562,-24.8117],[30.6642,-24.7746],[30.6337,-24.7585],[30.6366,-24.7341],[30.6786,-24.7358],[30.7201,-24.7052],[30.6792,-24.6237],[30.7015,-24.5864],[30.7303,-24.6087],[30.7302,-24.4985],[30.759,-24.4602],[30.8717,-24.5385],[30.9543,-24.5213],[30.9593,-24.5821],[31.2262,-24.556],[31.2537,-24.4991],[31.2032,-24.4265],[31.1599,-24.4374],[31.16,-24.3756],[31.242,-24.3654],[31.2001,-24.3049],[31.056,-24.3219],[31.0499,-24.1873],[31.1073,-24.1457],[31.0961,-24.1174],[31.1151,-24.1192],[31.1206,-24.0903],[31.0721,-24.0833],[31.1471,-24.0697],[31.1934,-24.031],[31.2347,-24.0576],[31.2572,-24.1011],[31.3791,-24.0523],[31.399,-24.0676],[31.4476,-24.0199],[31.5291,-24.0567],[31.5682,-24.0331],[31.5947,-24.0564],[31.6209,-24.0233],[31.6593,-24.0141],[31.68,-24.0567],[31.7019,-24.0599],[31.7358,-24.0461],[31.7349,-24.0113],[31.77,-23.9832],[31.8125,-23.9993],[31.8838,-23.9846],[31.8807,-23.9551],[31.7692,-23.8878],[31.6974,-23.7219],[31.6905,-23.6294],[31.561,-23.482],[31.5636,-23.1982],[31.3094,-22.422],[31.2685,-22.3676],[31.2131,-22.3687],[31.163,-22.3285],[31.0884,-22.349],[30.9997,-22.3164],[30.9809,-22.3276],[30.9301,-22.3012],[30.8354,-22.292],[30.6633,-22.311],[30.6317,-22.3363],[30.4894,-22.3164],[30.3822,-22.3509],[30.2902,-22.3563],[30.2311,-22.2959],[30.1262,-22.3111],[30.0581,-22.2571],[30.0256,-22.2536],[30.0176,-22.2289],[29.9699,-22.2242],[29.9257,-22.1899],[29.8845,-22.1946],[29.7736,-22.1414],[29.6567,-22.1251],[29.6102,-22.1557],[29.5802,-22.1409],[29.5392,-22.1527],[29.528,-22.178],[29.4641,-22.1661],[29.3352,-22.2047],[29.3206,-22.187],[29.2182,-22.1782],[29.1511,-22.2157],[29.0369,-22.2163],[28.9664,-22.3082],[28.9714,-22.377],[28.9233,-22.457],[28.8561,-22.4512],[28.8297,-22.4646],[28.8311,-22.4883],[28.7375,-22.5045],[28.6413,-22.558],[28.5641,-22.561],[28.5235,-22.5874],[28.4791,-22.5709],[28.3414,-22.5748],[28.1826,-22.6886],[28.151,-22.7696],[28.0414,-22.8331],[28.0513,-22.8846],[28.0371,-22.9128],[27.9354,-22.9626],[27.936,-23.0517],[27.8818,-23.0902],[27.8141,-23.1065],[27.8098,-23.1343],[27.7664,-23.1342],[27.7851,-23.1708],[27.7416,-23.2304],[27.714,-23.2286],[27.6893,-23.1962],[27.6495,-23.2257],[27.6025,-23.2162],[27.6012,-23.2472],[27.5729,-23.2653],[27.5671,-23.3411],[27.5286,-23.3853],[27.442,-23.3847],[27.4218,-23.4265],[27.4012,-23.413],[27.4084,-23.3891],[27.3772,-23.399],[27.3743,-23.4271],[27.3495,-23.426],[27.353,-23.3979],[27.3298,-23.4031],[27.3025,-23.463],[27.1924,-23.4981],[27.201,-23.5343],[27.1352,-23.5236],[27.1548,-23.5692],[27.1172,-23.5622],[27.0997,-23.6029],[27.0594,-23.6126],[27.0811,-23.6433],[27.0707,-23.6706],[27.038,-23.6827],[27.0257,-23.6445],[27.0028,-23.6443],[27.0021,-23.6885],[26.9711,-23.7028],[26.9588,-23.8304],[26.9323,-23.8511],[26.9552,-23.874],[26.9278,-23.9224],[26.9322,-23.9554],[26.8848,-24.0895],[26.8602,-24.1066],[26.8791,-24.1601],[26.8645,-24.1791],[26.8833,-24.1897],[26.8593,-24.2231],[26.8659,-24.251],[26.7858,-24.3066],[26.7334,-24.3041],[26.6757,-24.344],[26.6587,-24.3851],[26.5875,-24.4107],[26.5103,-24.488],[26.4711,-24.589],[26.4088,-24.6461],[26.4276,-24.6582],[26.426,-24.7712],[26.4595,-24.7905],[26.4583,-24.8095],[26.622,-24.8099],[26.7513,-24.883],[26.7795,-24.8377],[26.9807,-24.7758],[26.9759,-24.7207],[27.0263,-24.7186],[27.0412,-24.887],[27.1012,-24.9],[27.154,-24.979],[27.1834,-24.9485],[27.2261,-24.9639],[27.2035,-25.0332],[27.2317,-25.0361],[27.2236,-25.0674],[27.2719,-25.0367],[27.3136,-25.0421],[27.337,-25.0878],[27.4818,-25.0671],[27.5428,-25.098],[27.594,-25.0294],[27.5975,-24.9849],[27.6286,-24.9737],[27.6873,-24.9944],[27.7889,-24.9665],[27.9465,-25.0012],[27.955,-24.9702],[27.9836,-24.9578],[28.037,-24.9853],[28.12,-24.9795],[28.1252,-25.0048],[28.2598,-25.0505],[28.215,-25.1281],[28.1738,-25.12],[28.1539,-25.0868],[28.0839,-25.1004],[28.0943,-25.1485],[28.129,-25.1457],[28.1357,-25.2056],[28.2112,-25.1981],[28.2463,-25.2129],[28.2982,-25.3104],[28.3792,-25.2921],[28.3826,-25.3211],[28.5036,-25.3088],[28.5012,-25.2655],[28.5637,-25.2494],[28.6044,-25.2521],[28.6326,-25.28],[28.6799,-25.2203],[28.6553,-25.2135],[28.6159,-25.1516],[28.6516,-25.1429]]]},"properties":{"iso3":"ZAF","shapeId":"76434192B37104984973577","regionId":"ZAF.5_1","name":"Limpopo"}},{"type":"Feature","geometry":{"type":"Polygon","coordinates":[[[29.7587,-27.4426],[29.7962,-27.4577],[29.8402,-27.379],[29.8988,-27.3858],[29.9172,-27.3544],[30.0162,-27.3976],[30.0868,-27.3685],[30.1434,-27.4134],[30.1981,-27.3552],[30.2347,-27.3807],[30.2799,-27.3686],[30.2825,-27.3144],[30.3284,-27.2996],[30.3667,-27.3117],[30.3676,-27.2674],[30.4264,-27.2698],[30.426,-27.315],[30.4483,-27.3277],[30.4974,-27.3124],[30.5871,-27.3231],[30.6606,-27.2879],[30.7178,-27.2838],[30.771,-27.3264],[30.7889,-27.3128],[30.8223,-27.3542],[30.8576,-27.3433],[30.8659,-27.3127],[30.9222,-27.305],[30.9422,-27.3681],[31.0988,-27.3298],[31.1659,-27.3685],[31.2743,-27.2432],[31.1506,-27.2021],[30.9848,-27.037],[30.9583,-26.9921],[30.9736,-26.9082],[30.9074,-26.8599],[30.8919,-26.7851],[30.8132,-26.8445],[30.7908,-26.7123],[30.8051,-26.4667],[30.8919,-26.3208],[30.9614,-26.2617],[31.1128,-25.9826],[31.1266,-25.9211],[31.2636,-25.8096],[31.3159,-25.743],[31.4163,-25.7188],[31.8679,-25.9996],[31.9737,-25.9532],[31.9305,-25.8408],[32.0061,-25.6452],[31.9774,-25.4747],[32.0153,-25.3825],[32.032,-25.1831],[31.9983,-24.6897],[32.0131,-24.4546],[31.9871,-24.3022],[31.908,-24.1824],[31.8838,-23.9846],[31.8125,-23.9993],[31.77,-23.9832],[31.7349,-24.0113],[31.7358,-24.0461],[31.7019,-24.0599],[31.68,-24.0567],[31.6593,-24.0141],[31.6209,-24.0233],[31.5947,-24.0564],[31.5682,-24.0331],[31.5291,-24.0567],[31.4476,-24.0199],[31.399,-24.0676],[31.3791,-24.0523],[31.2572,-24.1011],[31.2347,-24.0576],[31.1934,-24.031],[31.1471,-24.0697],[31.0721,-24.0833],[31.1206,-24.0903],[31.1151,-24.1192],[31.0961,-24.1174],[31.1073,-24.1457],[31.0499,-24.1873],[31.056,-24.3219],[31.2001,-24.3049],[31.242,-24.3654],[31.16,-24.3756],[31.1599,-24.4374],[31.2032,-24.4265],[31.2537,-24.4991],[31.2262,-24.556],[30.9593,-24.5821],[30.9543,-24.5213],[30.8717,-24.5385],[30.759,-24.4602],[30.7302,-24.4985],[30.7303,-24.6087],[30.7015,-24.5864],[30.6792,-24.6237],[30.7201,-24.7052],[30.6786,-24.7358],[30.6366,-24.7341],[30.6337,-24.7585],[30.6642,-24.7746],[30.6562,-24.8117],[30.6349,-24.8528],[30.6187,-24.8442],[30.58,-24.8874],[30.5812,-24.9169],[30.5629,-24.8965],[30.4963,-24.9147],[30.4942,-24.9533],[30.4251,-24.8549],[30.3897,-24.8494],[30.3965,-24.8712],[30.3542,-24.8493],[30.3529,-24.8834],[30.308,-24.885],[30.2973,-24.8677],[30.192,-24.8555],[30.1721,-24.9892],[30.1987,-25.0364],[30.1485,-25.0324],[30.1444,-25.1238],[30.0908,-25.1255],[30.0299,-25.0641],[30.0298,-25.0846],[29.9789,-25.0921],[30.0054,-25.1444],[30.0062,-25.3403],[29.8879,-25.3386],[29.8878,-25.3643],[29.8403,-25.3863],[29.8203,-25.3589],[29.7932,-25.3621],[29.7702,-25.4015],[29.6739,-25.3722],[29.6128,-25.4006],[29.5226,-25.405],[29.5188,-25.4228],[29.35,-25.4046],[29.3421,-25.3731],[29.2644,-25.3755],[29.2073,-25.4146],[29.1957,-25.3703],[29.1313,-25.3902],[29.1641,-25.3545],[29.167,-25.3034],[29.0959,-25.3212],[29.0902,-25.2894],[29.0384,-25.2765],[29.0318,-25.2509],[29.0425,-25.1405],[29.0898,-25.1485],[29.1284,-25.113],[29.0883,-25.1036],[29.0707,-25.0655],[29.0188,-25.0549],[28.9717,-25.0702],[28.9349,-25.0],[28.9103,-25.0071],[28.8916,-24.9555],[28.9418,-24.9336],[28.9241,-24.9015],[28.8464,-24.9333],[28.8374,-24.916],[28.7594,-24.9114],[28.7138,-24.9536],[28.6057,-25.0034],[28.6343,-25.0582],[28.4737,-25.0893],[28.4952,-25.1318],[28.443,-25.129],[28.3793,-25.1553],[28.411,-25.2048],[28.3869,-25.2134],[28.4616,-25.2015],[28.5321,-25.1698],[28.5366,-25.1524],[28.6489,-25.1129],[28.6516,-25.1429],[28.7446,-25.1096],[28.7846,-25.2287],[28.7638,-25.2211],[28.7324,-25.2692],[28.7396,-25.2885],[28.6226,-25.3336],[28.6389,-25.394],[28.6198,-25.4114],[28.6267,-25.5311],[28.6838,-25.6754],[28.7088,-25.6828],[28.7239,-25.6318],[28.7663,-25.647],[28.7572,-25.7059],[28.847,-25.6824],[28.8115,-25.643],[28.8693,-25.6581],[28.872,-25.6416],[28.8431,-25.5664],[28.8085,-25.5732],[28.7971,-25.542],[28.8518,-25.5018],[28.8741,-25.5271],[28.8582,-25.5691],[28.9101,-25.5245],[28.9465,-25.5998],[29.0078,-25.5742],[28.9869,-25.5402],[29.019,-25.5278],[29.0137,-25.5132],[29.0587,-25.5272],[29.08,-25.4946],[29.0984,-25.5377],[29.0343,-25.5634],[29.04,-25.6176],[29.0642,-25.6207],[29.0646,-25.6424],[28.9688,-25.6733],[28.9507,-25.7283],[28.9813,-25.7425],[28.9382,-25.8233],[28.9504,-25.8374],[28.9382,-25.8886],[28.8868,-25.8714],[28.885,-25.9744],[28.8673,-26.007],[28.7739,-26.0137],[28.7624,-25.9831],[28.7108,-25.9906],[28.6323,-25.9708],[28.5909,-26.0025],[28.5789,-26.0596],[28.5386,-26.0478],[28.5031,-26.0638],[28.5158,-26.0812],[28.4905,-26.1264],[28.5343,-26.1722],[28.5305,-26.2253],[28.6223,-26.2484],[28.6269,-26.2924],[28.7101,-26.3412],[28.8051,-26.3066],[28.8613,-26.3986],[28.7899,-26.4265],[28.7639,-26.518],[28.6416,-26.5076],[28.6382,-26.5473],[28.5849,-26.5386],[28.5866,-26.52],[28.5277,-26.5022],[28.5278,-26.5906],[28.486,-26.6096],[28.4903,-26.6353],[28.4001,-26.655],[28.383,-26.7175],[28.4069,-26.7617],[28.3194,-26.7927],[28.3096,-26.8794],[28.2843,-26.8644],[28.2443,-26.8848],[28.3017,-26.9409],[28.3301,-26.9239],[28.3245,-26.949],[28.3529,-26.9316],[28.3996,-26.9357],[28.4291,-26.9892],[28.4185,-27.013],[28.4514,-26.9813],[28.4366,-26.9646],[28.4676,-26.9828],[28.4779,-26.9503],[28.5096,-26.9866],[28.5036,-27.008],[28.5495,-27.0413],[28.5344,-27.067],[28.6083,-27.0082],[28.6444,-27.0203],[28.6535,-26.9953],[28.605,-26.9932],[28.6455,-26.9527],[28.6834,-26.9752],[28.7109,-26.9692],[28.795,-27.0289],[28.8049,-27.0115],[28.814,-27.0426],[28.8579,-27.0249],[28.8886,-27.0593],[28.8936,-27.0134],[28.9412,-27.0155],[28.9695,-26.9916],[29.0312,-27.029],[29.0505,-27.0057],[29.0742,-27.0632],[29.0557,-27.0813],[29.104,-27.1303],[29.1169,-27.1724],[29.1594,-27.1431],[29.2239,-27.1447],[29.2463,-27.192],[29.2864,-27.1903],[29.309,-27.2162],[29.3351,-27.2074],[29.3312,-27.2634],[29.3909,-27.2427],[29.4282,-27.2539],[29.4864,-27.3274],[29.4828,-27.36],[29.552,-27.3987],[29.5465,-27.4311],[29.6189,-27.506],[29.7014,-27.4939],[29.6991,-27.4508],[29.7214,-27.4328],[29.7587,-27.4426]]]},"properties":{"iso3":"ZAF","shapeId":"76434192B92524600968894","regionId":"ZAF.6_1","name":"Mpumalanga"}},{"type":"Feature","geometry":{"type":"Polygon","coordinates":[[[27.5904,-26.7384],[27.6028,-26.6924],[27.5742,-26.7158],[27.5691,-26.6472],[27.4548,-26.6303],[27.4258,-26.6495],[27.3783,-26.6107],[27.3658,-26.5738],[27.3386,-26.5717],[27.3442,-26.6131],[27.2419,-26.6365],[27.2284,-26.5711],[27.1826,-26.5746],[27.1563,-26.5243],[27.2314,-26.5055],[27.2248,-26.444],[27.188,-26.3779],[27.3301,-26.2818],[27.2914,-26.1446],[27.3583,-26.1546],[27.3617,-26.1157],[27.4194,-26.1175],[27.457,-25.9818],[27.4619,-25.8676],[27.5474,-25.8514],[27.6435,-25.7959],[27.6471,-25.8406],[27.6849,-25.8754],[27.7427,-25.8502],[27.7445,-25.8946],[27.8315,-25.8602],[27.8587,-25.8188],[27.8917,-25.8229],[27.8826,-25.8619],[27.9602,-25.816],[27.9493,-25.7597],[27.9795,-25.7515],[27.9482,-25.6952],[27.9523,-25.6535],[27.9806,-25.6328],[27.9576,-25.5926],[27.9815,-25.5428],[28.0495,-25.5596],[28.0524,-25.5358],[27.9924,-25.518],[28.036,-25.4706],[27.9917,-25.4245],[27.9697,-25.4391],[27.9456,-25.4067],[27.9708,-25.3629],[28.0004,-25.3594],[28.0447,-25.4017],[28.108,-25.367],[28.1767,-25.3659],[28.1768,-25.3286],[28.2015,-25.3237],[28.2283,-25.3542],[28.2981,-25.3393],[28.2982,-25.2932],[28.2463,-25.2129],[28.2112,-25.1981],[28.1357,-25.2056],[28.129,-25.1457],[28.0943,-25.1485],[28.0839,-25.1004],[28.1539,-25.0868],[28.1738,-25.12],[28.215,-25.1281],[28.2598,-25.0505],[28.1252,-25.0048],[28.12,-24.9795],[28.037,-24.9853],[27.9836,-24.9578],[27.955,-24.9702],[27.9465,-25.0012],[27.7889,-24.9665],[27.6873,-24.9944],[27.6286,-24.9737],[27.5975,-24.9849],[27.594,-25.0294],[27.5428,-25.098],[27.4818,-25.0671],[27.337,-25.0878],[27.3136,-25.0421],[27.2719,-25.0367],[27.2236,-25.0674],[27.2317,-25.0361],[27.2035,-25.0332],[27.2261,-24.9639],[27.1834,-24.9485],[27.154,-24.979],[27.1012,-24.9],[27.0412,-24.887],[27.0263,-24.7186],[26.9759,-24.7207],[26.9807,-24.7758],[26.7795,-24.8377],[26.7513,-24.883],[26.622,-24.8099],[26.4583,-24.8095],[26.4595,-24.7905],[26.426,-24.7712],[26.4276,-24.6582],[26.3933,-24.6366],[26.0074,-24.7243],[25.9644,-24.7494],[25.8483,-24.755],[25.8424,-24.7903],[25.8888,-24.8825],[25.8818,-24.9142],[25.8608,-24.9243],[25.7291,-25.2569],[25.6998,-25.291],[25.6598,-25.4744],[25.5809,-25.6388],[25.3421,-25.7689],[25.1214,-25.7637],[25.1043,-25.7411],[25.0375,-25.7222],[24.9128,-25.7844],[24.8969,-25.8108],[24.8132,-25.8103],[24.7947,-25.8252],[24.729,-25.804],[24.6818,-25.8237],[24.4467,-25.7336],[24.3749,-25.7641],[24.3249,-25.7325],[24.3249,-25.7101],[24.2853,-25.7264],[24.2884,-25.6943],[24.2609,-25.7073],[24.2268,-25.644],[24.1918,-25.6204],[24.1594,-25.6301],[24.1571,-25.6082],[24.0858,-25.6434],[24.0677,-25.631],[24.0586,-25.6519],[24.0299,-25.6343],[24.0052,-25.6513],[24.012,-25.6245],[23.9726,-25.6149],[23.9462,-25.6384],[23.9045,-25.6275],[23.8802,-25.5774],[23.8397,-25.5679],[23.8352,-25.5411],[23.8085,-25.5452],[23.821,-25.5129],[23.7629,-25.5032],[23.758,-25.4687],[23.729,-25.4464],[23.7025,-25.4624],[23.6667,-25.442],[23.6684,-25.4161],[23.6375,-25.4316],[23.6115,-25.4035],[23.616,-25.3839],[23.5893,-25.3965],[23.5596,-25.3547],[23.5241,-25.3401],[23.4962,-25.3516],[23.4943,-25.318],[23.4581,-25.2977],[23.4669,-25.2771],[23.4422,-25.277],[23.4143,-25.3158],[23.3555,-25.2851],[23.295,-25.2941],[23.278,-25.2741],[23.212,-25.2734],[23.1345,-25.3174],[23.1074,-25.3042],[23.077,-25.332],[23.0544,-25.3186],[23.0544,-25.2895],[23.0314,-25.3128],[23.0078,-25.2982],[23.0113,-25.3359],[22.9779,-25.3399],[22.97,-25.3811],[22.9123,-25.4192],[22.8857,-25.4684],[22.9004,-25.4868],[22.8464,-25.4902],[22.8535,-25.5335],[22.8141,-25.5824],[22.8534,-25.6152],[22.8004,-25.6328],[22.8302,-25.6578],[22.8215,-25.6905],[22.7693,-25.7328],[22.7593,-25.7887],[22.7346,-25.7937],[22.7817,-25.8244],[22.712,-25.893],[22.7492,-25.918],[22.7239,-25.9501],[22.7256,-26.0135],[22.6684,-26.0146],[22.6731,-26.0737],[22.6298,-26.0967],[22.6307,-26.1226],[22.7029,-26.1199],[22.7088,-26.4109],[22.8032,-26.4537],[22.8484,-26.3759],[22.9071,-26.1459],[22.9811,-26.1526],[22.987,-26.09],[23.0648,-26.0991],[23.0881,-26.0436],[23.0869,-25.9826],[23.3874,-26.0062],[23.3539,-26.0895],[23.2321,-26.0527],[23.2158,-26.1157],[23.311,-26.1419],[23.2217,-26.2713],[23.2821,-26.3395],[23.2664,-26.4854],[23.463,-26.5311],[23.5837,-26.6171],[23.4871,-26.7397],[23.8532,-26.8901],[23.8695,-26.8567],[23.9169,-26.8579],[23.9704,-26.8942],[24.0374,-27.0537],[23.976,-27.0794],[23.8965,-27.2527],[24.0863,-27.3535],[24.0575,-27.4294],[24.0492,-27.5586],[24.0506,-27.6027],[24.1186,-27.6217],[24.0933,-27.7049],[24.111,-27.739],[24.4053,-27.6812],[24.4468,-27.7029],[24.4088,-27.7611],[24.4526,-27.7825],[24.4274,-27.8405],[24.3605,-27.9107],[24.3926,-27.9415],[24.4099,-27.9233],[24.4673,-27.9806],[24.4445,-28.0319],[24.5346,-28.0921],[24.5637,-28.07],[24.5595,-28.0388],[24.6089,-28.0273],[24.6283,-27.9995],[24.6288,-27.9353],[24.6071,-27.8984],[24.6301,-27.9029],[24.6583,-27.8527],[24.6968,-27.8476],[24.6993,-27.8283],[24.6587,-27.7909],[24.6937,-27.7356],[24.6782,-27.6669],[24.6923,-27.6452],[24.7621,-27.6332],[24.7568,-27.6096],[24.7843,-27.6046],[24.8012,-27.7018],[24.9997,-27.6808],[25.0479,-27.6997],[24.8469,-27.9112],[24.8615,-27.9083],[24.8574,-27.9253],[24.8298,-27.9313],[24.9506,-28.1132],[24.9734,-28.081],[25.0739,-28.0659],[25.1074,-28.0119],[25.0906,-27.984],[25.131,-27.9506],[25.1335,-27.9253],[25.1606,-27.9271],[25.2541,-27.8651],[25.2384,-27.8344],[25.2751,-27.7963],[25.3404,-27.793],[25.3945,-27.7287],[25.4693,-27.7106],[25.4809,-27.6925],[25.5558,-27.6867],[25.5907,-27.6552],[25.6648,-27.6939],[25.6789,-27.6296],[25.8274,-27.5667],[25.8581,-27.6238],[25.9243,-27.6035],[25.9473,-27.6329],[25.9819,-27.6272],[26.0262,-27.7347],[26.0659,-27.7187],[26.0948,-27.6901],[26.0547,-27.6692],[26.0862,-27.648],[26.0843,-27.5955],[26.1133,-27.5933],[26.134,-27.5585],[26.1536,-27.564],[26.1701,-27.5361],[26.229,-27.5121],[26.2199,-27.4744],[26.2423,-27.4314],[26.2956,-27.4158],[26.3241,-27.4329],[26.3457,-27.3854],[26.4231,-27.4069],[26.4519,-27.3858],[26.5111,-27.3953],[26.4464,-27.3497],[26.4755,-27.3083],[26.4934,-27.3191],[26.4972,-27.2678],[26.4201,-27.1684],[26.429,-27.1502],[26.4731,-27.1542],[26.5287,-27.091],[26.5836,-27.108],[26.5818,-27.0531],[26.6193,-27.0034],[26.6687,-26.9946],[26.6887,-27.018],[26.7155,-26.9739],[26.805,-26.932],[26.8114,-26.9513],[26.8306,-26.9493],[26.8635,-26.9189],[26.9076,-26.9445],[26.9201,-26.9735],[26.9202,-26.906],[26.9404,-26.8715],[26.9561,-26.9002],[27.0282,-26.9359],[27.113,-26.9263],[27.1435,-26.9419],[27.1764,-26.9249],[27.174,-26.9685],[27.2033,-26.9805],[27.3059,-26.8534],[27.3328,-26.8542],[27.3709,-26.9042],[27.4143,-26.9257],[27.5111,-26.8378],[27.5094,-26.7858],[27.5756,-26.7787],[27.5698,-26.7473],[27.5904,-26.7384]]]},"properties":{"iso3":"ZAF","shapeId":"76434192B85643022077130","regionId":"ZAF.7_1","name":"North West"}},{"type":"Feature","geometry":{"type":"Polygon","coordinates":[[[25.4671,-30.6242],[25.3747,-30.5591],[25.3054,-30.5765],[25.2353,-30.4999],[25.1896,-30.4984],[25.0961,-30.3732],[25.0383,-30.3623],[25.0344,-30.2862],[24.9863,-30.29],[24.9465,-30.2518],[24.9542,-30.2261],[24.9251,-30.2007],[24.9,-30.2067],[24.8711,-30.1345],[24.8376,-30.1178],[24.8385,-30.0952],[24.7978,-30.0516],[24.808,-30.023],[24.794,-29.999],[24.6744,-29.9756],[24.665,-29.902],[24.6079,-29.9113],[24.547,-29.8449],[24.5026,-29.8364],[24.4977,-29.8161],[24.4389,-29.8148],[24.3488,-29.7032],[24.3466,-29.6559],[24.9018,-28.648],[24.8277,-28.627],[24.8678,-28.5171],[24.8469,-28.5038],[24.8868,-28.465],[24.9376,-28.3249],[24.8903,-28.3102],[24.8705,-28.2704],[24.9646,-28.2507],[25.0281,-28.0735],[24.9734,-28.081],[24.9506,-28.1132],[24.8298,-27.9313],[24.8574,-27.9253],[24.8615,-27.9083],[24.8469,-27.9112],[25.0479,-27.6997],[24.9997,-27.6808],[24.8012,-27.7018],[24.7843,-27.6046],[24.7568,-27.6096],[24.7621,-27.6332],[24.6923,-27.6452],[24.6727,-27.6856],[24.6937,-27.7356],[24.6587,-27.7909],[24.6993,-27.8283],[24.6968,-27.8476],[24.6583,-27.8527],[24.6301,-27.9029],[24.6071,-27.8984],[24.6288,-27.9353],[24.6283,-27.9995],[24.6089,-28.0273],[24.5595,-28.0388],[24.5637,-28.07],[24.5346,-28.0921],[24.4445,-28.0319],[24.4673,-27.9806],[24.4099,-27.9233],[24.3926,-27.9415],[24.3605,-27.9107],[24.4274,-27.8405],[24.4526,-27.7825],[24.4088,-27.7611],[24.4468,-27.7029],[24.4053,-27.6812],[24.111,-27.739],[24.0933,-27.7049],[24.1186,-27.6217],[24.0506,-27.6027],[24.0522,-27.4627],[24.0863,-27.3535],[23.8965,-27.2527],[23.976,-27.0794],[24.0374,-27.0537],[23.9704,-26.8942],[23.9169,-26.8579],[23.8695,-26.8567],[23.8532,-26.8901],[23.4871,-26.7397],[23.5837,-26.6171],[23.463,-26.5311],[23.2664,-26.4854],[23.2821,-26.3395],[23.2217,-26.2713],[23.311,-26.1419],[23.2158,-26.1157],[23.2321,-26.0527],[23.3539,-26.0895],[23.3874,-26.0062],[23.3205,-25.9928],[23.0869,-25.9826],[23.0881,-26.0436],[23.0648,-26.0991],[22.987,-26.09],[22.9811,-26.1526],[22.9071,-26.1459],[22.8484,-26.3759],[22.8032,-26.4537],[22.7088,-26.4109],[22.7029,-26.1199],[22.6179,-26.1241],[22.5997,-26.1519],[22.5781,-26.1426],[22.5777,-26.1916],[22.5527,-26.225],[22.4742,-26.1997],[22.4541,-26.2279],[22.4201,-26.2244],[22.3988,-26.2481],[22.4027,-26.2729],[22.3631,-26.2858],[22.363,-26.3255],[22.2473,-26.347],[22.1948,-26.394],[22.2002,-26.4248],[22.1601,-26.4833],[22.1635,-26.5083],[22.079,-26.5792],[22.0514,-26.6335],[21.949,-26.67],[21.8241,-26.6597],[21.772,-26.6891],[21.7931,-26.7708],[21.781,-26.8023],[21.698,-26.8601],[21.6269,-26.8666],[21.5756,-26.8399],[21.5254,-26.8618],[21.4049,-26.8221],[21.3327,-26.8256],[21.2992,-26.8494],[21.2217,-26.8438],[21.1342,-26.8738],[21.0789,-26.8485],[21.0109,-26.8467],[20.9718,-26.8072],[20.8981,-26.7963],[20.8207,-26.8193],[20.8163,-26.8417],[20.7866,-26.8417],[20.7635,-26.8664],[20.715,-26.8701],[20.6854,-26.9074],[20.6827,-26.8406],[20.6454,-26.829],[20.6504,-26.8095],[20.6224,-26.7869],[20.6377,-26.7675],[20.6145,-26.6869],[20.6353,-26.6653],[20.6326,-26.5918],[20.6048,-26.5147],[20.6174,-26.4437],[20.6934,-26.3977],[20.7199,-26.3338],[20.7905,-26.2712],[20.8193,-26.1823],[20.8633,-26.1327],[20.8209,-26.1055],[20.8418,-26.0804],[20.8187,-26.0586],[20.8361,-26.0361],[20.8154,-26.0059],[20.8404,-25.956],[20.8029,-25.921],[20.8131,-25.8697],[20.7827,-25.855],[20.7882,-25.8031],[20.7393,-25.8227],[20.7635,-25.7804],[20.7317,-25.7717],[20.7181,-25.7187],[20.6779,-25.6904],[20.6879,-25.6355],[20.6518,-25.6375],[20.6654,-25.604],[20.6982,-25.5951],[20.6292,-25.525],[20.6362,-25.4735],[20.6744,-25.4532],[20.6225,-25.4618],[20.631,-25.4253],[20.6012,-25.4274],[20.6016,-25.3947],[20.5616,-25.3895],[20.5392,-25.3448],[20.547,-25.3206],[20.5139,-25.3171],[20.5459,-25.2862],[20.4997,-25.2722],[20.4873,-25.2531],[20.4989,-25.2284],[20.4711,-25.2283],[20.4464,-25.199],[20.469,-25.1569],[20.4309,-25.1543],[20.4127,-25.0829],[20.3788,-25.0619],[20.3842,-25.0343],[20.2965,-24.9806],[20.2593,-24.9237],[20.222,-24.9199],[20.2036,-24.8964],[20.1818,-24.9118],[20.1502,-24.8795],[20.1213,-24.8848],[20.0877,-24.852],[20.0902,-24.8328],[19.9989,-24.7659],[19.9992,-28.4278],[19.8771,-28.4427],[19.8132,-28.5083],[19.7386,-28.4857],[19.6683,-28.5311],[19.6252,-28.5109],[19.5658,-28.5277],[19.536,-28.5871],[19.5039,-28.601],[19.4915,-28.6796],[19.4668,-28.7061],[19.4036,-28.7368],[19.2688,-28.7427],[19.2392,-28.813],[19.2958,-28.8944],[19.2828,-28.9093],[19.245,-28.9026],[19.1551,-28.9619],[19.0979,-28.9658],[19.0091,-28.9292],[18.993,-28.8872],[18.9356,-28.8572],[18.73,-28.8316],[18.6279,-28.8411],[18.5122,-28.8895],[18.4235,-28.9008],[18.2635,-28.8794],[18.1884,-28.9162],[18.0831,-28.8707],[18.0461,-28.8743],[17.9935,-28.8095],[17.9176,-28.7641],[17.7814,-28.7579],[17.7495,-28.7399],[17.7314,-28.7601],[17.7043,-28.7447],[17.6471,-28.7737],[17.6161,-28.7607],[17.5989,-28.6946],[17.5684,-28.6856],[17.4182,-28.7216],[17.4318,-28.5742],[17.3802,-28.5689],[17.3664,-28.5101],[17.3331,-28.4755],[17.3487,-28.439],[17.3848,-28.437],[17.41,-28.3996],[17.4142,-28.3763],[17.3758,-28.3214],[17.3821,-28.2956],[17.3333,-28.2258],[17.2146,-28.2478],[17.1825,-28.2034],[17.1919,-28.1082],[17.1382,-28.0931],[17.0793,-28.0328],[17.0031,-28.0752],[16.9736,-28.0587],[16.8859,-28.0881],[16.8879,-28.1729],[16.8313,-28.1667],[16.8561,-28.2117],[16.8031,-28.222],[16.8247,-28.269],[16.7764,-28.2591],[16.7545,-28.2728],[16.755,-28.302],[16.8084,-28.3624],[16.7692,-28.3964],[16.7765,-28.4417],[16.734,-28.4943],[16.7022,-28.4976],[16.6944,-28.4743],[16.6724,-28.4723],[16.6023,-28.5305],[16.4808,-28.5651],[16.4558,-28.5921],[16.4519,-28.6321],[16.5704,-28.7277],[16.5616,-28.762],[16.6026,-28.8749],[16.689,-28.9257],[16.7479,-29.0425],[16.8174,-29.0934],[16.8383,-29.2116],[16.9714,-29.4378],[16.9984,-29.5712],[17.034,-29.6165],[17.0557,-29.6894],[17.0748,-29.8144],[17.1179,-29.9321],[17.1587,-29.9826],[17.194,-30.1358],[17.2234,-30.1651],[17.2721,-30.3345],[17.4423,-30.5963],[17.4319,-30.6204],[17.4702,-30.6828],[17.5236,-30.7356],[17.6037,-30.9162],[17.6819,-31.0026],[17.7492,-31.1438],[17.8344,-31.1765],[17.8113,-31.0925],[17.9264,-31.0114],[17.8779,-30.9487],[17.8803,-30.9239],[17.9934,-30.9187],[18.0065,-30.7912],[18.0809,-30.7848],[18.1692,-30.8486],[18.2058,-30.8313],[18.1952,-30.816],[18.2642,-30.8183],[18.371,-30.6596],[18.3712,-30.5921],[18.4138,-30.5273],[18.3806,-30.4596],[18.5223,-30.6065],[18.4836,-30.5219],[18.5022,-30.4444],[18.5701,-30.4303],[18.6551,-30.5567],[18.7587,-30.5679],[18.7959,-30.6249],[18.7945,-30.6676],[18.863,-30.7171],[18.9519,-30.7447],[18.9605,-30.8661],[18.8754,-30.8871],[18.9845,-30.9458],[18.9118,-30.9789],[18.9035,-31.0418],[18.9476,-31.1129],[18.9445,-31.2373],[18.9664,-31.2845],[19.013,-31.3057],[18.9801,-31.3552],[19.0309,-31.3895],[19.043,-31.425],[19.0062,-31.512],[19.0854,-31.5269],[19.0518,-31.5727],[19.0854,-31.572],[19.0905,-31.5978],[19.0705,-31.6241],[19.0737,-31.6669],[19.0549,-31.6703],[19.0947,-31.7502],[19.0666,-31.766],[19.0872,-31.7936],[19.0303,-31.8338],[19.0262,-31.8766],[19.1418,-31.9121],[19.1997,-31.9048],[19.2107,-31.948],[19.2897,-31.863],[19.2648,-31.9657],[19.2775,-31.9797],[19.2899,-31.9651],[19.3233,-31.9848],[19.363,-32.0428],[19.3958,-32.0151],[19.4259,-32.0313],[19.4863,-32.0764],[19.4885,-32.1212],[19.5075,-32.0861],[19.5152,-32.1152],[19.4752,-32.1463],[19.5014,-32.1799],[19.4919,-32.2517],[19.4091,-32.2901],[19.4302,-32.3657],[19.5164,-32.4859],[19.495,-32.4989],[19.4868,-32.5654],[19.5282,-32.6732],[19.6049,-32.6295],[19.6219,-32.4706],[19.6549,-32.4388],[19.6797,-32.4635],[19.7302,-32.4424],[19.7074,-32.4203],[19.7366,-32.3855],[19.7641,-32.4111],[19.8027,-32.3937],[19.8178,-32.3607],[19.8739,-32.3832],[19.9375,-32.3773],[20.0386,-32.2964],[20.0536,-32.2523],[20.097,-32.2502],[20.1359,-32.1923],[20.181,-32.1845],[20.1664,-32.2275],[20.2408,-32.2242],[20.2542,-32.3108],[20.216,-32.3032],[20.1635,-32.351],[20.1705,-32.3809],[20.132,-32.4211],[20.0796,-32.3973],[20.1147,-32.5702],[20.1412,-32.6437],[20.1917,-32.6858],[20.1876,-32.7527],[20.219,-32.7847],[20.2999,-32.805],[20.3572,-32.8641],[20.3639,-32.9108],[20.38,-32.9019],[20.4386,-32.9401],[20.4993,-32.9416],[20.5612,-32.881],[20.5901,-32.943],[20.7312,-32.945],[20.7442,-32.9129],[20.7986,-32.8948],[20.8324,-32.8174],[20.7898,-32.7112],[20.8441,-32.6624],[20.9628,-32.6393],[21.0945,-32.653],[21.157,-32.6289],[21.1401,-32.5898],[21.1821,-32.5087],[21.2815,-32.4397],[21.3015,-32.3773],[21.3528,-32.3915],[21.4299,-32.3752],[21.4756,-32.3315],[21.5504,-32.3269],[21.5618,-32.3147],[21.536,-32.2292],[21.6446,-32.2087],[21.6916,-32.2486],[21.7359,-32.205],[21.7806,-32.2509],[21.8742,-32.2766],[21.9074,-32.2528],[21.9246,-32.262],[21.9362,-32.2229],[21.9995,-32.206],[22.0164,-32.1143],[22.0696,-32.0814],[22.0897,-32.1464],[22.134,-32.0644],[22.0741,-32.0179],[22.095,-32.0011],[22.0713,-31.9393],[22.1004,-31.9243],[22.1017,-31.9005],[22.0789,-31.8549],[22.1666,-31.8931],[22.1769,-31.8207],[22.1599,-31.8097],[22.2063,-31.7923],[22.2729,-31.5925],[22.3123,-31.5835],[22.4958,-31.6703],[22.5648,-31.6779],[22.5661,-31.7132],[22.6191,-31.7247],[22.5783,-31.8055],[22.6149,-31.8229],[22.7351,-31.7994],[22.7769,-31.8569],[22.859,-31.8183],[22.8747,-31.8616],[22.902,-31.8758],[22.9758,-31.8608],[23.0674,-31.8907],[23.0526,-31.9398],[23.0985,-31.9777],[23.2304,-31.8757],[23.225,-31.854],[23.3024,-31.7301],[23.3451,-31.7109],[23.4071,-31.7138],[23.4165,-31.6722],[23.5239,-31.7053],[23.6191,-31.6494],[23.7152,-31.6471],[23.7565,-31.6957],[23.8416,-31.7151],[23.8476,-31.7292],[23.8085,-31.7637],[23.8372,-31.7679],[23.8294,-31.7803],[23.894,-31.8368],[23.9487,-31.7733],[23.9631,-31.7067],[24.0468,-31.7067],[24.0285,-31.7302],[24.0709,-31.8071],[24.1525,-31.7886],[24.1616,-31.7401],[24.285,-31.7652],[24.3407,-31.7138],[24.4233,-31.7116],[24.4126,-31.6885],[24.4413,-31.7126],[24.5141,-31.705],[24.523,-31.6037],[24.5039,-31.5684],[24.533,-31.5098],[24.5194,-31.4979],[24.5589,-31.4818],[24.5672,-31.4186],[24.5961,-31.3992],[24.665,-31.3837],[24.7106,-31.4095],[24.7887,-31.3895],[24.8255,-31.3565],[24.8629,-31.3736],[24.853,-31.3282],[24.9336,-31.3204],[25.0056,-31.2631],[25.0585,-31.2694],[25.1705,-31.2392],[25.211,-31.1921],[25.3544,-31.236],[25.3862,-31.2178],[25.3846,-31.151],[25.4464,-31.1002],[25.4388,-31.0615],[25.4868,-31.0369],[25.5016,-31.0074],[25.475,-30.9839],[25.5109,-30.9557],[25.5178,-30.9015],[25.4713,-30.8698],[25.5493,-30.791],[25.4802,-30.7789],[25.4623,-30.7221],[25.4671,-30.6242]]]},"properties":{"iso3":"ZAF","shapeId":"76434192B51294388644125","regionId":null,"name":"Nothern Cape"}},{"type":"Feature","geometry":{"type":"MultiPolygon","coordinates":[[[[19.4181,-34.6867],[19.4149,-34.6892],[19.4099,-34.6882],[19.4124,-34.6904],[19.4153,-34.69],[19.4177,-34.6888],[19.4181,-34.6867]]],[[[19.4188,-34.6782],[19.4167,-34.6788],[19.4182,-34.6804],[19.4116,-34.684],[19.4138,-34.6866],[19.4234,-34.6802],[19.4188,-34.6782]]],[[[18.369,-33.7898],[18.3567,-33.8018],[18.3708,-33.8202],[18.3829,-33.8124],[18.369,-33.7898]]],[[[18.0743,-33.4126],[18.0721,-33.4135],[18.0738,-33.4181],[18.0848,-33.4287],[18.0817,-33.4322],[18.0862,-33.4341],[18.0908,-33.4335],[18.0924,-33.4311],[18.0983,-33.4318],[18.0987,-33.4303],[18.0959,-33.4279],[18.0971,-33.4252],[18.0918,-33.4217],[18.0896,-33.4135],[18.0881,-33.4136],[18.0867,-33.4175],[18.0833,-33.4186],[18.0773,-33.4165],[18.0743,-33.4126]]],[[[17.9859,-33.1507],[17.9803,-33.1507],[17.9791,-33.1521],[17.9852,-33.1544],[17.9859,-33.1507]]],[[[17.9926,-33.1458],[17.9908,-33.1465],[17.9913,-33.148],[17.9938,-33.1468],[17.9926,-33.1458]]],[[[18.0211,-33.088],[18.0181,-33.09],[18.0178,-33.0931],[18.0192,-33.0945],[18.0238,-33.0946],[18.0265,-33.0909],[18.0211,-33.088]]],[[[18.0072,-33.0839],[18.0055,-33.0845],[18.0065,-33.0863],[18.011,-33.0865],[18.0107,-33.0849],[18.0072,-33.0839]]],[[[17.9535,-33.0801],[17.9509,-33.0806],[17.9506,-33.0827],[17.9545,-33.0874],[17.9588,-33.0863],[17.9596,-33.0831],[17.9572,-33.0808],[17.9535,-33.0801]]],[[[17.9253,-33.0506],[17.9232,-33.0536],[17.9263,-33.0551],[17.9296,-33.0529],[17.9276,-33.0508],[17.9253,-33.0506]]],[[[24.1525,-31.7886],[24.0709,-31.8071],[24.0285,-31.7302],[24.0468,-31.7067],[23.9631,-31.7067],[23.9487,-31.7733],[23.894,-31.8368],[23.8294,-31.7803],[23.8372,-31.7679],[23.8085,-31.7637],[23.8476,-31.7292],[23.8416,-31.7151],[23.7565,-31.6957],[23.7152,-31.6471],[23.6191,-31.6494],[23.5239,-31.7053],[23.4165,-31.6722],[23.4071,-31.7138],[23.3451,-31.7109],[23.3024,-31.7301],[23.225,-31.854],[23.2304,-31.8757],[23.0985,-31.9777],[23.0526,-31.9398],[23.0674,-31.8907],[22.9758,-31.8608],[22.902,-31.8758],[22.8747,-31.8616],[22.859,-31.8183],[22.7769,-31.8569],[22.7351,-31.7994],[22.6149,-31.8229],[22.5783,-31.8055],[22.6191,-31.7247],[22.5661,-31.7132],[22.5648,-31.6779],[22.4958,-31.6703],[22.3123,-31.5835],[22.2729,-31.5925],[22.2063,-31.7923],[22.1599,-31.8097],[22.1769,-31.8207],[22.1666,-31.8931],[22.0789,-31.8549],[22.1017,-31.9005],[22.1004,-31.9243],[22.0713,-31.9393],[22.095,-32.0011],[22.0741,-32.0179],[22.134,-32.0644],[22.0897,-32.1464],[22.0696,-32.0814],[22.0164,-32.1143],[21.9995,-32.206],[21.9362,-32.2229],[21.9246,-32.262],[21.9074,-32.2528],[21.8742,-32.2766],[21.7806,-32.2509],[21.7359,-32.205],[21.6916,-32.2486],[21.6446,-32.2087],[21.536,-32.2292],[21.5618,-32.3147],[21.5504,-32.3269],[21.4756,-32.3315],[21.4299,-32.3752],[21.3528,-32.3915],[21.3015,-32.3773],[21.2815,-32.4397],[21.1821,-32.5087],[21.1401,-32.5898],[21.157,-32.6289],[21.0945,-32.653],[20.9628,-32.6393],[20.8441,-32.6624],[20.7898,-32.7112],[20.8324,-32.8174],[20.7986,-32.8948],[20.7442,-32.9129],[20.7312,-32.945],[20.5901,-32.943],[20.5612,-32.881],[20.4993,-32.9416],[20.4386,-32.9401],[20.38,-32.9019],[20.3639,-32.9108],[20.3572,-32.8641],[20.2999,-32.805],[20.219,-32.7847],[20.1876,-32.7527],[20.1917,-32.6858],[20.1412,-32.6437],[20.1147,-32.5702],[20.0796,-32.3973],[20.132,-32.4211],[20.1705,-32.3809],[20.1635,-32.351],[20.216,-32.3032],[20.2542,-32.3108],[20.2408,-32.2242],[20.1664,-32.2275],[20.181,-32.1845],[20.1359,-32.1923],[20.097,-32.2502],[20.0536,-32.2523],[20.0386,-32.2964],[19.9375,-32.3773],[19.8739,-32.3832],[19.8178,-32.3607],[19.8027,-32.3937],[19.7641,-32.4111],[19.7366,-32.3855],[19.7074,-32.4203],[19.7302,-32.4424],[19.6797,-32.4635],[19.6549,-32.4388],[19.6219,-32.4706],[19.6049,-32.6295],[19.5282,-32.6732],[19.4868,-32.5654],[19.495,-32.4989],[19.5164,-32.4859],[19.4302,-32.3657],[19.4091,-32.2901],[19.4919,-32.2517],[19.5014,-32.1799],[19.4752,-32.1463],[19.5152,-32.1152],[19.5075,-32.0861],[19.4885,-32.1212],[19.4863,-32.0764],[19.4259,-32.0313],[19.3958,-32.0151],[19.363,-32.0428],[19.3233,-31.9848],[19.2899,-31.9651],[19.2775,-31.9797],[19.2648,-31.9657],[19.2897,-31.863],[19.2107,-31.948],[19.1997,-31.9048],[19.1418,-31.9121],[19.0262,-31.8766],[19.0303,-31.8338],[19.0872,-31.7936],[19.0666,-31.766],[19.0947,-31.7502],[19.0549,-31.6703],[19.0737,-31.6669],[19.0705,-31.6241],[19.0905,-31.5978],[19.0854,-31.572],[19.0518,-31.5727],[19.0854,-31.5269],[19.0062,-31.512],[19.043,-31.425],[19.0309,-31.3895],[18.9801,-31.3552],[19.013,-31.3057],[18.9664,-31.2845],[18.9445,-31.2373],[18.9476,-31.1129],[18.9035,-31.0418],[18.9118,-30.9789],[18.9845,-30.9458],[18.8754,-30.8871],[18.9605,-30.8661],[18.9519,-30.7447],[18.863,-30.7171],[18.7945,-30.6676],[18.7959,-30.6249],[18.7587,-30.5679],[18.6551,-30.5567],[18.5701,-30.4303],[18.5022,-30.4444],[18.4836,-30.5219],[18.5223,-30.6065],[18.3806,-30.4596],[18.4138,-30.5273],[18.3712,-30.5921],[18.371,-30.6596],[18.2518,-30.8275],[18.2135,-30.8104],[18.1692,-30.8486],[18.0809,-30.7848],[18.0065,-30.7912],[17.9934,-30.9187],[17.8803,-30.9239],[17.8779,-30.9487],[17.9264,-31.0114],[17.8113,-31.0925],[17.8344,-31.1765],[17.7576,-31.152],[17.8634,-31.2576],[17.9004,-31.3521],[18.1111,-31.575],[18.2228,-31.7443],[18.2302,-31.817],[18.2801,-31.8982],[18.2654,-31.9396],[18.314,-32.071],[18.3001,-32.1136],[18.3447,-32.2814],[18.3375,-32.314],[18.3139,-32.317],[18.3348,-32.4643],[18.3045,-32.5866],[18.2468,-32.6781],[18.1389,-32.7733],[18.0553,-32.7842],[17.9674,-32.7004],[17.8952,-32.7422],[17.9016,-32.802],[17.8438,-32.8255],[17.8829,-32.8625],[17.8567,-32.9053],[17.8841,-32.9302],[17.8715,-32.9928],[17.9032,-33.015],[17.8933,-33.0408],[17.9106,-33.052],[17.9469,-33.0255],[17.9708,-33.0448],[17.9461,-33.0071],[17.9682,-32.9962],[17.9964,-32.9999],[17.9835,-33.0322],[17.9974,-33.0078],[18.0301,-33.0239],[18.0428,-33.0504],[18.0322,-33.1052],[18.0905,-33.1431],[18.0847,-33.1738],[18.123,-33.1922],[18.0948,-33.2039],[18.025,-33.1447],[18.0134,-33.0958],[17.982,-33.095],[18.0044,-33.0879],[17.9951,-33.07],[17.9722,-33.0679],[17.9785,-33.0925],[17.9519,-33.1059],[17.9702,-33.137],[18.0154,-33.1555],[18.1065,-33.2407],[18.1574,-33.3234],[18.1469,-33.3548],[18.3073,-33.4813],[18.3254,-33.517],[18.3076,-33.5651],[18.355,-33.5786],[18.438,-33.6926],[18.446,-33.772],[18.4887,-33.8519],[18.4846,-33.8902],[18.4659,-33.912],[18.439,-33.903],[18.4459,-33.9203],[18.4174,-33.9088],[18.4345,-33.8976],[18.3985,-33.9005],[18.3773,-33.9221],[18.3709,-33.974],[18.3072,-34.0395],[18.3688,-34.0628],[18.3511,-34.1258],[18.3188,-34.1484],[18.3704,-34.1959],[18.4006,-34.3084],[18.4721,-34.3583],[18.4981,-34.3572],[18.4607,-34.3192],[18.4771,-34.2325],[18.4259,-34.1868],[18.4321,-34.1412],[18.4684,-34.1095],[18.6308,-34.0733],[18.7734,-34.083],[18.8681,-34.1591],[18.8184,-34.19],[18.8559,-34.2524],[18.8119,-34.2988],[18.8318,-34.3389],[18.8095,-34.3487],[18.826,-34.3881],[19.0424,-34.3411],[19.1026,-34.3721],[19.1206,-34.4159],[19.1422,-34.4236],[19.1706,-34.4161],[19.2185,-34.4381],[19.2754,-34.4091],[19.3412,-34.4613],[19.3789,-34.5428],[19.2934,-34.6336],[19.4116,-34.6074],[19.4503,-34.6556],[19.5205,-34.6713],[19.6003,-34.7508],[19.6322,-34.7551],[19.6384,-34.7827],[19.663,-34.7884],[19.6979,-34.7625],[19.8723,-34.7659],[19.9986,-34.8342],[20.0638,-34.806],[20.0479,-34.7747],[20.0798,-34.7365],[20.1676,-34.6961],[20.2363,-34.6916],[20.247,-34.6455],[20.3994,-34.5714],[20.4778,-34.4915],[20.6553,-34.4497],[20.8478,-34.4749],[20.8721,-34.4509],[20.8518,-34.4008],[20.9332,-34.3659],[21.1021,-34.3769],[21.2995,-34.4391],[21.3723,-34.4231],[21.4292,-34.3945],[21.432,-34.3726],[21.5226,-34.3571],[21.6961,-34.395],[21.8354,-34.3753],[21.9144,-34.3388],[21.9081,-34.3192],[21.9456,-34.3015],[21.9122,-34.2737],[21.9567,-34.229],[22.1607,-34.1878],[22.1127,-34.1647],[22.1243,-34.1176],[22.1595,-34.0841],[22.2279,-34.0596],[22.4843,-34.0516],[22.5803,-33.9956],[22.796,-34.0311],[22.9798,-34.094],[22.9788,-34.0787],[23.0086,-34.072],[23.4069,-34.1114],[23.3715,-34.0787],[23.4124,-34.0193],[23.5565,-33.9827],[23.647,-33.9806],[23.6374,-33.913],[23.7033,-33.8641],[23.5619,-33.8289],[23.5573,-33.7934],[23.5188,-33.7821],[23.488,-33.7915],[23.4891,-33.8075],[23.395,-33.7926],[23.4301,-33.7618],[23.4399,-33.7174],[23.5413,-33.6995],[23.5565,-33.6515],[23.5859,-33.6727],[23.6704,-33.6726],[23.675,-33.6259],[23.6199,-33.5915],[23.6168,-33.5696],[23.5962,-33.5725],[23.604,-33.4964],[23.4956,-33.4434],[23.3549,-33.4412],[23.3641,-33.4618],[23.2971,-33.3886],[23.1348,-33.3876],[22.9348,-33.4291],[22.7744,-33.4197],[22.7357,-33.3948],[22.7393,-33.324],[22.7734,-33.3263],[22.7903,-33.3073],[22.8923,-33.1416],[22.9553,-33.0731],[22.9578,-33.0451],[22.9341,-33.0217],[22.9693,-32.9934],[22.9488,-32.95],[23.0037,-32.8983],[23.0074,-32.8728],[23.098,-32.8737],[23.1164,-32.858],[23.0893,-32.7992],[23.1493,-32.7667],[23.1875,-32.7674],[23.2011,-32.7854],[23.3786,-32.825],[23.3977,-32.7635],[23.3516,-32.7638],[23.3535,-32.7294],[23.3329,-32.7036],[23.2696,-32.6715],[23.3013,-32.6518],[23.3073,-32.6116],[23.2882,-32.5512],[23.2445,-32.5132],[23.2475,-32.4653],[23.2216,-32.425],[23.3073,-32.3959],[23.3331,-32.3511],[23.4099,-32.3892],[23.449,-32.3233],[23.6651,-32.3442],[23.6784,-32.3291],[23.6489,-32.298],[23.6705,-32.2377],[23.7662,-32.1787],[23.8923,-32.2549],[23.9611,-32.2065],[24.0305,-32.1935],[24.038,-32.1581],[24.1001,-32.164],[24.1355,-32.1231],[24.1354,-32.0979],[24.1097,-32.0843],[24.0979,-32.1108],[24.1029,-32.0699],[24.1411,-32.0514],[24.1286,-32.0413],[24.1409,-32.0117],[24.1894,-32.0122],[24.183,-31.9959],[24.2224,-31.9556],[24.1642,-31.9024],[24.1054,-31.9069],[24.1236,-31.8472],[24.1533,-31.8549],[24.1548,-31.8225],[24.1837,-31.8133],[24.1525,-31.7886]]]]},"properties":{"iso3":"ZAF","shapeId":"76434192B56312278962278","regionId":"ZAF.9_1","name":"Western Cape"}}]}